<?xml version="1.0" encoding="UTF-8"?>
<gpx creator="https://gpx.studio" version="1.1" xmlns="http://www.topografix.com/GPX/1/1" xmlns:xsi="http://www.w3.org/2001/XMLSchema-instance" xsi:schemaLocation="http://www.topografix.com/GPX/1/1 http://www.topografix.com/GPX/1/1/gpx.xsd http://www.garmin.com/xmlschemas/GpxExtensions/v3 http://www.garmin.com/xmlschemas/GpxExtensionsv3.xsd http://www.garmin.com/xmlschemas/TrackPointExtension/v1 http://www.garmin.com/xmlschemas/TrackPointExtensionv1.xsd http://www.garmin.com/xmlschemas/PowerExtension/v1 http://www.garmin.com/xmlschemas/PowerExtensionv1.xsd http://www.topografix.com/GPX/gpx_style/0/2 http://www.topografix.com/GPX/gpx_style/0/2/gpx_style.xsd" xmlns:gpxtpx="http://www.garmin.com/xmlschemas/TrackPointExtension/v1" xmlns:gpxx="http://www.garmin.com/xmlschemas/GpxExtensions/v3" xmlns:gpxpx="http://www.garmin.com/xmlschemas/PowerExtension/v1" xmlns:gpx_style="http://www.topografix.com/GPX/gpx_style/0/2">
  <metadata>
    <name>triglav-trail-14km</name>
    <author>
      <name>gpx.studio</name>
      <link href="https://gpx.studio"/>
    </author>
  </metadata>
  <trk>
    <name>triglav-trail-14km</name>
    <trkseg>
      <trkpt lat="46.458396" lon="13.935927">
        <ele>658.9</ele>
      </trkpt>
      <trkpt lat="46.458211" lon="13.935744">
        <ele>659</ele>
      </trkpt>
      <trkpt lat="46.457763" lon="13.936079">
        <ele>658.97</ele>
      </trkpt>
      <trkpt lat="46.457674" lon="13.936032">
        <ele>658.22</ele>
      </trkpt>
      <trkpt lat="46.457582" lon="13.936098">
        <ele>656.14</ele>
      </trkpt>
      <trkpt lat="46.457523" lon="13.936129">
        <ele>654.41</ele>
      </trkpt>
      <trkpt lat="46.457473" lon="13.936171">
        <ele>654</ele>
      </trkpt>
      <trkpt lat="46.457424" lon="13.936215">
        <ele>654.42</ele>
      </trkpt>
      <trkpt lat="46.457356" lon="13.9363">
        <ele>656.68</ele>
      </trkpt>
      <trkpt lat="46.457181" lon="13.935983">
        <ele>657.9</ele>
      </trkpt>
      <trkpt lat="46.457009" lon="13.93556">
        <ele>657.93</ele>
      </trkpt>
      <trkpt lat="46.45685" lon="13.935271">
        <ele>658.35</ele>
      </trkpt>
      <trkpt lat="46.456724" lon="13.935077">
        <ele>658.62</ele>
      </trkpt>
      <trkpt lat="46.456481" lon="13.934866">
        <ele>659.42</ele>
      </trkpt>
      <trkpt lat="46.4562" lon="13.934638">
        <ele>660.06</ele>
      </trkpt>
      <trkpt lat="46.455635" lon="13.934423">
        <ele>663.76</ele>
      </trkpt>
      <trkpt lat="46.455471" lon="13.934447">
        <ele>665.48</ele>
      </trkpt>
      <trkpt lat="46.455431" lon="13.934432">
        <ele>665.21</ele>
      </trkpt>
      <trkpt lat="46.45538" lon="13.934395">
        <ele>664.64</ele>
      </trkpt>
      <trkpt lat="46.45523" lon="13.934368">
        <ele>664.56</ele>
      </trkpt>
      <trkpt lat="46.455162" lon="13.934341">
        <ele>664.74</ele>
      </trkpt>
      <trkpt lat="46.455037" lon="13.934272">
        <ele>664.97</ele>
      </trkpt>
      <trkpt lat="46.45483" lon="13.934128">
        <ele>665.14</ele>
      </trkpt>
      <trkpt lat="46.454736" lon="13.934052">
        <ele>664.74</ele>
      </trkpt>
      <trkpt lat="46.454635" lon="13.933924">
        <ele>665.43</ele>
      </trkpt>
      <trkpt lat="46.454602" lon="13.933821">
        <ele>665.56</ele>
      </trkpt>
      <trkpt lat="46.45451" lon="13.93376">
        <ele>665.74</ele>
      </trkpt>
      <trkpt lat="46.454387" lon="13.933656">
        <ele>666.42</ele>
      </trkpt>
      <trkpt lat="46.454268" lon="13.933358">
        <ele>666.21</ele>
      </trkpt>
      <trkpt lat="46.453845" lon="13.932564">
        <ele>669.64</ele>
      </trkpt>
      <trkpt lat="46.453688" lon="13.932334">
        <ele>671.18</ele>
      </trkpt>
      <trkpt lat="46.453583" lon="13.932127">
        <ele>670.64</ele>
      </trkpt>
      <trkpt lat="46.453439" lon="13.931953">
        <ele>670.41</ele>
      </trkpt>
      <trkpt lat="46.453185" lon="13.931722">
        <ele>671.27</ele>
      </trkpt>
      <trkpt lat="46.453095" lon="13.931693">
        <ele>672.44</ele>
      </trkpt>
      <trkpt lat="46.453013" lon="13.931594">
        <ele>670.53</ele>
      </trkpt>
      <trkpt lat="46.452815" lon="13.931365">
        <ele>672.13</ele>
      </trkpt>
      <trkpt lat="46.452678" lon="13.931144">
        <ele>671.55</ele>
      </trkpt>
      <trkpt lat="46.452552" lon="13.930893">
        <ele>672.01</ele>
      </trkpt>
      <trkpt lat="46.452397" lon="13.930625">
        <ele>672.84</ele>
      </trkpt>
      <trkpt lat="46.452267" lon="13.930443">
        <ele>672.89</ele>
      </trkpt>
      <trkpt lat="46.452104" lon="13.930247">
        <ele>673.18</ele>
      </trkpt>
      <trkpt lat="46.451903" lon="13.930069">
        <ele>673.59</ele>
      </trkpt>
      <trkpt lat="46.451606" lon="13.929855">
        <ele>674.79</ele>
      </trkpt>
      <trkpt lat="46.451322" lon="13.929593">
        <ele>676.11</ele>
      </trkpt>
      <trkpt lat="46.45108" lon="13.929445">
        <ele>676.84</ele>
      </trkpt>
      <trkpt lat="46.450827" lon="13.92931">
        <ele>677.84</ele>
      </trkpt>
      <trkpt lat="46.450791" lon="13.929276">
        <ele>677.92</ele>
      </trkpt>
      <trkpt lat="46.450679" lon="13.92901">
        <ele>678.88</ele>
      </trkpt>
      <trkpt lat="46.45062" lon="13.928809">
        <ele>678.31</ele>
      </trkpt>
      <trkpt lat="46.45057" lon="13.928564">
        <ele>678.73</ele>
      </trkpt>
      <trkpt lat="46.450507" lon="13.928162">
        <ele>679.26</ele>
      </trkpt>
      <trkpt lat="46.450461" lon="13.927917">
        <ele>679.81</ele>
      </trkpt>
      <trkpt lat="46.450313" lon="13.927644">
        <ele>680.06</ele>
      </trkpt>
      <trkpt lat="46.450141" lon="13.927399">
        <ele>681.35</ele>
      </trkpt>
      <trkpt lat="46.449962" lon="13.927169">
        <ele>682.15</ele>
      </trkpt>
      <trkpt lat="46.449857" lon="13.926972">
        <ele>682.03</ele>
      </trkpt>
      <trkpt lat="46.449734" lon="13.926675">
        <ele>682.93</ele>
      </trkpt>
      <trkpt lat="46.449543" lon="13.926488">
        <ele>683.48</ele>
      </trkpt>
      <trkpt lat="46.449368" lon="13.926382">
        <ele>683.61</ele>
      </trkpt>
      <trkpt lat="46.449211" lon="13.926271">
        <ele>684.15</ele>
      </trkpt>
      <trkpt lat="46.44909" lon="13.926054">
        <ele>684.16</ele>
      </trkpt>
      <trkpt lat="46.44903" lon="13.925874">
        <ele>683.9</ele>
      </trkpt>
      <trkpt lat="46.449008" lon="13.925749">
        <ele>683.83</ele>
      </trkpt>
      <trkpt lat="46.448949" lon="13.925604">
        <ele>684.28</ele>
      </trkpt>
      <trkpt lat="46.448878" lon="13.925503">
        <ele>685.53</ele>
      </trkpt>
      <trkpt lat="46.448848" lon="13.925322">
        <ele>684.94</ele>
      </trkpt>
      <trkpt lat="46.448802" lon="13.924331">
        <ele>684.51</ele>
      </trkpt>
      <trkpt lat="46.448857" lon="13.924142">
        <ele>683.56</ele>
      </trkpt>
      <trkpt lat="46.448878" lon="13.923942">
        <ele>684.19</ele>
      </trkpt>
      <trkpt lat="46.448712" lon="13.923858">
        <ele>688.22</ele>
      </trkpt>
      <trkpt lat="46.448763" lon="13.923247">
        <ele>686.98</ele>
      </trkpt>
      <trkpt lat="46.448764" lon="13.923038">
        <ele>687.81</ele>
      </trkpt>
      <trkpt lat="46.448755" lon="13.922892">
        <ele>688.15</ele>
      </trkpt>
      <trkpt lat="46.448763" lon="13.922749">
        <ele>687.98</ele>
      </trkpt>
      <trkpt lat="46.448747" lon="13.922591">
        <ele>688.34</ele>
      </trkpt>
      <trkpt lat="46.448717" lon="13.922466">
        <ele>688.88</ele>
      </trkpt>
      <trkpt lat="46.448686" lon="13.922377">
        <ele>688.78</ele>
      </trkpt>
      <trkpt lat="46.448612" lon="13.922277">
        <ele>689.49</ele>
      </trkpt>
      <trkpt lat="46.448314" lon="13.922124">
        <ele>691.11</ele>
      </trkpt>
      <trkpt lat="46.448025" lon="13.922018">
        <ele>691.66</ele>
      </trkpt>
      <trkpt lat="46.447828" lon="13.921882">
        <ele>691.57</ele>
      </trkpt>
      <trkpt lat="46.447708" lon="13.92176">
        <ele>692.17</ele>
      </trkpt>
      <trkpt lat="46.447636" lon="13.921619">
        <ele>693.88</ele>
      </trkpt>
      <trkpt lat="46.447614" lon="13.921483">
        <ele>694.34</ele>
      </trkpt>
      <trkpt lat="46.447598" lon="13.921382">
        <ele>694.68</ele>
      </trkpt>
      <trkpt lat="46.44759" lon="13.921255">
        <ele>694.53</ele>
      </trkpt>
      <trkpt lat="46.44761" lon="13.921125">
        <ele>693.85</ele>
      </trkpt>
      <trkpt lat="46.447694" lon="13.92089">
        <ele>693.33</ele>
      </trkpt>
      <trkpt lat="46.447703" lon="13.920781">
        <ele>693.81</ele>
      </trkpt>
      <trkpt lat="46.447787" lon="13.920599">
        <ele>692.92</ele>
      </trkpt>
      <trkpt lat="46.447863" lon="13.920487">
        <ele>693.19</ele>
      </trkpt>
      <trkpt lat="46.447913" lon="13.920323">
        <ele>693.25</ele>
      </trkpt>
      <trkpt lat="46.44798" lon="13.919982">
        <ele>693.95</ele>
      </trkpt>
      <trkpt lat="46.447979" lon="13.919905">
        <ele>694.21</ele>
      </trkpt>
      <trkpt lat="46.447961" lon="13.919815">
        <ele>694.64</ele>
      </trkpt>
      <trkpt lat="46.447877" lon="13.919637">
        <ele>695.2</ele>
      </trkpt>
      <trkpt lat="46.447751" lon="13.919417">
        <ele>695.36</ele>
      </trkpt>
      <trkpt lat="46.447606" lon="13.91921">
        <ele>695.67</ele>
      </trkpt>
      <trkpt lat="46.447451" lon="13.919042">
        <ele>696.09</ele>
      </trkpt>
      <trkpt lat="46.446915" lon="13.91865">
        <ele>697.58</ele>
      </trkpt>
      <trkpt lat="46.446836" lon="13.918564">
        <ele>698</ele>
      </trkpt>
      <trkpt lat="46.446654" lon="13.91823">
        <ele>698</ele>
      </trkpt>
      <trkpt lat="46.446261" lon="13.917319">
        <ele>700.01</ele>
      </trkpt>
      <trkpt lat="46.446103" lon="13.917022">
        <ele>701.42</ele>
      </trkpt>
      <trkpt lat="46.446007" lon="13.916806">
        <ele>702.05</ele>
      </trkpt>
      <trkpt lat="46.445893" lon="13.916459">
        <ele>702.93</ele>
      </trkpt>
      <trkpt lat="46.445768" lon="13.91616">
        <ele>702.38</ele>
      </trkpt>
      <trkpt lat="46.445683" lon="13.915912">
        <ele>702.43</ele>
      </trkpt>
      <trkpt lat="46.445515" lon="13.915471">
        <ele>702.38</ele>
      </trkpt>
      <trkpt lat="46.44522" lon="13.914911">
        <ele>705.74</ele>
      </trkpt>
      <trkpt lat="46.445077" lon="13.914726">
        <ele>706.24</ele>
      </trkpt>
      <trkpt lat="46.444914" lon="13.914542">
        <ele>708</ele>
      </trkpt>
      <trkpt lat="46.444605" lon="13.914069">
        <ele>709.06</ele>
      </trkpt>
      <trkpt lat="46.444189" lon="13.913372">
        <ele>711.41</ele>
      </trkpt>
      <trkpt lat="46.444065" lon="13.913135">
        <ele>710.59</ele>
      </trkpt>
      <trkpt lat="46.443929" lon="13.912845">
        <ele>710.69</ele>
      </trkpt>
      <trkpt lat="46.443772" lon="13.912327">
        <ele>711</ele>
      </trkpt>
      <trkpt lat="46.443631" lon="13.91177">
        <ele>712</ele>
      </trkpt>
      <trkpt lat="46.443565" lon="13.911553">
        <ele>712</ele>
      </trkpt>
      <trkpt lat="46.443471" lon="13.911306">
        <ele>713</ele>
      </trkpt>
      <trkpt lat="46.443235" lon="13.910842">
        <ele>715</ele>
      </trkpt>
      <trkpt lat="46.44308" lon="13.910495">
        <ele>716.71</ele>
      </trkpt>
      <trkpt lat="46.442977" lon="13.910152">
        <ele>717</ele>
      </trkpt>
      <trkpt lat="46.442947" lon="13.909968">
        <ele>717.84</ele>
      </trkpt>
      <trkpt lat="46.442944" lon="13.909822">
        <ele>717.54</ele>
      </trkpt>
      <trkpt lat="46.442942" lon="13.909726">
        <ele>717.34</ele>
      </trkpt>
      <trkpt lat="46.44296" lon="13.909251">
        <ele>718</ele>
      </trkpt>
      <trkpt lat="46.442991" lon="13.908892">
        <ele>719</ele>
      </trkpt>
      <trkpt lat="46.443005" lon="13.908643">
        <ele>719.53</ele>
      </trkpt>
      <trkpt lat="46.442996" lon="13.908419">
        <ele>720</ele>
      </trkpt>
      <trkpt lat="46.442967" lon="13.908227">
        <ele>719.89</ele>
      </trkpt>
      <trkpt lat="46.44285" lon="13.907892">
        <ele>719.88</ele>
      </trkpt>
      <trkpt lat="46.44275" lon="13.907446">
        <ele>720</ele>
      </trkpt>
      <trkpt lat="46.442613" lon="13.906525">
        <ele>720.98</ele>
      </trkpt>
      <trkpt lat="46.442467" lon="13.90565">
        <ele>722.21</ele>
      </trkpt>
      <trkpt lat="46.442354" lon="13.905261">
        <ele>724.06</ele>
      </trkpt>
      <trkpt lat="46.442059" lon="13.904658">
        <ele>726</ele>
      </trkpt>
      <trkpt lat="46.441947" lon="13.904365">
        <ele>727.2</ele>
      </trkpt>
      <trkpt lat="46.441839" lon="13.903953">
        <ele>728</ele>
      </trkpt>
      <trkpt lat="46.441758" lon="13.903462">
        <ele>729.06</ele>
      </trkpt>
      <trkpt lat="46.44171" lon="13.902856">
        <ele>730</ele>
      </trkpt>
      <trkpt lat="46.441624" lon="13.902621">
        <ele>731.44</ele>
      </trkpt>
      <trkpt lat="46.441386" lon="13.902475">
        <ele>733.83</ele>
      </trkpt>
      <trkpt lat="46.441288" lon="13.902364">
        <ele>734.06</ele>
      </trkpt>
      <trkpt lat="46.440972" lon="13.901845">
        <ele>733.98</ele>
      </trkpt>
      <trkpt lat="46.440974" lon="13.901724">
        <ele>733.77</ele>
      </trkpt>
      <trkpt lat="46.44093" lon="13.901706">
        <ele>734.07</ele>
      </trkpt>
      <trkpt lat="46.440974" lon="13.901724">
        <ele>733.77</ele>
      </trkpt>
      <trkpt lat="46.441049" lon="13.901398">
        <ele>734.64</ele>
      </trkpt>
      <trkpt lat="46.441103" lon="13.901071">
        <ele>735.04</ele>
      </trkpt>
      <trkpt lat="46.440782" lon="13.900822">
        <ele>736</ele>
      </trkpt>
      <trkpt lat="46.440366" lon="13.900336">
        <ele>737.14</ele>
      </trkpt>
      <trkpt lat="46.440093" lon="13.899572">
        <ele>739.27</ele>
      </trkpt>
      <trkpt lat="46.439938" lon="13.899292">
        <ele>740.42</ele>
      </trkpt>
      <trkpt lat="46.439853" lon="13.89899">
        <ele>740.5</ele>
      </trkpt>
      <trkpt lat="46.439782" lon="13.898805">
        <ele>741.51</ele>
      </trkpt>
      <trkpt lat="46.439737" lon="13.898535">
        <ele>743.2</ele>
      </trkpt>
      <trkpt lat="46.439637" lon="13.898135">
        <ele>745.7</ele>
      </trkpt>
      <trkpt lat="46.439537" lon="13.897734">
        <ele>744.83</ele>
      </trkpt>
      <trkpt lat="46.439344" lon="13.897296">
        <ele>744.28</ele>
      </trkpt>
      <trkpt lat="46.439118" lon="13.896902">
        <ele>746.74</ele>
      </trkpt>
      <trkpt lat="46.438883" lon="13.896555">
        <ele>751.64</ele>
      </trkpt>
      <trkpt lat="46.438678" lon="13.896319">
        <ele>753.24</ele>
      </trkpt>
      <trkpt lat="46.438556" lon="13.8962">
        <ele>753.6</ele>
      </trkpt>
      <trkpt lat="46.438365" lon="13.896114">
        <ele>753.86</ele>
      </trkpt>
      <trkpt lat="46.438277" lon="13.896047">
        <ele>753.98</ele>
      </trkpt>
      <trkpt lat="46.438219" lon="13.895968">
        <ele>754.09</ele>
      </trkpt>
      <trkpt lat="46.438178" lon="13.895872">
        <ele>754.21</ele>
      </trkpt>
      <trkpt lat="46.438157" lon="13.89567">
        <ele>754.45</ele>
      </trkpt>
      <trkpt lat="46.438117" lon="13.895427">
        <ele>754.06</ele>
      </trkpt>
      <trkpt lat="46.437991" lon="13.894631">
        <ele>758.31</ele>
      </trkpt>
      <trkpt lat="46.437867" lon="13.894158">
        <ele>756.17</ele>
      </trkpt>
      <trkpt lat="46.43774" lon="13.893753">
        <ele>755.14</ele>
      </trkpt>
      <trkpt lat="46.437557" lon="13.893244">
        <ele>757.59</ele>
      </trkpt>
      <trkpt lat="46.43741" lon="13.892942">
        <ele>758.36</ele>
      </trkpt>
      <trkpt lat="46.43741" lon="13.892942">
        <ele>758.36</ele>
      </trkpt>
      <trkpt lat="46.43721" lon="13.892531">
        <ele>759.4</ele>
      </trkpt>
      <trkpt lat="46.437139" lon="13.892284">
        <ele>760.21</ele>
      </trkpt>
      <trkpt lat="46.437104" lon="13.891953">
        <ele>761.3</ele>
      </trkpt>
      <trkpt lat="46.43709" lon="13.891436">
        <ele>764.61</ele>
      </trkpt>
      <trkpt lat="46.437047" lon="13.891225">
        <ele>767.85</ele>
      </trkpt>
      <trkpt lat="46.436978" lon="13.891054">
        <ele>769.91</ele>
      </trkpt>
      <trkpt lat="46.436735" lon="13.890728">
        <ele>780.08</ele>
      </trkpt>
      <trkpt lat="46.4365" lon="13.8905">
        <ele>787.67</ele>
      </trkpt>
      <trkpt lat="46.43624" lon="13.890308">
        <ele>791.52</ele>
      </trkpt>
      <trkpt lat="46.435974" lon="13.889917">
        <ele>799.33</ele>
      </trkpt>
      <trkpt lat="46.435803" lon="13.889569">
        <ele>803.59</ele>
      </trkpt>
      <trkpt lat="46.435723" lon="13.889263">
        <ele>808.83</ele>
      </trkpt>
      <trkpt lat="46.435607" lon="13.889013">
        <ele>812.99</ele>
      </trkpt>
      <trkpt lat="46.435518" lon="13.888969">
        <ele>815.22</ele>
      </trkpt>
      <trkpt lat="46.435292" lon="13.888908">
        <ele>820.02</ele>
      </trkpt>
      <trkpt lat="46.435044" lon="13.888563">
        <ele>826.35</ele>
      </trkpt>
      <trkpt lat="46.434814" lon="13.888373">
        <ele>830.51</ele>
      </trkpt>
      <trkpt lat="46.434643" lon="13.888212">
        <ele>832.1</ele>
      </trkpt>
      <trkpt lat="46.434479" lon="13.887977">
        <ele>833.25</ele>
      </trkpt>
      <trkpt lat="46.434356" lon="13.887844">
        <ele>833.27</ele>
      </trkpt>
      <trkpt lat="46.434079" lon="13.887676">
        <ele>835.38</ele>
      </trkpt>
      <trkpt lat="46.433963" lon="13.887534">
        <ele>837.45</ele>
      </trkpt>
      <trkpt lat="46.433889" lon="13.887298">
        <ele>835.92</ele>
      </trkpt>
      <trkpt lat="46.433788" lon="13.886986">
        <ele>836.24</ele>
      </trkpt>
      <trkpt lat="46.433621" lon="13.886635">
        <ele>839.08</ele>
      </trkpt>
      <trkpt lat="46.433463" lon="13.886472">
        <ele>839.75</ele>
      </trkpt>
      <trkpt lat="46.433294" lon="13.886329">
        <ele>842.43</ele>
      </trkpt>
      <trkpt lat="46.433197" lon="13.886192">
        <ele>844.75</ele>
      </trkpt>
      <trkpt lat="46.433149" lon="13.885963">
        <ele>846.34</ele>
      </trkpt>
      <trkpt lat="46.433074" lon="13.885904">
        <ele>842.72</ele>
      </trkpt>
      <trkpt lat="46.433039" lon="13.885739">
        <ele>843.23</ele>
      </trkpt>
      <trkpt lat="46.433011" lon="13.885622">
        <ele>846.4</ele>
      </trkpt>
      <trkpt lat="46.432908" lon="13.885645">
        <ele>842.99</ele>
      </trkpt>
      <trkpt lat="46.43276" lon="13.88555">
        <ele>842.16</ele>
      </trkpt>
      <trkpt lat="46.432684" lon="13.885489">
        <ele>840.16</ele>
      </trkpt>
      <trkpt lat="46.432605" lon="13.885471">
        <ele>834.5</ele>
      </trkpt>
      <trkpt lat="46.432598" lon="13.885279">
        <ele>834.44</ele>
      </trkpt>
      <trkpt lat="46.432578" lon="13.885192">
        <ele>833.98</ele>
      </trkpt>
      <trkpt lat="46.432579" lon="13.885048">
        <ele>836.55</ele>
      </trkpt>
      <trkpt lat="46.43259" lon="13.884973">
        <ele>838.58</ele>
      </trkpt>
      <trkpt lat="46.432585" lon="13.884921">
        <ele>840.66</ele>
      </trkpt>
      <trkpt lat="46.43255" lon="13.884901">
        <ele>841.85</ele>
      </trkpt>
      <trkpt lat="46.432497" lon="13.884909">
        <ele>842.14</ele>
      </trkpt>
      <trkpt lat="46.4324" lon="13.884956">
        <ele>841.56</ele>
      </trkpt>
      <trkpt lat="46.432319" lon="13.885009">
        <ele>836.02</ele>
      </trkpt>
      <trkpt lat="46.432281" lon="13.884977">
        <ele>835.44</ele>
      </trkpt>
      <trkpt lat="46.432194" lon="13.884877">
        <ele>836.34</ele>
      </trkpt>
      <trkpt lat="46.432141" lon="13.884815">
        <ele>838.97</ele>
      </trkpt>
      <trkpt lat="46.432002" lon="13.884817">
        <ele>837.06</ele>
      </trkpt>
      <trkpt lat="46.431935" lon="13.884772">
        <ele>837.4</ele>
      </trkpt>
      <trkpt lat="46.431778" lon="13.884705">
        <ele>832.58</ele>
      </trkpt>
      <trkpt lat="46.431507" lon="13.884347">
        <ele>829.39</ele>
      </trkpt>
      <trkpt lat="46.431355" lon="13.884179">
        <ele>826.93</ele>
      </trkpt>
      <trkpt lat="46.431289" lon="13.88405">
        <ele>827.74</ele>
      </trkpt>
      <trkpt lat="46.431214" lon="13.883949">
        <ele>827.58</ele>
      </trkpt>
      <trkpt lat="46.431097" lon="13.883816">
        <ele>827.87</ele>
      </trkpt>
      <trkpt lat="46.431006" lon="13.883706">
        <ele>825.79</ele>
      </trkpt>
      <trkpt lat="46.430985" lon="13.883632">
        <ele>826</ele>
      </trkpt>
      <trkpt lat="46.430959" lon="13.883592">
        <ele>825.88</ele>
      </trkpt>
      <trkpt lat="46.430959" lon="13.883592">
        <ele>825.88</ele>
      </trkpt>
      <trkpt lat="46.430584" lon="13.883007">
        <ele>824.12</ele>
      </trkpt>
      <trkpt lat="46.430486" lon="13.882794">
        <ele>822.44</ele>
      </trkpt>
      <trkpt lat="46.430372" lon="13.882274">
        <ele>822.55</ele>
      </trkpt>
      <trkpt lat="46.430284" lon="13.882157">
        <ele>821.88</ele>
      </trkpt>
      <trkpt lat="46.430233" lon="13.882059">
        <ele>821.84</ele>
      </trkpt>
      <trkpt lat="46.430096" lon="13.881434">
        <ele>828.66</ele>
      </trkpt>
      <trkpt lat="46.429937" lon="13.881233">
        <ele>828.65</ele>
      </trkpt>
      <trkpt lat="46.429887" lon="13.881092">
        <ele>828.55</ele>
      </trkpt>
      <trkpt lat="46.429843" lon="13.88078">
        <ele>829.96</ele>
      </trkpt>
      <trkpt lat="46.429723" lon="13.880342">
        <ele>834.77</ele>
      </trkpt>
      <trkpt lat="46.429686" lon="13.879972">
        <ele>847.16</ele>
      </trkpt>
      <trkpt lat="46.429696" lon="13.879677">
        <ele>850.88</ele>
      </trkpt>
      <trkpt lat="46.429829" lon="13.879505">
        <ele>856.9</ele>
      </trkpt>
      <trkpt lat="46.429905" lon="13.879426">
        <ele>862.35</ele>
      </trkpt>
      <trkpt lat="46.429846" lon="13.87936">
        <ele>864.3</ele>
      </trkpt>
      <trkpt lat="46.429737" lon="13.879269">
        <ele>864.94</ele>
      </trkpt>
      <trkpt lat="46.429763" lon="13.879133">
        <ele>867.72</ele>
      </trkpt>
      <trkpt lat="46.429915" lon="13.87896">
        <ele>871.33</ele>
      </trkpt>
      <trkpt lat="46.429987" lon="13.878932">
        <ele>874.54</ele>
      </trkpt>
      <trkpt lat="46.429975" lon="13.878932">
        <ele>874.07</ele>
      </trkpt>
      <trkpt lat="46.429997" lon="13.878857">
        <ele>875.62</ele>
      </trkpt>
      <trkpt lat="46.429899" lon="13.878747">
        <ele>875.12</ele>
      </trkpt>
      <trkpt lat="46.429694" lon="13.87861">
        <ele>874.57</ele>
      </trkpt>
      <trkpt lat="46.429569" lon="13.878343">
        <ele>875.07</ele>
      </trkpt>
      <trkpt lat="46.429466" lon="13.878222">
        <ele>874.84</ele>
      </trkpt>
      <trkpt lat="46.429353" lon="13.877988">
        <ele>873.52</ele>
      </trkpt>
      <trkpt lat="46.429228" lon="13.877677">
        <ele>872.86</ele>
      </trkpt>
      <trkpt lat="46.429129" lon="13.877207">
        <ele>875.51</ele>
      </trkpt>
      <trkpt lat="46.428988" lon="13.876972">
        <ele>877.06</ele>
      </trkpt>
      <trkpt lat="46.428915" lon="13.87666">
        <ele>880.58</ele>
      </trkpt>
      <trkpt lat="46.428815" lon="13.876303">
        <ele>887</ele>
      </trkpt>
      <trkpt lat="46.428637" lon="13.875893">
        <ele>890.51</ele>
      </trkpt>
      <trkpt lat="46.42836" lon="13.875599">
        <ele>891.3</ele>
      </trkpt>
      <trkpt lat="46.428145" lon="13.875342">
        <ele>891.73</ele>
      </trkpt>
      <trkpt lat="46.428039" lon="13.875247">
        <ele>889.88</ele>
      </trkpt>
      <trkpt lat="46.427949" lon="13.875132">
        <ele>889.61</ele>
      </trkpt>
      <trkpt lat="46.427871" lon="13.874946">
        <ele>889.32</ele>
      </trkpt>
      <trkpt lat="46.427718" lon="13.874304">
        <ele>891.14</ele>
      </trkpt>
      <trkpt lat="46.427643" lon="13.874081">
        <ele>893.8</ele>
      </trkpt>
      <trkpt lat="46.427412" lon="13.873501">
        <ele>899.89</ele>
      </trkpt>
      <trkpt lat="46.427251" lon="13.873365">
        <ele>897.92</ele>
      </trkpt>
      <trkpt lat="46.42701" lon="13.873114">
        <ele>897.55</ele>
      </trkpt>
      <trkpt lat="46.426809" lon="13.872814">
        <ele>896.78</ele>
      </trkpt>
      <trkpt lat="46.426673" lon="13.87247">
        <ele>898.63</ele>
      </trkpt>
      <trkpt lat="46.4265" lon="13.872127">
        <ele>901.25</ele>
      </trkpt>
      <trkpt lat="46.426369" lon="13.871955">
        <ele>894.44</ele>
      </trkpt>
      <trkpt lat="46.426281" lon="13.87189">
        <ele>890.19</ele>
      </trkpt>
      <trkpt lat="46.426224" lon="13.871711">
        <ele>890.32</ele>
      </trkpt>
      <trkpt lat="46.426216" lon="13.871484">
        <ele>892.73</ele>
      </trkpt>
      <trkpt lat="46.426094" lon="13.871252">
        <ele>883.28</ele>
      </trkpt>
      <trkpt lat="46.425941" lon="13.871038">
        <ele>875.49</ele>
      </trkpt>
      <trkpt lat="46.425919" lon="13.870859">
        <ele>882.55</ele>
      </trkpt>
      <trkpt lat="46.425853" lon="13.870733">
        <ele>888.92</ele>
      </trkpt>
      <trkpt lat="46.425805" lon="13.870584">
        <ele>897.28</ele>
      </trkpt>
      <trkpt lat="46.425644" lon="13.870545">
        <ele>901.47</ele>
      </trkpt>
      <trkpt lat="46.425443" lon="13.870427">
        <ele>906.17</ele>
      </trkpt>
      <trkpt lat="46.425198" lon="13.870348">
        <ele>899.47</ele>
      </trkpt>
      <trkpt lat="46.425046" lon="13.870209">
        <ele>902.02</ele>
      </trkpt>
      <trkpt lat="46.424923" lon="13.869969">
        <ele>902.13</ele>
      </trkpt>
      <trkpt lat="46.424714" lon="13.869785">
        <ele>908.2</ele>
      </trkpt>
      <trkpt lat="46.424491" lon="13.869554">
        <ele>911.9</ele>
      </trkpt>
      <trkpt lat="46.424299" lon="13.869279">
        <ele>911.31</ele>
      </trkpt>
      <trkpt lat="46.424068" lon="13.868716">
        <ele>912.92</ele>
      </trkpt>
      <trkpt lat="46.423915" lon="13.868484">
        <ele>914.81</ele>
      </trkpt>
      <trkpt lat="46.423762" lon="13.868253">
        <ele>913.32</ele>
      </trkpt>
      <trkpt lat="46.423513" lon="13.867816">
        <ele>914.81</ele>
      </trkpt>
      <trkpt lat="46.423317" lon="13.867541">
        <ele>917.17</ele>
      </trkpt>
      <trkpt lat="46.422963" lon="13.867196">
        <ele>918.75</ele>
      </trkpt>
      <trkpt lat="46.422745" lon="13.867004">
        <ele>917.91</ele>
      </trkpt>
      <trkpt lat="46.422483" lon="13.866856">
        <ele>916.95</ele>
      </trkpt>
      <trkpt lat="46.422155" lon="13.866624">
        <ele>916.91</ele>
      </trkpt>
      <trkpt lat="46.42195" lon="13.866336">
        <ele>917.74</ele>
      </trkpt>
      <trkpt lat="46.42178" lon="13.865891">
        <ele>920.65</ele>
      </trkpt>
      <trkpt lat="46.421684" lon="13.865616">
        <ele>921.95</ele>
      </trkpt>
      <trkpt lat="46.421684" lon="13.865293">
        <ele>924.15</ele>
      </trkpt>
      <trkpt lat="46.421592" lon="13.865118">
        <ele>926.27</ele>
      </trkpt>
      <trkpt lat="46.421592" lon="13.864725">
        <ele>928.8</ele>
      </trkpt>
      <trkpt lat="46.421361" lon="13.864284">
        <ele>930.31</ele>
      </trkpt>
      <trkpt lat="46.421308" lon="13.863734">
        <ele>930.06</ele>
      </trkpt>
      <trkpt lat="46.421335" lon="13.86352">
        <ele>935.18</ele>
      </trkpt>
      <trkpt lat="46.42134" lon="13.863216">
        <ele>937.98</ele>
      </trkpt>
      <trkpt lat="46.421242" lon="13.862856">
        <ele>939.55</ele>
      </trkpt>
      <trkpt lat="46.421233" lon="13.862691">
        <ele>941.69</ele>
      </trkpt>
      <trkpt lat="46.421242" lon="13.862856">
        <ele>939.55</ele>
      </trkpt>
      <trkpt lat="46.42134" lon="13.863216">
        <ele>937.98</ele>
      </trkpt>
      <trkpt lat="46.421335" lon="13.86352">
        <ele>935.18</ele>
      </trkpt>
      <trkpt lat="46.421308" lon="13.863734">
        <ele>930.06</ele>
      </trkpt>
      <trkpt lat="46.421361" lon="13.864284">
        <ele>930.31</ele>
      </trkpt>
      <trkpt lat="46.421592" lon="13.864725">
        <ele>928.8</ele>
      </trkpt>
      <trkpt lat="46.421592" lon="13.865118">
        <ele>926.27</ele>
      </trkpt>
      <trkpt lat="46.421684" lon="13.865293">
        <ele>924.15</ele>
      </trkpt>
      <trkpt lat="46.421684" lon="13.865616">
        <ele>921.95</ele>
      </trkpt>
      <trkpt lat="46.42178" lon="13.865891">
        <ele>920.65</ele>
      </trkpt>
      <trkpt lat="46.42195" lon="13.866336">
        <ele>917.74</ele>
      </trkpt>
      <trkpt lat="46.422155" lon="13.866624">
        <ele>916.91</ele>
      </trkpt>
      <trkpt lat="46.422483" lon="13.866856">
        <ele>916.95</ele>
      </trkpt>
      <trkpt lat="46.422745" lon="13.867004">
        <ele>917.91</ele>
      </trkpt>
      <trkpt lat="46.422963" lon="13.867196">
        <ele>918.75</ele>
      </trkpt>
      <trkpt lat="46.423317" lon="13.867541">
        <ele>917.17</ele>
      </trkpt>
      <trkpt lat="46.423513" lon="13.867816">
        <ele>914.81</ele>
      </trkpt>
      <trkpt lat="46.423762" lon="13.868253">
        <ele>913.32</ele>
      </trkpt>
      <trkpt lat="46.423915" lon="13.868484">
        <ele>914.81</ele>
      </trkpt>
      <trkpt lat="46.424068" lon="13.868716">
        <ele>912.92</ele>
      </trkpt>
      <trkpt lat="46.424299" lon="13.869279">
        <ele>911.31</ele>
      </trkpt>
      <trkpt lat="46.424491" lon="13.869554">
        <ele>911.9</ele>
      </trkpt>
      <trkpt lat="46.424714" lon="13.869785">
        <ele>908.2</ele>
      </trkpt>
      <trkpt lat="46.424714" lon="13.869785">
        <ele>908.2</ele>
      </trkpt>
      <trkpt lat="46.424714" lon="13.869785">
        <ele>908.2</ele>
      </trkpt>
      <trkpt lat="46.424923" lon="13.869969">
        <ele>902.13</ele>
      </trkpt>
      <trkpt lat="46.425046" lon="13.870209">
        <ele>902.02</ele>
      </trkpt>
      <trkpt lat="46.425198" lon="13.870348">
        <ele>899.47</ele>
      </trkpt>
      <trkpt lat="46.425443" lon="13.870427">
        <ele>906.17</ele>
      </trkpt>
      <trkpt lat="46.425644" lon="13.870545">
        <ele>901.47</ele>
      </trkpt>
      <trkpt lat="46.425805" lon="13.870584">
        <ele>897.28</ele>
      </trkpt>
      <trkpt lat="46.425853" lon="13.870733">
        <ele>888.92</ele>
      </trkpt>
      <trkpt lat="46.425919" lon="13.870859">
        <ele>882.55</ele>
      </trkpt>
      <trkpt lat="46.425941" lon="13.871038">
        <ele>875.49</ele>
      </trkpt>
      <trkpt lat="46.426094" lon="13.871252">
        <ele>883.28</ele>
      </trkpt>
      <trkpt lat="46.426216" lon="13.871484">
        <ele>892.73</ele>
      </trkpt>
      <trkpt lat="46.426224" lon="13.871711">
        <ele>890.32</ele>
      </trkpt>
      <trkpt lat="46.426281" lon="13.87189">
        <ele>890.19</ele>
      </trkpt>
      <trkpt lat="46.426369" lon="13.871955">
        <ele>894.44</ele>
      </trkpt>
      <trkpt lat="46.4265" lon="13.872127">
        <ele>901.25</ele>
      </trkpt>
      <trkpt lat="46.426673" lon="13.87247">
        <ele>898.63</ele>
      </trkpt>
      <trkpt lat="46.426809" lon="13.872814">
        <ele>896.78</ele>
      </trkpt>
      <trkpt lat="46.42701" lon="13.873114">
        <ele>897.55</ele>
      </trkpt>
      <trkpt lat="46.427251" lon="13.873365">
        <ele>897.92</ele>
      </trkpt>
      <trkpt lat="46.427412" lon="13.873501">
        <ele>899.89</ele>
      </trkpt>
      <trkpt lat="46.427643" lon="13.874081">
        <ele>893.8</ele>
      </trkpt>
      <trkpt lat="46.427718" lon="13.874304">
        <ele>891.14</ele>
      </trkpt>
      <trkpt lat="46.427871" lon="13.874946">
        <ele>889.32</ele>
      </trkpt>
      <trkpt lat="46.427949" lon="13.875132">
        <ele>889.61</ele>
      </trkpt>
      <trkpt lat="46.428039" lon="13.875247">
        <ele>889.88</ele>
      </trkpt>
      <trkpt lat="46.428145" lon="13.875342">
        <ele>891.73</ele>
      </trkpt>
      <trkpt lat="46.42836" lon="13.875599">
        <ele>891.3</ele>
      </trkpt>
      <trkpt lat="46.428637" lon="13.875893">
        <ele>890.51</ele>
      </trkpt>
      <trkpt lat="46.428815" lon="13.876303">
        <ele>887</ele>
      </trkpt>
      <trkpt lat="46.428915" lon="13.87666">
        <ele>880.58</ele>
      </trkpt>
      <trkpt lat="46.428988" lon="13.876972">
        <ele>877.06</ele>
      </trkpt>
      <trkpt lat="46.429129" lon="13.877207">
        <ele>875.51</ele>
      </trkpt>
      <trkpt lat="46.429228" lon="13.877677">
        <ele>872.86</ele>
      </trkpt>
      <trkpt lat="46.429353" lon="13.877988">
        <ele>873.52</ele>
      </trkpt>
      <trkpt lat="46.429466" lon="13.878222">
        <ele>874.84</ele>
      </trkpt>
      <trkpt lat="46.429569" lon="13.878343">
        <ele>875.07</ele>
      </trkpt>
      <trkpt lat="46.429694" lon="13.87861">
        <ele>874.57</ele>
      </trkpt>
      <trkpt lat="46.429899" lon="13.878747">
        <ele>875.12</ele>
      </trkpt>
      <trkpt lat="46.429997" lon="13.878857">
        <ele>875.62</ele>
      </trkpt>
      <trkpt lat="46.429975" lon="13.878932">
        <ele>874.07</ele>
      </trkpt>
      <trkpt lat="46.429987" lon="13.878932">
        <ele>874.54</ele>
      </trkpt>
      <trkpt lat="46.429915" lon="13.87896">
        <ele>871.33</ele>
      </trkpt>
      <trkpt lat="46.429763" lon="13.879133">
        <ele>867.72</ele>
      </trkpt>
      <trkpt lat="46.429737" lon="13.879269">
        <ele>864.94</ele>
      </trkpt>
      <trkpt lat="46.429846" lon="13.87936">
        <ele>864.3</ele>
      </trkpt>
      <trkpt lat="46.429905" lon="13.879426">
        <ele>862.35</ele>
      </trkpt>
      <trkpt lat="46.429829" lon="13.879505">
        <ele>856.9</ele>
      </trkpt>
      <trkpt lat="46.429696" lon="13.879677">
        <ele>850.88</ele>
      </trkpt>
      <trkpt lat="46.429686" lon="13.879972">
        <ele>847.16</ele>
      </trkpt>
      <trkpt lat="46.429723" lon="13.880342">
        <ele>834.77</ele>
      </trkpt>
      <trkpt lat="46.429843" lon="13.88078">
        <ele>829.96</ele>
      </trkpt>
      <trkpt lat="46.429887" lon="13.881092">
        <ele>828.55</ele>
      </trkpt>
      <trkpt lat="46.429937" lon="13.881233">
        <ele>828.65</ele>
      </trkpt>
      <trkpt lat="46.430096" lon="13.881434">
        <ele>828.66</ele>
      </trkpt>
      <trkpt lat="46.430233" lon="13.882059">
        <ele>821.84</ele>
      </trkpt>
      <trkpt lat="46.430284" lon="13.882157">
        <ele>821.88</ele>
      </trkpt>
      <trkpt lat="46.430372" lon="13.882274">
        <ele>822.55</ele>
      </trkpt>
      <trkpt lat="46.430486" lon="13.882794">
        <ele>822.44</ele>
      </trkpt>
      <trkpt lat="46.430503" lon="13.88283">
        <ele>822.72</ele>
      </trkpt>
      <trkpt lat="46.430584" lon="13.883007">
        <ele>824.12</ele>
      </trkpt>
      <trkpt lat="46.430985" lon="13.883632">
        <ele>826</ele>
      </trkpt>
      <trkpt lat="46.431006" lon="13.883706">
        <ele>825.79</ele>
      </trkpt>
      <trkpt lat="46.431097" lon="13.883816">
        <ele>827.87</ele>
      </trkpt>
      <trkpt lat="46.431214" lon="13.883949">
        <ele>827.58</ele>
      </trkpt>
      <trkpt lat="46.431289" lon="13.88405">
        <ele>827.74</ele>
      </trkpt>
      <trkpt lat="46.431355" lon="13.884179">
        <ele>826.93</ele>
      </trkpt>
      <trkpt lat="46.431507" lon="13.884347">
        <ele>829.39</ele>
      </trkpt>
      <trkpt lat="46.431778" lon="13.884705">
        <ele>832.58</ele>
      </trkpt>
      <trkpt lat="46.431935" lon="13.884772">
        <ele>837.4</ele>
      </trkpt>
      <trkpt lat="46.432002" lon="13.884817">
        <ele>837.06</ele>
      </trkpt>
      <trkpt lat="46.432141" lon="13.884815">
        <ele>838.97</ele>
      </trkpt>
      <trkpt lat="46.432194" lon="13.884877">
        <ele>836.34</ele>
      </trkpt>
      <trkpt lat="46.432281" lon="13.884977">
        <ele>835.44</ele>
      </trkpt>
      <trkpt lat="46.432319" lon="13.885009">
        <ele>836.02</ele>
      </trkpt>
      <trkpt lat="46.4324" lon="13.884956">
        <ele>841.56</ele>
      </trkpt>
      <trkpt lat="46.432497" lon="13.884909">
        <ele>842.14</ele>
      </trkpt>
      <trkpt lat="46.43255" lon="13.884901">
        <ele>841.85</ele>
      </trkpt>
      <trkpt lat="46.432585" lon="13.884921">
        <ele>840.66</ele>
      </trkpt>
      <trkpt lat="46.43259" lon="13.884973">
        <ele>838.58</ele>
      </trkpt>
      <trkpt lat="46.432579" lon="13.885048">
        <ele>836.55</ele>
      </trkpt>
      <trkpt lat="46.432578" lon="13.885192">
        <ele>833.98</ele>
      </trkpt>
      <trkpt lat="46.432598" lon="13.885279">
        <ele>834.44</ele>
      </trkpt>
      <trkpt lat="46.432605" lon="13.885471">
        <ele>834.5</ele>
      </trkpt>
      <trkpt lat="46.432684" lon="13.885489">
        <ele>840.16</ele>
      </trkpt>
      <trkpt lat="46.43276" lon="13.88555">
        <ele>842.16</ele>
      </trkpt>
      <trkpt lat="46.432908" lon="13.885645">
        <ele>842.99</ele>
      </trkpt>
      <trkpt lat="46.433011" lon="13.885622">
        <ele>846.4</ele>
      </trkpt>
      <trkpt lat="46.433039" lon="13.885739">
        <ele>843.23</ele>
      </trkpt>
      <trkpt lat="46.433074" lon="13.885904">
        <ele>842.72</ele>
      </trkpt>
      <trkpt lat="46.433149" lon="13.885963">
        <ele>846.34</ele>
      </trkpt>
      <trkpt lat="46.433197" lon="13.886192">
        <ele>844.75</ele>
      </trkpt>
      <trkpt lat="46.433294" lon="13.886329">
        <ele>842.43</ele>
      </trkpt>
      <trkpt lat="46.433463" lon="13.886472">
        <ele>839.75</ele>
      </trkpt>
      <trkpt lat="46.433621" lon="13.886635">
        <ele>839.08</ele>
      </trkpt>
      <trkpt lat="46.433788" lon="13.886986">
        <ele>836.24</ele>
      </trkpt>
      <trkpt lat="46.433889" lon="13.887298">
        <ele>835.92</ele>
      </trkpt>
      <trkpt lat="46.433963" lon="13.887534">
        <ele>837.45</ele>
      </trkpt>
      <trkpt lat="46.434079" lon="13.887676">
        <ele>835.38</ele>
      </trkpt>
      <trkpt lat="46.434356" lon="13.887844">
        <ele>833.27</ele>
      </trkpt>
      <trkpt lat="46.434479" lon="13.887977">
        <ele>833.25</ele>
      </trkpt>
      <trkpt lat="46.434643" lon="13.888212">
        <ele>832.1</ele>
      </trkpt>
      <trkpt lat="46.434814" lon="13.888373">
        <ele>830.51</ele>
      </trkpt>
      <trkpt lat="46.435044" lon="13.888563">
        <ele>826.35</ele>
      </trkpt>
      <trkpt lat="46.435292" lon="13.888908">
        <ele>820.02</ele>
      </trkpt>
      <trkpt lat="46.435518" lon="13.888969">
        <ele>815.22</ele>
      </trkpt>
      <trkpt lat="46.435607" lon="13.889013">
        <ele>812.99</ele>
      </trkpt>
      <trkpt lat="46.435723" lon="13.889263">
        <ele>808.83</ele>
      </trkpt>
      <trkpt lat="46.435801" lon="13.889561">
        <ele>803.71</ele>
      </trkpt>
      <trkpt lat="46.435974" lon="13.889917">
        <ele>799.33</ele>
      </trkpt>
      <trkpt lat="46.43624" lon="13.890308">
        <ele>791.52</ele>
      </trkpt>
      <trkpt lat="46.4365" lon="13.8905">
        <ele>787.67</ele>
      </trkpt>
      <trkpt lat="46.436735" lon="13.890728">
        <ele>780.08</ele>
      </trkpt>
      <trkpt lat="46.436978" lon="13.891054">
        <ele>769.91</ele>
      </trkpt>
      <trkpt lat="46.437047" lon="13.891225">
        <ele>767.85</ele>
      </trkpt>
      <trkpt lat="46.43709" lon="13.891436">
        <ele>764.61</ele>
      </trkpt>
      <trkpt lat="46.437104" lon="13.891953">
        <ele>761.3</ele>
      </trkpt>
      <trkpt lat="46.437139" lon="13.892284">
        <ele>760.21</ele>
      </trkpt>
      <trkpt lat="46.43721" lon="13.892531">
        <ele>759.4</ele>
      </trkpt>
      <trkpt lat="46.437557" lon="13.893244">
        <ele>757.59</ele>
      </trkpt>
      <trkpt lat="46.43774" lon="13.893753">
        <ele>755.14</ele>
      </trkpt>
      <trkpt lat="46.437867" lon="13.894158">
        <ele>756.17</ele>
      </trkpt>
      <trkpt lat="46.437991" lon="13.894631">
        <ele>758.31</ele>
      </trkpt>
      <trkpt lat="46.438117" lon="13.895427">
        <ele>754.06</ele>
      </trkpt>
      <trkpt lat="46.438157" lon="13.89567">
        <ele>754.45</ele>
      </trkpt>
      <trkpt lat="46.438178" lon="13.895872">
        <ele>754.21</ele>
      </trkpt>
      <trkpt lat="46.438219" lon="13.895968">
        <ele>754.09</ele>
      </trkpt>
      <trkpt lat="46.438277" lon="13.896047">
        <ele>753.98</ele>
      </trkpt>
      <trkpt lat="46.438365" lon="13.896114">
        <ele>753.86</ele>
      </trkpt>
      <trkpt lat="46.438556" lon="13.8962">
        <ele>753.6</ele>
      </trkpt>
      <trkpt lat="46.438678" lon="13.896319">
        <ele>753.24</ele>
      </trkpt>
      <trkpt lat="46.438883" lon="13.896555">
        <ele>751.64</ele>
      </trkpt>
      <trkpt lat="46.439118" lon="13.896902">
        <ele>746.74</ele>
      </trkpt>
      <trkpt lat="46.439344" lon="13.897296">
        <ele>744.28</ele>
      </trkpt>
      <trkpt lat="46.439537" lon="13.897734">
        <ele>744.83</ele>
      </trkpt>
      <trkpt lat="46.439637" lon="13.898135">
        <ele>745.7</ele>
      </trkpt>
      <trkpt lat="46.439737" lon="13.898535">
        <ele>743.2</ele>
      </trkpt>
      <trkpt lat="46.439782" lon="13.898805">
        <ele>741.51</ele>
      </trkpt>
      <trkpt lat="46.439853" lon="13.89899">
        <ele>740.5</ele>
      </trkpt>
      <trkpt lat="46.439938" lon="13.899292">
        <ele>740.42</ele>
      </trkpt>
      <trkpt lat="46.440093" lon="13.899572">
        <ele>739.27</ele>
      </trkpt>
      <trkpt lat="46.440366" lon="13.900336">
        <ele>737.14</ele>
      </trkpt>
      <trkpt lat="46.440782" lon="13.900822">
        <ele>736</ele>
      </trkpt>
      <trkpt lat="46.441103" lon="13.901071">
        <ele>735.04</ele>
      </trkpt>
      <trkpt lat="46.441049" lon="13.901398">
        <ele>734.64</ele>
      </trkpt>
      <trkpt lat="46.440974" lon="13.901724">
        <ele>733.77</ele>
      </trkpt>
      <trkpt lat="46.440972" lon="13.901845">
        <ele>733.98</ele>
      </trkpt>
      <trkpt lat="46.441288" lon="13.902364">
        <ele>734.06</ele>
      </trkpt>
      <trkpt lat="46.441386" lon="13.902475">
        <ele>733.83</ele>
      </trkpt>
      <trkpt lat="46.441624" lon="13.902621">
        <ele>731.44</ele>
      </trkpt>
      <trkpt lat="46.44171" lon="13.902856">
        <ele>730</ele>
      </trkpt>
      <trkpt lat="46.441758" lon="13.903462">
        <ele>729.06</ele>
      </trkpt>
      <trkpt lat="46.441839" lon="13.903953">
        <ele>728</ele>
      </trkpt>
      <trkpt lat="46.441947" lon="13.904365">
        <ele>727.2</ele>
      </trkpt>
      <trkpt lat="46.442059" lon="13.904658">
        <ele>726</ele>
      </trkpt>
      <trkpt lat="46.442167" lon="13.904879">
        <ele>725.29</ele>
      </trkpt>
      <trkpt lat="46.442354" lon="13.905261">
        <ele>724.06</ele>
      </trkpt>
      <trkpt lat="46.442467" lon="13.90565">
        <ele>722.21</ele>
      </trkpt>
      <trkpt lat="46.442613" lon="13.906525">
        <ele>720.98</ele>
      </trkpt>
      <trkpt lat="46.44275" lon="13.907446">
        <ele>720</ele>
      </trkpt>
      <trkpt lat="46.44285" lon="13.907892">
        <ele>719.88</ele>
      </trkpt>
      <trkpt lat="46.442967" lon="13.908227">
        <ele>719.89</ele>
      </trkpt>
      <trkpt lat="46.442996" lon="13.908419">
        <ele>720</ele>
      </trkpt>
      <trkpt lat="46.443005" lon="13.908643">
        <ele>719.53</ele>
      </trkpt>
      <trkpt lat="46.442991" lon="13.908892">
        <ele>719</ele>
      </trkpt>
      <trkpt lat="46.44296" lon="13.909251">
        <ele>718</ele>
      </trkpt>
      <trkpt lat="46.442942" lon="13.909726">
        <ele>717.34</ele>
      </trkpt>
      <trkpt lat="46.442947" lon="13.909968">
        <ele>717.84</ele>
      </trkpt>
      <trkpt lat="46.442977" lon="13.910152">
        <ele>717</ele>
      </trkpt>
      <trkpt lat="46.44308" lon="13.910495">
        <ele>716.71</ele>
      </trkpt>
      <trkpt lat="46.443235" lon="13.910842">
        <ele>715</ele>
      </trkpt>
      <trkpt lat="46.443471" lon="13.911306">
        <ele>713</ele>
      </trkpt>
      <trkpt lat="46.443565" lon="13.911553">
        <ele>712</ele>
      </trkpt>
      <trkpt lat="46.443631" lon="13.91177">
        <ele>712</ele>
      </trkpt>
      <trkpt lat="46.443772" lon="13.912327">
        <ele>711</ele>
      </trkpt>
      <trkpt lat="46.443929" lon="13.912845">
        <ele>710.69</ele>
      </trkpt>
      <trkpt lat="46.444065" lon="13.913135">
        <ele>710.59</ele>
      </trkpt>
      <trkpt lat="46.444189" lon="13.913372">
        <ele>711.41</ele>
      </trkpt>
      <trkpt lat="46.444439" lon="13.9138">
        <ele>710</ele>
      </trkpt>
      <trkpt lat="46.444605" lon="13.914069">
        <ele>709.06</ele>
      </trkpt>
      <trkpt lat="46.444914" lon="13.914542">
        <ele>708</ele>
      </trkpt>
      <trkpt lat="46.445077" lon="13.914726">
        <ele>706.24</ele>
      </trkpt>
      <trkpt lat="46.44522" lon="13.914911">
        <ele>705.74</ele>
      </trkpt>
      <trkpt lat="46.445515" lon="13.915471">
        <ele>702.38</ele>
      </trkpt>
      <trkpt lat="46.445683" lon="13.915912">
        <ele>702.43</ele>
      </trkpt>
      <trkpt lat="46.445768" lon="13.91616">
        <ele>702.38</ele>
      </trkpt>
      <trkpt lat="46.445893" lon="13.916459">
        <ele>702.93</ele>
      </trkpt>
      <trkpt lat="46.446007" lon="13.916806">
        <ele>702.05</ele>
      </trkpt>
      <trkpt lat="46.446103" lon="13.917022">
        <ele>701.42</ele>
      </trkpt>
      <trkpt lat="46.446261" lon="13.917319">
        <ele>700.01</ele>
      </trkpt>
      <trkpt lat="46.446654" lon="13.91823">
        <ele>698</ele>
      </trkpt>
      <trkpt lat="46.446836" lon="13.918564">
        <ele>698</ele>
      </trkpt>
      <trkpt lat="46.446915" lon="13.91865">
        <ele>697.58</ele>
      </trkpt>
      <trkpt lat="46.447451" lon="13.919042">
        <ele>696.09</ele>
      </trkpt>
      <trkpt lat="46.447606" lon="13.91921">
        <ele>695.67</ele>
      </trkpt>
      <trkpt lat="46.447751" lon="13.919417">
        <ele>695.36</ele>
      </trkpt>
      <trkpt lat="46.447877" lon="13.919637">
        <ele>695.2</ele>
      </trkpt>
      <trkpt lat="46.447961" lon="13.919815">
        <ele>694.64</ele>
      </trkpt>
      <trkpt lat="46.447979" lon="13.919905">
        <ele>694.21</ele>
      </trkpt>
      <trkpt lat="46.44798" lon="13.919982">
        <ele>693.95</ele>
      </trkpt>
      <trkpt lat="46.447913" lon="13.920323">
        <ele>693.25</ele>
      </trkpt>
      <trkpt lat="46.447863" lon="13.920487">
        <ele>693.19</ele>
      </trkpt>
      <trkpt lat="46.447787" lon="13.920599">
        <ele>692.92</ele>
      </trkpt>
      <trkpt lat="46.447703" lon="13.920781">
        <ele>693.81</ele>
      </trkpt>
      <trkpt lat="46.447694" lon="13.92089">
        <ele>693.33</ele>
      </trkpt>
      <trkpt lat="46.44761" lon="13.921125">
        <ele>693.85</ele>
      </trkpt>
      <trkpt lat="46.44759" lon="13.921255">
        <ele>694.53</ele>
      </trkpt>
      <trkpt lat="46.447598" lon="13.921382">
        <ele>694.68</ele>
      </trkpt>
      <trkpt lat="46.447636" lon="13.921619">
        <ele>693.88</ele>
      </trkpt>
      <trkpt lat="46.447708" lon="13.92176">
        <ele>692.17</ele>
      </trkpt>
      <trkpt lat="46.447828" lon="13.921882">
        <ele>691.57</ele>
      </trkpt>
      <trkpt lat="46.448025" lon="13.922018">
        <ele>691.66</ele>
      </trkpt>
      <trkpt lat="46.448314" lon="13.922124">
        <ele>691.11</ele>
      </trkpt>
      <trkpt lat="46.448612" lon="13.922277">
        <ele>689.49</ele>
      </trkpt>
      <trkpt lat="46.448686" lon="13.922377">
        <ele>688.78</ele>
      </trkpt>
      <trkpt lat="46.448717" lon="13.922466">
        <ele>688.88</ele>
      </trkpt>
      <trkpt lat="46.448747" lon="13.922591">
        <ele>688.34</ele>
      </trkpt>
      <trkpt lat="46.448763" lon="13.922749">
        <ele>687.98</ele>
      </trkpt>
      <trkpt lat="46.448755" lon="13.922892">
        <ele>688.15</ele>
      </trkpt>
      <trkpt lat="46.448764" lon="13.923038">
        <ele>687.81</ele>
      </trkpt>
      <trkpt lat="46.448763" lon="13.923247">
        <ele>686.98</ele>
      </trkpt>
      <trkpt lat="46.448712" lon="13.923858">
        <ele>688.22</ele>
      </trkpt>
      <trkpt lat="46.448878" lon="13.923942">
        <ele>684.19</ele>
      </trkpt>
      <trkpt lat="46.448857" lon="13.924142">
        <ele>683.56</ele>
      </trkpt>
      <trkpt lat="46.448802" lon="13.924331">
        <ele>684.51</ele>
      </trkpt>
      <trkpt lat="46.448835" lon="13.925003">
        <ele>684.33</ele>
      </trkpt>
      <trkpt lat="46.448848" lon="13.925322">
        <ele>684.94</ele>
      </trkpt>
      <trkpt lat="46.448878" lon="13.925503">
        <ele>685.53</ele>
      </trkpt>
      <trkpt lat="46.448949" lon="13.925604">
        <ele>684.28</ele>
      </trkpt>
      <trkpt lat="46.449008" lon="13.925749">
        <ele>683.83</ele>
      </trkpt>
      <trkpt lat="46.44903" lon="13.925874">
        <ele>683.9</ele>
      </trkpt>
      <trkpt lat="46.44909" lon="13.926054">
        <ele>684.16</ele>
      </trkpt>
      <trkpt lat="46.449211" lon="13.926271">
        <ele>684.15</ele>
      </trkpt>
      <trkpt lat="46.449368" lon="13.926382">
        <ele>683.61</ele>
      </trkpt>
      <trkpt lat="46.449543" lon="13.926488">
        <ele>683.48</ele>
      </trkpt>
      <trkpt lat="46.449734" lon="13.926675">
        <ele>682.93</ele>
      </trkpt>
      <trkpt lat="46.449857" lon="13.926972">
        <ele>682.03</ele>
      </trkpt>
      <trkpt lat="46.449962" lon="13.927169">
        <ele>682.15</ele>
      </trkpt>
      <trkpt lat="46.450141" lon="13.927399">
        <ele>681.35</ele>
      </trkpt>
      <trkpt lat="46.450313" lon="13.927644">
        <ele>680.06</ele>
      </trkpt>
      <trkpt lat="46.450461" lon="13.927917">
        <ele>679.81</ele>
      </trkpt>
      <trkpt lat="46.450507" lon="13.928162">
        <ele>679.26</ele>
      </trkpt>
      <trkpt lat="46.45057" lon="13.928564">
        <ele>678.73</ele>
      </trkpt>
      <trkpt lat="46.45062" lon="13.928809">
        <ele>678.31</ele>
      </trkpt>
      <trkpt lat="46.450679" lon="13.92901">
        <ele>678.88</ele>
      </trkpt>
      <trkpt lat="46.450791" lon="13.929276">
        <ele>677.92</ele>
      </trkpt>
      <trkpt lat="46.450827" lon="13.92931">
        <ele>677.84</ele>
      </trkpt>
      <trkpt lat="46.45108" lon="13.929445">
        <ele>676.84</ele>
      </trkpt>
      <trkpt lat="46.451322" lon="13.929593">
        <ele>676.11</ele>
      </trkpt>
      <trkpt lat="46.451606" lon="13.929855">
        <ele>674.79</ele>
      </trkpt>
      <trkpt lat="46.451903" lon="13.930069">
        <ele>673.59</ele>
      </trkpt>
      <trkpt lat="46.452104" lon="13.930247">
        <ele>673.18</ele>
      </trkpt>
      <trkpt lat="46.452267" lon="13.930443">
        <ele>672.89</ele>
      </trkpt>
      <trkpt lat="46.452397" lon="13.930625">
        <ele>672.84</ele>
      </trkpt>
      <trkpt lat="46.452552" lon="13.930893">
        <ele>672.01</ele>
      </trkpt>
      <trkpt lat="46.452678" lon="13.931144">
        <ele>671.55</ele>
      </trkpt>
      <trkpt lat="46.452815" lon="13.931365">
        <ele>672.13</ele>
      </trkpt>
      <trkpt lat="46.453013" lon="13.931594">
        <ele>670.53</ele>
      </trkpt>
      <trkpt lat="46.453095" lon="13.931693">
        <ele>672.44</ele>
      </trkpt>
      <trkpt lat="46.453185" lon="13.931722">
        <ele>671.27</ele>
      </trkpt>
      <trkpt lat="46.453415" lon="13.931923">
        <ele>670.37</ele>
      </trkpt>
      <trkpt lat="46.453583" lon="13.932127">
        <ele>670.64</ele>
      </trkpt>
      <trkpt lat="46.453688" lon="13.932334">
        <ele>671.18</ele>
      </trkpt>
      <trkpt lat="46.453845" lon="13.932564">
        <ele>669.64</ele>
      </trkpt>
      <trkpt lat="46.454268" lon="13.933358">
        <ele>666.21</ele>
      </trkpt>
      <trkpt lat="46.454387" lon="13.933656">
        <ele>666.42</ele>
      </trkpt>
      <trkpt lat="46.45451" lon="13.93376">
        <ele>665.74</ele>
      </trkpt>
      <trkpt lat="46.454602" lon="13.933821">
        <ele>665.56</ele>
      </trkpt>
      <trkpt lat="46.454635" lon="13.933924">
        <ele>665.43</ele>
      </trkpt>
      <trkpt lat="46.454736" lon="13.934052">
        <ele>664.74</ele>
      </trkpt>
      <trkpt lat="46.45483" lon="13.934128">
        <ele>665.14</ele>
      </trkpt>
      <trkpt lat="46.455037" lon="13.934272">
        <ele>664.97</ele>
      </trkpt>
      <trkpt lat="46.455162" lon="13.934341">
        <ele>664.74</ele>
      </trkpt>
      <trkpt lat="46.45523" lon="13.934368">
        <ele>664.56</ele>
      </trkpt>
      <trkpt lat="46.45538" lon="13.934395">
        <ele>664.64</ele>
      </trkpt>
      <trkpt lat="46.455431" lon="13.934432">
        <ele>665.21</ele>
      </trkpt>
      <trkpt lat="46.455471" lon="13.934447">
        <ele>665.48</ele>
      </trkpt>
      <trkpt lat="46.455635" lon="13.934423">
        <ele>663.76</ele>
      </trkpt>
      <trkpt lat="46.4562" lon="13.934638">
        <ele>660.06</ele>
      </trkpt>
      <trkpt lat="46.456383" lon="13.93478">
        <ele>659.74</ele>
      </trkpt>
      <trkpt lat="46.456724" lon="13.935077">
        <ele>658.62</ele>
      </trkpt>
      <trkpt lat="46.45685" lon="13.935271">
        <ele>658.35</ele>
      </trkpt>
      <trkpt lat="46.456921" lon="13.935399">
        <ele>658.16</ele>
      </trkpt>
      <trkpt lat="46.457009" lon="13.93556">
        <ele>657.93</ele>
      </trkpt>
      <trkpt lat="46.457181" lon="13.935983">
        <ele>657.9</ele>
      </trkpt>
      <trkpt lat="46.457356" lon="13.9363">
        <ele>656.68</ele>
      </trkpt>
      <trkpt lat="46.457424" lon="13.936215">
        <ele>654.42</ele>
      </trkpt>
      <trkpt lat="46.457473" lon="13.936171">
        <ele>654</ele>
      </trkpt>
      <trkpt lat="46.457523" lon="13.936129">
        <ele>654.41</ele>
      </trkpt>
      <trkpt lat="46.457582" lon="13.936098">
        <ele>656.14</ele>
      </trkpt>
      <trkpt lat="46.457674" lon="13.936032">
        <ele>658.22</ele>
      </trkpt>
      <trkpt lat="46.457763" lon="13.936079">
        <ele>658.97</ele>
      </trkpt>
      <trkpt lat="46.458211" lon="13.935744">
        <ele>659</ele>
      </trkpt>
      <trkpt lat="46.4584" lon="13.935931">
        <ele>658.88</ele>
      </trkpt>
    </trkseg>
  </trk>
</gpx>
