<?xml version="1.0" encoding="UTF-8"?>
<gpx xmlns:gpxdata="http://www.cluetrust.com/XML/GPXDATA/1/0" xmlns:xsi="http://www.w3.org/2001/XMLSchema-instance" xmlns="http://www.topografix.com/GPX/1/1" version="1.1" creator="http://ridewithgps.com/" xsi:schemaLocation="http://www.topografix.com/GPX/1/1 http://www.topografix.com/GPX/1/1/gpx.xsd http://www.cluetrust.com/XML/GPXDATA/1/0 http://www.cluetrust.com/Schemas/gpxdata10.xsd">
  <metadata>
    <name>SOF26_15KM</name>
    <link href="https://ridewithgps.com/routes/55604932">
      <text>SOF26_15KM</text>
    </link>
    <time>2026-06-11T20:10:27Z</time>
  </metadata>
  <wpt lat="46.19722132768456" lon="13.739417054483113">
    <name>Okrepna postaja / Aid Station</name>
    <cmt>food</cmt>
    <desc>Tolminska korita, restaurant (FOOD &amp; DRINKS)</desc>
    <sym>Dot</sym>
    <type>food</type>
  </wpt>
  <wpt lat="46.188541883551096" lon="13.720246675564766">
    <name>Okrepna postaja / Aid Station</name>
    <cmt>food</cmt>
    <desc>Castle hill, below (DRINKS)</desc>
    <sym>Dot</sym>
    <type>food</type>
  </wpt>
  <wpt lat="46.18189753480385" lon="13.75508208144717">
    <name>Okrepna postaja / Aid Station</name>
    <cmt>food</cmt>
    <desc>Poljubinj, village (DRINKS)</desc>
    <sym>Dot</sym>
    <type>food</type>
  </wpt>
  <wpt lat="46.192077696603434" lon="13.741745319371404">
    <name>Okrepna postaja / Aid Station</name>
    <cmt>food</cmt>
    <desc>Žabče, village (FOOD &amp; DRINKS)</desc>
    <sym>Dot</sym>
    <type>food</type>
  </wpt>
  <wpt lat="46.1737857590405" lon="13.740356965800231">
    <name>Okrepna postaja / Aid Station</name>
    <cmt>food</cmt>
    <desc>Sotočje, finish (FOOD &amp; DRINKS)</desc>
    <sym>Dot</sym>
    <type>food</type>
  </wpt>
  <wpt lat="46.189406694116144" lon="13.725345150413546">
    <name>Okrepna postaja / Aid Station</name>
    <cmt>food</cmt>
    <desc>Castle hill, top (DRINKS)</desc>
    <sym>Dot</sym>
    <type>food</type>
  </wpt>
  <trk>
    <name>SOF26_15KM</name>
    <trkseg>
      <trkpt lat="46.17466" lon="13.73702">
        <ele>168.8</ele>
      </trkpt>
      <trkpt lat="46.17462" lon="13.73683">
        <ele>168.1</ele>
      </trkpt>
      <trkpt lat="46.17451" lon="13.73676">
        <ele>167.5</ele>
      </trkpt>
      <trkpt lat="46.1744" lon="13.73653">
        <ele>166.4</ele>
      </trkpt>
      <trkpt lat="46.17434" lon="13.73638">
        <ele>165.5</ele>
      </trkpt>
      <trkpt lat="46.17448" lon="13.73616">
        <ele>165.6</ele>
      </trkpt>
      <trkpt lat="46.1748" lon="13.73562">
        <ele>166.6</ele>
      </trkpt>
      <trkpt lat="46.1748" lon="13.73562">
        <ele>166.6</ele>
      </trkpt>
      <trkpt lat="46.17486" lon="13.73551">
        <ele>166.7</ele>
      </trkpt>
      <trkpt lat="46.17507" lon="13.73518">
        <ele>166.8</ele>
      </trkpt>
      <trkpt lat="46.17519" lon="13.73505">
        <ele>166.7</ele>
      </trkpt>
      <trkpt lat="46.17549" lon="13.73463">
        <ele>165.8</ele>
      </trkpt>
      <trkpt lat="46.1756" lon="13.73408">
        <ele>164.3</ele>
      </trkpt>
      <trkpt lat="46.17566" lon="13.73405">
        <ele>164.4</ele>
      </trkpt>
      <trkpt lat="46.17577" lon="13.73404">
        <ele>164.6</ele>
      </trkpt>
      <trkpt lat="46.17587" lon="13.73374">
        <ele>166.2</ele>
      </trkpt>
      <trkpt lat="46.17603" lon="13.73344">
        <ele>167.6</ele>
      </trkpt>
      <trkpt lat="46.17617" lon="13.73296">
        <ele>167.4</ele>
      </trkpt>
      <trkpt lat="46.17617" lon="13.73296">
        <ele>167.4</ele>
      </trkpt>
      <trkpt lat="46.17648" lon="13.73214">
        <ele>165.3</ele>
      </trkpt>
      <trkpt lat="46.177" lon="13.73118">
        <ele>163.4</ele>
      </trkpt>
      <trkpt lat="46.17712" lon="13.73092">
        <ele>162.9</ele>
      </trkpt>
      <trkpt lat="46.17712" lon="13.73092">
        <ele>162.9</ele>
      </trkpt>
      <trkpt lat="46.17712" lon="13.73092">
        <ele>162.9</ele>
      </trkpt>
      <trkpt lat="46.17704" lon="13.73082">
        <ele>162.3</ele>
      </trkpt>
      <trkpt lat="46.177" lon="13.73084">
        <ele>162.2</ele>
      </trkpt>
      <trkpt lat="46.17693" lon="13.73089">
        <ele>162.2</ele>
      </trkpt>
      <trkpt lat="46.17668" lon="13.73137">
        <ele>163.6</ele>
      </trkpt>
      <trkpt lat="46.1765" lon="13.73169">
        <ele>164.1</ele>
      </trkpt>
      <trkpt lat="46.17619" lon="13.73205">
        <ele>164.4</ele>
      </trkpt>
      <trkpt lat="46.17601" lon="13.73221">
        <ele>165.3</ele>
      </trkpt>
      <trkpt lat="46.17591" lon="13.73222">
        <ele>165.3</ele>
      </trkpt>
      <trkpt lat="46.17548" lon="13.73246">
        <ele>165.5</ele>
      </trkpt>
      <trkpt lat="46.17521" lon="13.73257">
        <ele>164.3</ele>
      </trkpt>
      <trkpt lat="46.17513" lon="13.73258">
        <ele>163.9</ele>
      </trkpt>
      <trkpt lat="46.17502" lon="13.73255">
        <ele>163.2</ele>
      </trkpt>
      <trkpt lat="46.17492" lon="13.73248">
        <ele>162.6</ele>
      </trkpt>
      <trkpt lat="46.17485" lon="13.73257">
        <ele>162.5</ele>
      </trkpt>
      <trkpt lat="46.1747" lon="13.73288">
        <ele>161.6</ele>
      </trkpt>
      <trkpt lat="46.17463" lon="13.73304">
        <ele>160.9</ele>
      </trkpt>
      <trkpt lat="46.17459" lon="13.73323">
        <ele>160.2</ele>
      </trkpt>
      <trkpt lat="46.17456" lon="13.73365">
        <ele>160.2</ele>
      </trkpt>
      <trkpt lat="46.17455" lon="13.73377">
        <ele>160.2</ele>
      </trkpt>
      <trkpt lat="46.1745" lon="13.73398">
        <ele>160.1</ele>
      </trkpt>
      <trkpt lat="46.1745" lon="13.73402">
        <ele>160.2</ele>
      </trkpt>
      <trkpt lat="46.1745" lon="13.73402">
        <ele>160.2</ele>
      </trkpt>
      <trkpt lat="46.17449" lon="13.73417">
        <ele>160.3</ele>
      </trkpt>
      <trkpt lat="46.17454" lon="13.73431">
        <ele>160.9</ele>
      </trkpt>
      <trkpt lat="46.17465" lon="13.73484">
        <ele>162.8</ele>
      </trkpt>
      <trkpt lat="46.17455" lon="13.73494">
        <ele>162.1</ele>
      </trkpt>
      <trkpt lat="46.17449" lon="13.73497">
        <ele>161.7</ele>
      </trkpt>
      <trkpt lat="46.17442" lon="13.73497">
        <ele>161.1</ele>
      </trkpt>
      <trkpt lat="46.17438" lon="13.7349">
        <ele>160.6</ele>
      </trkpt>
      <trkpt lat="46.17429" lon="13.73467">
        <ele>159.6</ele>
      </trkpt>
      <trkpt lat="46.17422" lon="13.73445">
        <ele>158.7</ele>
      </trkpt>
      <trkpt lat="46.17413" lon="13.73422">
        <ele>159.3</ele>
      </trkpt>
      <trkpt lat="46.17411" lon="13.73409">
        <ele>159.7</ele>
      </trkpt>
      <trkpt lat="46.17412" lon="13.73391">
        <ele>159.0</ele>
      </trkpt>
      <trkpt lat="46.17417" lon="13.73358">
        <ele>156.6</ele>
      </trkpt>
      <trkpt lat="46.17417" lon="13.73358">
        <ele>156.6</ele>
      </trkpt>
      <trkpt lat="46.17433" lon="13.73302">
        <ele>158.7</ele>
      </trkpt>
      <trkpt lat="46.17465" lon="13.73253">
        <ele>161.7</ele>
      </trkpt>
      <trkpt lat="46.17483" lon="13.73232">
        <ele>161.4</ele>
      </trkpt>
      <trkpt lat="46.17492" lon="13.73217">
        <ele>160.4</ele>
      </trkpt>
      <trkpt lat="46.17507" lon="13.73213">
        <ele>160.3</ele>
      </trkpt>
      <trkpt lat="46.1752" lon="13.73202">
        <ele>160.0</ele>
      </trkpt>
      <trkpt lat="46.17541" lon="13.7318">
        <ele>159.2</ele>
      </trkpt>
      <trkpt lat="46.17537" lon="13.73086">
        <ele>156.9</ele>
      </trkpt>
      <trkpt lat="46.17533" lon="13.73066">
        <ele>157.5</ele>
      </trkpt>
      <trkpt lat="46.17538" lon="13.73037">
        <ele>158.7</ele>
      </trkpt>
      <trkpt lat="46.17538" lon="13.73028">
        <ele>159.1</ele>
      </trkpt>
      <trkpt lat="46.17536" lon="13.72983">
        <ele>161.4</ele>
      </trkpt>
      <trkpt lat="46.17549" lon="13.72941">
        <ele>162.6</ele>
      </trkpt>
      <trkpt lat="46.17542" lon="13.72898">
        <ele>165.8</ele>
      </trkpt>
      <trkpt lat="46.17553" lon="13.72854">
        <ele>165.5</ele>
      </trkpt>
      <trkpt lat="46.17553" lon="13.72844">
        <ele>165.9</ele>
      </trkpt>
      <trkpt lat="46.17555" lon="13.72792">
        <ele>167.0</ele>
      </trkpt>
      <trkpt lat="46.17559" lon="13.7276">
        <ele>166.6</ele>
      </trkpt>
      <trkpt lat="46.17557" lon="13.7274">
        <ele>167.8</ele>
      </trkpt>
      <trkpt lat="46.1757" lon="13.72653">
        <ele>164.7</ele>
      </trkpt>
      <trkpt lat="46.17577" lon="13.72621">
        <ele>161.1</ele>
      </trkpt>
      <trkpt lat="46.17594" lon="13.72596">
        <ele>157.7</ele>
      </trkpt>
      <trkpt lat="46.17612" lon="13.72571">
        <ele>157.5</ele>
      </trkpt>
      <trkpt lat="46.17621" lon="13.72553">
        <ele>157.2</ele>
      </trkpt>
      <trkpt lat="46.17633" lon="13.72539">
        <ele>156.9</ele>
      </trkpt>
      <trkpt lat="46.17641" lon="13.72534">
        <ele>156.7</ele>
      </trkpt>
      <trkpt lat="46.17641" lon="13.72534">
        <ele>156.7</ele>
      </trkpt>
      <trkpt lat="46.1765" lon="13.72528">
        <ele>156.5</ele>
      </trkpt>
      <trkpt lat="46.17673" lon="13.72523">
        <ele>156.3</ele>
      </trkpt>
      <trkpt lat="46.17684" lon="13.72525">
        <ele>156.8</ele>
      </trkpt>
      <trkpt lat="46.1769" lon="13.72525">
        <ele>157.1</ele>
      </trkpt>
      <trkpt lat="46.17729" lon="13.725">
        <ele>158.0</ele>
      </trkpt>
      <trkpt lat="46.17769" lon="13.72484">
        <ele>158.6</ele>
      </trkpt>
      <trkpt lat="46.17811" lon="13.72471">
        <ele>158.0</ele>
      </trkpt>
      <trkpt lat="46.17811" lon="13.72471">
        <ele>158.0</ele>
      </trkpt>
      <trkpt lat="46.17815" lon="13.7247">
        <ele>158.0</ele>
      </trkpt>
      <trkpt lat="46.17842" lon="13.72467">
        <ele>158.2</ele>
      </trkpt>
      <trkpt lat="46.17864" lon="13.7247">
        <ele>159.4</ele>
      </trkpt>
      <trkpt lat="46.17871" lon="13.72465">
        <ele>159.5</ele>
      </trkpt>
      <trkpt lat="46.17879" lon="13.72452">
        <ele>159.5</ele>
      </trkpt>
      <trkpt lat="46.17919" lon="13.72451">
        <ele>161.3</ele>
      </trkpt>
      <trkpt lat="46.17937" lon="13.72428">
        <ele>161.1</ele>
      </trkpt>
      <trkpt lat="46.17965" lon="13.72396">
        <ele>161.1</ele>
      </trkpt>
      <trkpt lat="46.17969" lon="13.72394">
        <ele>161.1</ele>
      </trkpt>
      <trkpt lat="46.17978" lon="13.72398">
        <ele>161.5</ele>
      </trkpt>
      <trkpt lat="46.17986" lon="13.72394">
        <ele>161.5</ele>
      </trkpt>
      <trkpt lat="46.18007" lon="13.72396">
        <ele>161.8</ele>
      </trkpt>
      <trkpt lat="46.18007" lon="13.72396">
        <ele>161.8</ele>
      </trkpt>
      <trkpt lat="46.18021" lon="13.72397">
        <ele>161.4</ele>
      </trkpt>
      <trkpt lat="46.18027" lon="13.72392">
        <ele>161.0</ele>
      </trkpt>
      <trkpt lat="46.1803" lon="13.72384">
        <ele>160.6</ele>
      </trkpt>
      <trkpt lat="46.18028" lon="13.72373">
        <ele>160.2</ele>
      </trkpt>
      <trkpt lat="46.18032" lon="13.72359">
        <ele>159.6</ele>
      </trkpt>
      <trkpt lat="46.18068" lon="13.72307">
        <ele>157.7</ele>
      </trkpt>
      <trkpt lat="46.18087" lon="13.7229">
        <ele>157.0</ele>
      </trkpt>
      <trkpt lat="46.18096" lon="13.72286">
        <ele>157.0</ele>
      </trkpt>
      <trkpt lat="46.18103" lon="13.7228">
        <ele>157.0</ele>
      </trkpt>
      <trkpt lat="46.18108" lon="13.72272">
        <ele>157.0</ele>
      </trkpt>
      <trkpt lat="46.18121" lon="13.72259">
        <ele>157.0</ele>
      </trkpt>
      <trkpt lat="46.18121" lon="13.72259">
        <ele>157.0</ele>
      </trkpt>
      <trkpt lat="46.18135" lon="13.72236">
        <ele>157.0</ele>
      </trkpt>
      <trkpt lat="46.18138" lon="13.72222">
        <ele>156.9</ele>
      </trkpt>
      <trkpt lat="46.18142" lon="13.72218">
        <ele>156.9</ele>
      </trkpt>
      <trkpt lat="46.18144" lon="13.72213">
        <ele>156.8</ele>
      </trkpt>
      <trkpt lat="46.18148" lon="13.72211">
        <ele>156.8</ele>
      </trkpt>
      <trkpt lat="46.18155" lon="13.72204">
        <ele>156.8</ele>
      </trkpt>
      <trkpt lat="46.18166" lon="13.72188">
        <ele>156.5</ele>
      </trkpt>
      <trkpt lat="46.18175" lon="13.72165">
        <ele>156.3</ele>
      </trkpt>
      <trkpt lat="46.18178" lon="13.72145">
        <ele>156.4</ele>
      </trkpt>
      <trkpt lat="46.18178" lon="13.72095">
        <ele>156.4</ele>
      </trkpt>
      <trkpt lat="46.18181" lon="13.72073">
        <ele>156.6</ele>
      </trkpt>
      <trkpt lat="46.1819" lon="13.72057">
        <ele>157.2</ele>
      </trkpt>
      <trkpt lat="46.18211" lon="13.72052">
        <ele>158.0</ele>
      </trkpt>
      <trkpt lat="46.18222" lon="13.72053">
        <ele>158.4</ele>
      </trkpt>
      <trkpt lat="46.1824" lon="13.72055">
        <ele>159.0</ele>
      </trkpt>
      <trkpt lat="46.18253" lon="13.72064">
        <ele>159.2</ele>
      </trkpt>
      <trkpt lat="46.18261" lon="13.72077">
        <ele>159.1</ele>
      </trkpt>
      <trkpt lat="46.18271" lon="13.72105">
        <ele>158.9</ele>
      </trkpt>
      <trkpt lat="46.18286" lon="13.72116">
        <ele>158.8</ele>
      </trkpt>
      <trkpt lat="46.18286" lon="13.72098">
        <ele>158.9</ele>
      </trkpt>
      <trkpt lat="46.18289" lon="13.72059">
        <ele>159.3</ele>
      </trkpt>
      <trkpt lat="46.18289" lon="13.72059">
        <ele>159.3</ele>
      </trkpt>
      <trkpt lat="46.1829" lon="13.72047">
        <ele>159.4</ele>
      </trkpt>
      <trkpt lat="46.18291" lon="13.72036">
        <ele>159.3</ele>
      </trkpt>
      <trkpt lat="46.18294" lon="13.72033">
        <ele>159.3</ele>
      </trkpt>
      <trkpt lat="46.18301" lon="13.72032">
        <ele>159.3</ele>
      </trkpt>
      <trkpt lat="46.18305" lon="13.72035">
        <ele>159.2</ele>
      </trkpt>
      <trkpt lat="46.18315" lon="13.72042">
        <ele>159.2</ele>
      </trkpt>
      <trkpt lat="46.18317" lon="13.72044">
        <ele>159.2</ele>
      </trkpt>
      <trkpt lat="46.18318" lon="13.72047">
        <ele>159.2</ele>
      </trkpt>
      <trkpt lat="46.18318" lon="13.72058">
        <ele>159.1</ele>
      </trkpt>
      <trkpt lat="46.18317" lon="13.72076">
        <ele>159.1</ele>
      </trkpt>
      <trkpt lat="46.18352" lon="13.72104">
        <ele>158.8</ele>
      </trkpt>
      <trkpt lat="46.18375" lon="13.7212">
        <ele>158.8</ele>
      </trkpt>
      <trkpt lat="46.18427" lon="13.72073">
        <ele>158.7</ele>
      </trkpt>
      <trkpt lat="46.18479" lon="13.72027">
        <ele>157.8</ele>
      </trkpt>
      <trkpt lat="46.18512" lon="13.72">
        <ele>158.3</ele>
      </trkpt>
      <trkpt lat="46.18541" lon="13.71975">
        <ele>158.8</ele>
      </trkpt>
      <trkpt lat="46.18551" lon="13.71965">
        <ele>159.0</ele>
      </trkpt>
      <trkpt lat="46.18565" lon="13.71955">
        <ele>159.1</ele>
      </trkpt>
      <trkpt lat="46.18581" lon="13.7194">
        <ele>159.2</ele>
      </trkpt>
      <trkpt lat="46.18599" lon="13.71918">
        <ele>159.0</ele>
      </trkpt>
      <trkpt lat="46.18606" lon="13.71914">
        <ele>159.0</ele>
      </trkpt>
      <trkpt lat="46.18635" lon="13.71913">
        <ele>159.0</ele>
      </trkpt>
      <trkpt lat="46.18646" lon="13.71911">
        <ele>159.0</ele>
      </trkpt>
      <trkpt lat="46.18702" lon="13.71885">
        <ele>158.5</ele>
      </trkpt>
      <trkpt lat="46.18731" lon="13.71875">
        <ele>158.1</ele>
      </trkpt>
      <trkpt lat="46.18767" lon="13.71865">
        <ele>158.4</ele>
      </trkpt>
      <trkpt lat="46.18778" lon="13.71861">
        <ele>158.7</ele>
      </trkpt>
      <trkpt lat="46.18786" lon="13.71853">
        <ele>158.8</ele>
      </trkpt>
      <trkpt lat="46.18794" lon="13.71841">
        <ele>158.8</ele>
      </trkpt>
      <trkpt lat="46.18794" lon="13.71841">
        <ele>158.8</ele>
      </trkpt>
      <trkpt lat="46.18804" lon="13.71856">
        <ele>159.5</ele>
      </trkpt>
      <trkpt lat="46.18832" lon="13.71915">
        <ele>161.9</ele>
      </trkpt>
      <trkpt lat="46.18832" lon="13.71915">
        <ele>161.9</ele>
      </trkpt>
      <trkpt lat="46.18853" lon="13.71976">
        <ele>164.4</ele>
      </trkpt>
      <trkpt lat="46.18856" lon="13.72003">
        <ele>166.2</ele>
      </trkpt>
      <trkpt lat="46.18852" lon="13.72028">
        <ele>168.8</ele>
      </trkpt>
      <trkpt lat="46.18857" lon="13.72041">
        <ele>171.8</ele>
      </trkpt>
      <trkpt lat="46.18879" lon="13.72063">
        <ele>182.0</ele>
      </trkpt>
      <trkpt lat="46.18892" lon="13.7207">
        <ele>187.8</ele>
      </trkpt>
      <trkpt lat="46.18906" lon="13.7207">
        <ele>192.5</ele>
      </trkpt>
      <trkpt lat="46.18973" lon="13.71998">
        <ele>199.7</ele>
      </trkpt>
      <trkpt lat="46.18981" lon="13.71995">
        <ele>202.2</ele>
      </trkpt>
      <trkpt lat="46.19003" lon="13.71964">
        <ele>199.9</ele>
      </trkpt>
      <trkpt lat="46.1902" lon="13.71944">
        <ele>197.7</ele>
      </trkpt>
      <trkpt lat="46.19042" lon="13.71923">
        <ele>196.8</ele>
      </trkpt>
      <trkpt lat="46.1907" lon="13.71926">
        <ele>206.2</ele>
      </trkpt>
      <trkpt lat="46.19088" lon="13.71934">
        <ele>212.4</ele>
      </trkpt>
      <trkpt lat="46.19103" lon="13.71947">
        <ele>214.7</ele>
      </trkpt>
      <trkpt lat="46.19106" lon="13.71966">
        <ele>219.3</ele>
      </trkpt>
      <trkpt lat="46.19101" lon="13.71981">
        <ele>224.4</ele>
      </trkpt>
      <trkpt lat="46.19101" lon="13.71981">
        <ele>224.4</ele>
      </trkpt>
      <trkpt lat="46.19097" lon="13.71993">
        <ele>228.9</ele>
      </trkpt>
      <trkpt lat="46.1908" lon="13.7197">
        <ele>224.0</ele>
      </trkpt>
      <trkpt lat="46.19046" lon="13.71973">
        <ele>215.3</ele>
      </trkpt>
      <trkpt lat="46.19042" lon="13.71975">
        <ele>214.9</ele>
      </trkpt>
      <trkpt lat="46.19042" lon="13.71975">
        <ele>214.9</ele>
      </trkpt>
      <trkpt lat="46.19023" lon="13.71985">
        <ele>213.1</ele>
      </trkpt>
      <trkpt lat="46.19011" lon="13.71996">
        <ele>213.6</ele>
      </trkpt>
      <trkpt lat="46.18991" lon="13.72018">
        <ele>215.4</ele>
      </trkpt>
      <trkpt lat="46.18966" lon="13.72063">
        <ele>220.4</ele>
      </trkpt>
      <trkpt lat="46.18953" lon="13.72095">
        <ele>225.1</ele>
      </trkpt>
      <trkpt lat="46.18921" lon="13.72132">
        <ele>220.7</ele>
      </trkpt>
      <trkpt lat="46.18903" lon="13.72151">
        <ele>218.9</ele>
      </trkpt>
      <trkpt lat="46.18875" lon="13.72187">
        <ele>220.0</ele>
      </trkpt>
      <trkpt lat="46.18854" lon="13.7222">
        <ele>224.0</ele>
      </trkpt>
      <trkpt lat="46.18852" lon="13.72234">
        <ele>229.0</ele>
      </trkpt>
      <trkpt lat="46.18847" lon="13.72242">
        <ele>229.8</ele>
      </trkpt>
      <trkpt lat="46.1884" lon="13.72249">
        <ele>229.1</ele>
      </trkpt>
      <trkpt lat="46.18809" lon="13.72268">
        <ele>223.4</ele>
      </trkpt>
      <trkpt lat="46.18806" lon="13.72277">
        <ele>226.2</ele>
      </trkpt>
      <trkpt lat="46.18795" lon="13.72298">
        <ele>231.1</ele>
      </trkpt>
      <trkpt lat="46.18785" lon="13.72309">
        <ele>232.0</ele>
      </trkpt>
      <trkpt lat="46.18774" lon="13.72317">
        <ele>231.1</ele>
      </trkpt>
      <trkpt lat="46.18765" lon="13.72325">
        <ele>231.2</ele>
      </trkpt>
      <trkpt lat="46.1876" lon="13.72334">
        <ele>233.4</ele>
      </trkpt>
      <trkpt lat="46.18753" lon="13.72339">
        <ele>232.4</ele>
      </trkpt>
      <trkpt lat="46.18744" lon="13.72341">
        <ele>229.5</ele>
      </trkpt>
      <trkpt lat="46.18733" lon="13.72339">
        <ele>224.2</ele>
      </trkpt>
      <trkpt lat="46.18733" lon="13.72338">
        <ele>223.8</ele>
      </trkpt>
      <trkpt lat="46.18719" lon="13.72337">
        <ele>217.7</ele>
      </trkpt>
      <trkpt lat="46.18713" lon="13.72334">
        <ele>214.2</ele>
      </trkpt>
      <trkpt lat="46.18701" lon="13.72342">
        <ele>212.2</ele>
      </trkpt>
      <trkpt lat="46.18695" lon="13.72354">
        <ele>214.0</ele>
      </trkpt>
      <trkpt lat="46.18681" lon="13.72371">
        <ele>214.2</ele>
      </trkpt>
      <trkpt lat="46.18676" lon="13.72382">
        <ele>215.9</ele>
      </trkpt>
      <trkpt lat="46.18674" lon="13.72392">
        <ele>218.6</ele>
      </trkpt>
      <trkpt lat="46.18682" lon="13.72416">
        <ele>230.6</ele>
      </trkpt>
      <trkpt lat="46.18701" lon="13.72454">
        <ele>241.2</ele>
      </trkpt>
      <trkpt lat="46.18703" lon="13.7247">
        <ele>243.0</ele>
      </trkpt>
      <trkpt lat="46.18707" lon="13.72501">
        <ele>246.8</ele>
      </trkpt>
      <trkpt lat="46.18719" lon="13.72544">
        <ele>251.6</ele>
      </trkpt>
      <trkpt lat="46.18723" lon="13.72565">
        <ele>252.8</ele>
      </trkpt>
      <trkpt lat="46.18729" lon="13.7258">
        <ele>255.1</ele>
      </trkpt>
      <trkpt lat="46.18736" lon="13.72619">
        <ele>253.4</ele>
      </trkpt>
      <trkpt lat="46.18752" lon="13.72673">
        <ele>254.1</ele>
      </trkpt>
      <trkpt lat="46.18753" lon="13.72689">
        <ele>253.7</ele>
      </trkpt>
      <trkpt lat="46.18759" lon="13.72704">
        <ele>256.4</ele>
      </trkpt>
      <trkpt lat="46.18764" lon="13.72705">
        <ele>259.5</ele>
      </trkpt>
      <trkpt lat="46.18769" lon="13.72712">
        <ele>261.6</ele>
      </trkpt>
      <trkpt lat="46.18772" lon="13.72731">
        <ele>260.6</ele>
      </trkpt>
      <trkpt lat="46.18784" lon="13.72742">
        <ele>264.7</ele>
      </trkpt>
      <trkpt lat="46.1879" lon="13.72757">
        <ele>264.7</ele>
      </trkpt>
      <trkpt lat="46.1882" lon="13.72793">
        <ele>274.1</ele>
      </trkpt>
      <trkpt lat="46.18864" lon="13.72851">
        <ele>284.7</ele>
      </trkpt>
      <trkpt lat="46.18871" lon="13.72859">
        <ele>284.7</ele>
      </trkpt>
      <trkpt lat="46.18891" lon="13.72879">
        <ele>285.4</ele>
      </trkpt>
      <trkpt lat="46.189" lon="13.72891">
        <ele>284.2</ele>
      </trkpt>
      <trkpt lat="46.18906" lon="13.7291">
        <ele>278.5</ele>
      </trkpt>
      <trkpt lat="46.18909" lon="13.72909">
        <ele>280.2</ele>
      </trkpt>
      <trkpt lat="46.18911" lon="13.72892">
        <ele>288.5</ele>
      </trkpt>
      <trkpt lat="46.18892" lon="13.72856">
        <ele>295.6</ele>
      </trkpt>
      <trkpt lat="46.18846" lon="13.72745">
        <ele>296.3</ele>
      </trkpt>
      <trkpt lat="46.18842" lon="13.72736">
        <ele>296.9</ele>
      </trkpt>
      <trkpt lat="46.18839" lon="13.72708">
        <ele>305.8</ele>
      </trkpt>
      <trkpt lat="46.18826" lon="13.72685">
        <ele>305.6</ele>
      </trkpt>
      <trkpt lat="46.18827" lon="13.72668">
        <ele>306.0</ele>
      </trkpt>
      <trkpt lat="46.18827" lon="13.72656">
        <ele>306.3</ele>
      </trkpt>
      <trkpt lat="46.18824" lon="13.72646">
        <ele>306.6</ele>
      </trkpt>
      <trkpt lat="46.18815" lon="13.72633">
        <ele>307.0</ele>
      </trkpt>
      <trkpt lat="46.18806" lon="13.72628">
        <ele>307.4</ele>
      </trkpt>
      <trkpt lat="46.18808" lon="13.72613">
        <ele>307.8</ele>
      </trkpt>
      <trkpt lat="46.18809" lon="13.72597">
        <ele>311.4</ele>
      </trkpt>
      <trkpt lat="46.18812" lon="13.72578">
        <ele>316.4</ele>
      </trkpt>
      <trkpt lat="46.18821" lon="13.72537">
        <ele>324.2</ele>
      </trkpt>
      <trkpt lat="46.18825" lon="13.72519">
        <ele>327.5</ele>
      </trkpt>
      <trkpt lat="46.18829" lon="13.72511">
        <ele>330.6</ele>
      </trkpt>
      <trkpt lat="46.18828" lon="13.72508">
        <ele>329.9</ele>
      </trkpt>
      <trkpt lat="46.18825" lon="13.72499">
        <ele>327.3</ele>
      </trkpt>
      <trkpt lat="46.18828" lon="13.72489">
        <ele>326.7</ele>
      </trkpt>
      <trkpt lat="46.18831" lon="13.72492">
        <ele>329.9</ele>
      </trkpt>
      <trkpt lat="46.18834" lon="13.72499">
        <ele>334.2</ele>
      </trkpt>
      <trkpt lat="46.18836" lon="13.72516">
        <ele>335.9</ele>
      </trkpt>
      <trkpt lat="46.18835" lon="13.72541">
        <ele>335.2</ele>
      </trkpt>
      <trkpt lat="46.18837" lon="13.72553">
        <ele>336.5</ele>
      </trkpt>
      <trkpt lat="46.18832" lon="13.72583">
        <ele>332.9</ele>
      </trkpt>
      <trkpt lat="46.18832" lon="13.72605">
        <ele>328.8</ele>
      </trkpt>
      <trkpt lat="46.1884" lon="13.72615">
        <ele>332.6</ele>
      </trkpt>
      <trkpt lat="46.18846" lon="13.72619">
        <ele>336.1</ele>
      </trkpt>
      <trkpt lat="46.18857" lon="13.72622">
        <ele>343.4</ele>
      </trkpt>
      <trkpt lat="46.18859" lon="13.7263">
        <ele>343.5</ele>
      </trkpt>
      <trkpt lat="46.18863" lon="13.72642">
        <ele>344.3</ele>
      </trkpt>
      <trkpt lat="46.1887" lon="13.72645">
        <ele>348.9</ele>
      </trkpt>
      <trkpt lat="46.18878" lon="13.72652">
        <ele>353.6</ele>
      </trkpt>
      <trkpt lat="46.18899" lon="13.72684">
        <ele>359.8</ele>
      </trkpt>
      <trkpt lat="46.18917" lon="13.72713">
        <ele>361.2</ele>
      </trkpt>
      <trkpt lat="46.18923" lon="13.72723">
        <ele>358.7</ele>
      </trkpt>
      <trkpt lat="46.18934" lon="13.72748">
        <ele>351.8</ele>
      </trkpt>
      <trkpt lat="46.18937" lon="13.72752">
        <ele>351.1</ele>
      </trkpt>
      <trkpt lat="46.18943" lon="13.7276">
        <ele>349.5</ele>
      </trkpt>
      <trkpt lat="46.18947" lon="13.72757">
        <ele>351.8</ele>
      </trkpt>
      <trkpt lat="46.18946" lon="13.7275">
        <ele>354.4</ele>
      </trkpt>
      <trkpt lat="46.18937" lon="13.72734">
        <ele>358.1</ele>
      </trkpt>
      <trkpt lat="46.18936" lon="13.72715">
        <ele>365.4</ele>
      </trkpt>
      <trkpt lat="46.18929" lon="13.72699">
        <ele>369.9</ele>
      </trkpt>
      <trkpt lat="46.18921" lon="13.72673">
        <ele>378.4</ele>
      </trkpt>
      <trkpt lat="46.18912" lon="13.72646">
        <ele>379.3</ele>
      </trkpt>
      <trkpt lat="46.18909" lon="13.72629">
        <ele>379.5</ele>
      </trkpt>
      <trkpt lat="46.18896" lon="13.72594">
        <ele>375.3</ele>
      </trkpt>
      <trkpt lat="46.1889" lon="13.7258">
        <ele>372.8</ele>
      </trkpt>
      <trkpt lat="46.18888" lon="13.72567">
        <ele>371.7</ele>
      </trkpt>
      <trkpt lat="46.18895" lon="13.72572">
        <ele>376.4</ele>
      </trkpt>
      <trkpt lat="46.18903" lon="13.72585">
        <ele>381.4</ele>
      </trkpt>
      <trkpt lat="46.18921" lon="13.7261">
        <ele>388.6</ele>
      </trkpt>
      <trkpt lat="46.18931" lon="13.72631">
        <ele>388.3</ele>
      </trkpt>
      <trkpt lat="46.18955" lon="13.72673">
        <ele>386.3</ele>
      </trkpt>
      <trkpt lat="46.18964" lon="13.72687">
        <ele>383.2</ele>
      </trkpt>
      <trkpt lat="46.18968" lon="13.72697">
        <ele>380.4</ele>
      </trkpt>
      <trkpt lat="46.18968" lon="13.72697">
        <ele>380.4</ele>
      </trkpt>
      <trkpt lat="46.18971" lon="13.72696">
        <ele>381.6</ele>
      </trkpt>
      <trkpt lat="46.18971" lon="13.72691">
        <ele>383.4</ele>
      </trkpt>
      <trkpt lat="46.18974" lon="13.72691">
        <ele>384.1</ele>
      </trkpt>
      <trkpt lat="46.18976" lon="13.72691">
        <ele>384.6</ele>
      </trkpt>
      <trkpt lat="46.18977" lon="13.72687">
        <ele>386.3</ele>
      </trkpt>
      <trkpt lat="46.18976" lon="13.72683">
        <ele>387.6</ele>
      </trkpt>
      <trkpt lat="46.18978" lon="13.7268">
        <ele>389.1</ele>
      </trkpt>
      <trkpt lat="46.18977" lon="13.72676">
        <ele>390.3</ele>
      </trkpt>
      <trkpt lat="46.18974" lon="13.72657">
        <ele>394.7</ele>
      </trkpt>
      <trkpt lat="46.18968" lon="13.72641">
        <ele>396.0</ele>
      </trkpt>
      <trkpt lat="46.18969" lon="13.72636">
        <ele>397.1</ele>
      </trkpt>
      <trkpt lat="46.18971" lon="13.72635">
        <ele>397.8</ele>
      </trkpt>
      <trkpt lat="46.18973" lon="13.72632">
        <ele>398.8</ele>
      </trkpt>
      <trkpt lat="46.18972" lon="13.72626">
        <ele>399.6</ele>
      </trkpt>
      <trkpt lat="46.18968" lon="13.72619">
        <ele>399.8</ele>
      </trkpt>
      <trkpt lat="46.18968" lon="13.72619">
        <ele>399.8</ele>
      </trkpt>
      <trkpt lat="46.18967" lon="13.72616">
        <ele>400.0</ele>
      </trkpt>
      <trkpt lat="46.18967" lon="13.726102">
        <ele>401.0</ele>
      </trkpt>
      <trkpt lat="46.18969" lon="13.726036">
        <ele>402.6</ele>
      </trkpt>
      <trkpt lat="46.189747" lon="13.725969">
        <ele>405.4</ele>
      </trkpt>
      <trkpt lat="46.18984" lon="13.72591">
        <ele>409.0</ele>
      </trkpt>
      <trkpt lat="46.189866" lon="13.725878">
        <ele>410.3</ele>
      </trkpt>
      <trkpt lat="46.189855" lon="13.725797">
        <ele>410.5</ele>
      </trkpt>
      <trkpt lat="46.189771" lon="13.7255">
        <ele>405.7</ele>
      </trkpt>
      <trkpt lat="46.189721" lon="13.725333">
        <ele>403.4</ele>
      </trkpt>
      <trkpt lat="46.189682" lon="13.725282">
        <ele>402.3</ele>
      </trkpt>
      <trkpt lat="46.189632" lon="13.725272">
        <ele>401.2</ele>
      </trkpt>
      <trkpt lat="46.189519" lon="13.725304">
        <ele>399.2</ele>
      </trkpt>
      <trkpt lat="46.189396" lon="13.725347">
        <ele>396.8</ele>
      </trkpt>
      <trkpt lat="46.189333" lon="13.725352">
        <ele>395.6</ele>
      </trkpt>
      <trkpt lat="46.18929" lon="13.72535">
        <ele>394.7</ele>
      </trkpt>
      <trkpt lat="46.18929" lon="13.72527">
        <ele>394.7</ele>
      </trkpt>
      <trkpt lat="46.18929" lon="13.72527">
        <ele>394.7</ele>
      </trkpt>
      <trkpt lat="46.1893" lon="13.72518">
        <ele>394.9</ele>
      </trkpt>
      <trkpt lat="46.18928" lon="13.72514">
        <ele>394.6</ele>
      </trkpt>
      <trkpt lat="46.18924" lon="13.72517">
        <ele>393.9</ele>
      </trkpt>
      <trkpt lat="46.18919" lon="13.72524">
        <ele>392.9</ele>
      </trkpt>
      <trkpt lat="46.18914" lon="13.72528">
        <ele>390.5</ele>
      </trkpt>
      <trkpt lat="46.18912" lon="13.72528">
        <ele>389.1</ele>
      </trkpt>
      <trkpt lat="46.1891" lon="13.72523">
        <ele>387.8</ele>
      </trkpt>
      <trkpt lat="46.1891" lon="13.72516">
        <ele>387.9</ele>
      </trkpt>
      <trkpt lat="46.18916" lon="13.72506">
        <ele>392.4</ele>
      </trkpt>
      <trkpt lat="46.18921" lon="13.72495">
        <ele>391.7</ele>
      </trkpt>
      <trkpt lat="46.1893" lon="13.72486">
        <ele>389.6</ele>
      </trkpt>
      <trkpt lat="46.18933" lon="13.72484">
        <ele>389.3</ele>
      </trkpt>
      <trkpt lat="46.18933" lon="13.72484">
        <ele>389.3</ele>
      </trkpt>
      <trkpt lat="46.18951" lon="13.72477">
        <ele>389.5</ele>
      </trkpt>
      <trkpt lat="46.18974" lon="13.72471">
        <ele>390.8</ele>
      </trkpt>
      <trkpt lat="46.18993" lon="13.72472">
        <ele>394.2</ele>
      </trkpt>
      <trkpt lat="46.19011" lon="13.72478">
        <ele>393.0</ele>
      </trkpt>
      <trkpt lat="46.19027" lon="13.72499">
        <ele>393.7</ele>
      </trkpt>
      <trkpt lat="46.19042" lon="13.7252">
        <ele>389.7</ele>
      </trkpt>
      <trkpt lat="46.19057" lon="13.7254">
        <ele>384.9</ele>
      </trkpt>
      <trkpt lat="46.19062" lon="13.72554">
        <ele>383.8</ele>
      </trkpt>
      <trkpt lat="46.19071" lon="13.7257">
        <ele>380.9</ele>
      </trkpt>
      <trkpt lat="46.19079" lon="13.72572">
        <ele>377.3</ele>
      </trkpt>
      <trkpt lat="46.19084" lon="13.72564">
        <ele>374.5</ele>
      </trkpt>
      <trkpt lat="46.19085" lon="13.72483">
        <ele>365.1</ele>
      </trkpt>
      <trkpt lat="46.19091" lon="13.72479">
        <ele>360.4</ele>
      </trkpt>
      <trkpt lat="46.19097" lon="13.72481">
        <ele>357.5</ele>
      </trkpt>
      <trkpt lat="46.1911" lon="13.72502">
        <ele>355.2</ele>
      </trkpt>
      <trkpt lat="46.19119" lon="13.72538">
        <ele>353.0</ele>
      </trkpt>
      <trkpt lat="46.1913" lon="13.72551">
        <ele>348.1</ele>
      </trkpt>
      <trkpt lat="46.19144" lon="13.72609">
        <ele>341.9</ele>
      </trkpt>
      <trkpt lat="46.19158" lon="13.72647">
        <ele>332.3</ele>
      </trkpt>
      <trkpt lat="46.19158" lon="13.72679">
        <ele>328.4</ele>
      </trkpt>
      <trkpt lat="46.19155" lon="13.72721">
        <ele>321.0</ele>
      </trkpt>
      <trkpt lat="46.19155" lon="13.72721">
        <ele>321.0</ele>
      </trkpt>
      <trkpt lat="46.19154" lon="13.72726">
        <ele>320.3</ele>
      </trkpt>
      <trkpt lat="46.19136" lon="13.72757">
        <ele>319.9</ele>
      </trkpt>
      <trkpt lat="46.19117" lon="13.728">
        <ele>309.4</ele>
      </trkpt>
      <trkpt lat="46.19106" lon="13.72824">
        <ele>303.3</ele>
      </trkpt>
      <trkpt lat="46.19076" lon="13.72849">
        <ele>300.0</ele>
      </trkpt>
      <trkpt lat="46.19065" lon="13.72861">
        <ele>295.2</ele>
      </trkpt>
      <trkpt lat="46.19039" lon="13.72881">
        <ele>289.0</ele>
      </trkpt>
      <trkpt lat="46.19025" lon="13.72895">
        <ele>283.9</ele>
      </trkpt>
      <trkpt lat="46.19018" lon="13.72901">
        <ele>282.0</ele>
      </trkpt>
      <trkpt lat="46.19009" lon="13.72911">
        <ele>278.2</ele>
      </trkpt>
      <trkpt lat="46.19003" lon="13.72922">
        <ele>274.4</ele>
      </trkpt>
      <trkpt lat="46.18999" lon="13.72942">
        <ele>268.2</ele>
      </trkpt>
      <trkpt lat="46.18999" lon="13.7295">
        <ele>265.4</ele>
      </trkpt>
      <trkpt lat="46.18999" lon="13.729496">
        <ele>265.5</ele>
      </trkpt>
      <trkpt lat="46.18999" lon="13.7295">
        <ele>265.4</ele>
      </trkpt>
      <trkpt lat="46.18999" lon="13.72965">
        <ele>260.1</ele>
      </trkpt>
      <trkpt lat="46.18993" lon="13.72971">
        <ele>257.5</ele>
      </trkpt>
      <trkpt lat="46.18984" lon="13.72979">
        <ele>253.7</ele>
      </trkpt>
      <trkpt lat="46.18994" lon="13.72995">
        <ele>248.9</ele>
      </trkpt>
      <trkpt lat="46.18989" lon="13.72998">
        <ele>247.2</ele>
      </trkpt>
      <trkpt lat="46.18991" lon="13.73009">
        <ele>244.5</ele>
      </trkpt>
      <trkpt lat="46.18985" lon="13.73013">
        <ele>242.8</ele>
      </trkpt>
      <trkpt lat="46.18972" lon="13.73015">
        <ele>240.6</ele>
      </trkpt>
      <trkpt lat="46.18983" lon="13.73024">
        <ele>239.9</ele>
      </trkpt>
      <trkpt lat="46.18983" lon="13.73024">
        <ele>239.9</ele>
      </trkpt>
      <trkpt lat="46.19" lon="13.73036">
        <ele>238.9</ele>
      </trkpt>
      <trkpt lat="46.19007" lon="13.73045">
        <ele>236.3</ele>
      </trkpt>
      <trkpt lat="46.19014" lon="13.7305">
        <ele>234.8</ele>
      </trkpt>
      <trkpt lat="46.19019" lon="13.73065">
        <ele>231.2</ele>
      </trkpt>
      <trkpt lat="46.19028" lon="13.73079">
        <ele>228.2</ele>
      </trkpt>
      <trkpt lat="46.19036" lon="13.73085">
        <ele>227.3</ele>
      </trkpt>
      <trkpt lat="46.19041" lon="13.73087">
        <ele>227.3</ele>
      </trkpt>
      <trkpt lat="46.19047" lon="13.73107">
        <ele>226.2</ele>
      </trkpt>
      <trkpt lat="46.19065" lon="13.73133">
        <ele>224.6</ele>
      </trkpt>
      <trkpt lat="46.19065" lon="13.73133">
        <ele>224.6</ele>
      </trkpt>
      <trkpt lat="46.19066" lon="13.7314">
        <ele>224.1</ele>
      </trkpt>
      <trkpt lat="46.19067" lon="13.73144">
        <ele>223.9</ele>
      </trkpt>
      <trkpt lat="46.19039" lon="13.73221">
        <ele>218.5</ele>
      </trkpt>
      <trkpt lat="46.19042" lon="13.73231">
        <ele>217.6</ele>
      </trkpt>
      <trkpt lat="46.19038" lon="13.73258">
        <ele>214.5</ele>
      </trkpt>
      <trkpt lat="46.1905" lon="13.73277">
        <ele>211.3</ele>
      </trkpt>
      <trkpt lat="46.19062" lon="13.73288">
        <ele>210.2</ele>
      </trkpt>
      <trkpt lat="46.19082" lon="13.73292">
        <ele>210.9</ele>
      </trkpt>
      <trkpt lat="46.19133" lon="13.73332">
        <ele>216.9</ele>
      </trkpt>
      <trkpt lat="46.19156" lon="13.73353">
        <ele>217.9</ele>
      </trkpt>
      <trkpt lat="46.19156" lon="13.73353">
        <ele>217.9</ele>
      </trkpt>
      <trkpt lat="46.19168" lon="13.73369">
        <ele>217.5</ele>
      </trkpt>
      <trkpt lat="46.19181" lon="13.73396">
        <ele>215.8</ele>
      </trkpt>
      <trkpt lat="46.19201" lon="13.73423">
        <ele>217.0</ele>
      </trkpt>
      <trkpt lat="46.19205" lon="13.73431">
        <ele>216.6</ele>
      </trkpt>
      <trkpt lat="46.19205" lon="13.73431">
        <ele>216.6</ele>
      </trkpt>
      <trkpt lat="46.19214" lon="13.73447">
        <ele>216.0</ele>
      </trkpt>
      <trkpt lat="46.19218" lon="13.73463">
        <ele>213.8</ele>
      </trkpt>
      <trkpt lat="46.19225" lon="13.73477">
        <ele>212.9</ele>
      </trkpt>
      <trkpt lat="46.19238" lon="13.7349">
        <ele>213.8</ele>
      </trkpt>
      <trkpt lat="46.1925" lon="13.73499">
        <ele>215.2</ele>
      </trkpt>
      <trkpt lat="46.19259" lon="13.73513">
        <ele>215.1</ele>
      </trkpt>
      <trkpt lat="46.19276" lon="13.73546">
        <ele>213.2</ele>
      </trkpt>
      <trkpt lat="46.19289" lon="13.73567">
        <ele>211.9</ele>
      </trkpt>
      <trkpt lat="46.1931" lon="13.73603">
        <ele>210.7</ele>
      </trkpt>
      <trkpt lat="46.19317" lon="13.73607">
        <ele>211.8</ele>
      </trkpt>
      <trkpt lat="46.19325" lon="13.7361">
        <ele>213.3</ele>
      </trkpt>
      <trkpt lat="46.19347" lon="13.73626">
        <ele>214.5</ele>
      </trkpt>
      <trkpt lat="46.19389" lon="13.73662">
        <ele>214.2</ele>
      </trkpt>
      <trkpt lat="46.19398" lon="13.73668">
        <ele>214.3</ele>
      </trkpt>
      <trkpt lat="46.1941" lon="13.73668">
        <ele>215.3</ele>
      </trkpt>
      <trkpt lat="46.19432" lon="13.73658">
        <ele>218.4</ele>
      </trkpt>
      <trkpt lat="46.1944" lon="13.7366">
        <ele>218.9</ele>
      </trkpt>
      <trkpt lat="46.19455" lon="13.73682">
        <ele>218.3</ele>
      </trkpt>
      <trkpt lat="46.19472" lon="13.73711">
        <ele>217.4</ele>
      </trkpt>
      <trkpt lat="46.19481" lon="13.73723">
        <ele>217.3</ele>
      </trkpt>
      <trkpt lat="46.19509" lon="13.73757">
        <ele>216.7</ele>
      </trkpt>
      <trkpt lat="46.19529" lon="13.73782">
        <ele>214.2</ele>
      </trkpt>
      <trkpt lat="46.19539" lon="13.73788">
        <ele>214.4</ele>
      </trkpt>
      <trkpt lat="46.19543" lon="13.73793">
        <ele>213.9</ele>
      </trkpt>
      <trkpt lat="46.19546" lon="13.73798">
        <ele>213.4</ele>
      </trkpt>
      <trkpt lat="46.19549" lon="13.73807">
        <ele>212.1</ele>
      </trkpt>
      <trkpt lat="46.19552" lon="13.73814">
        <ele>211.1</ele>
      </trkpt>
      <trkpt lat="46.19558" lon="13.73819">
        <ele>211.0</ele>
      </trkpt>
      <trkpt lat="46.19579" lon="13.73832">
        <ele>211.6</ele>
      </trkpt>
      <trkpt lat="46.19586" lon="13.73838">
        <ele>212.4</ele>
      </trkpt>
      <trkpt lat="46.19594" lon="13.73847">
        <ele>213.4</ele>
      </trkpt>
      <trkpt lat="46.19604" lon="13.7386">
        <ele>214.2</ele>
      </trkpt>
      <trkpt lat="46.19611" lon="13.73866">
        <ele>214.7</ele>
      </trkpt>
      <trkpt lat="46.19622" lon="13.73872">
        <ele>215.4</ele>
      </trkpt>
      <trkpt lat="46.19639" lon="13.73891">
        <ele>215.1</ele>
      </trkpt>
      <trkpt lat="46.19664" lon="13.73915">
        <ele>213.2</ele>
      </trkpt>
      <trkpt lat="46.19696" lon="13.73935">
        <ele>218.7</ele>
      </trkpt>
      <trkpt lat="46.19715" lon="13.73939">
        <ele>221.8</ele>
      </trkpt>
      <trkpt lat="46.19727" lon="13.73945">
        <ele>223.2</ele>
      </trkpt>
      <trkpt lat="46.19745" lon="13.73951">
        <ele>225.1</ele>
      </trkpt>
      <trkpt lat="46.19757" lon="13.73951">
        <ele>227.9</ele>
      </trkpt>
      <trkpt lat="46.19765" lon="13.73966">
        <ele>227.6</ele>
      </trkpt>
      <trkpt lat="46.19786" lon="13.7399">
        <ele>229.3</ele>
      </trkpt>
      <trkpt lat="46.19817" lon="13.74021">
        <ele>232.8</ele>
      </trkpt>
      <trkpt lat="46.19824" lon="13.7403">
        <ele>232.6</ele>
      </trkpt>
      <trkpt lat="46.19829" lon="13.74042">
        <ele>230.9</ele>
      </trkpt>
      <trkpt lat="46.19833" lon="13.74059">
        <ele>227.5</ele>
      </trkpt>
      <trkpt lat="46.19842" lon="13.74075">
        <ele>226.7</ele>
      </trkpt>
      <trkpt lat="46.19857" lon="13.74099">
        <ele>229.9</ele>
      </trkpt>
      <trkpt lat="46.1987" lon="13.74114">
        <ele>233.2</ele>
      </trkpt>
      <trkpt lat="46.19886" lon="13.74124">
        <ele>236.0</ele>
      </trkpt>
      <trkpt lat="46.19904" lon="13.7414">
        <ele>237.5</ele>
      </trkpt>
      <trkpt lat="46.19914" lon="13.74152">
        <ele>237.0</ele>
      </trkpt>
      <trkpt lat="46.19928" lon="13.74161">
        <ele>238.1</ele>
      </trkpt>
      <trkpt lat="46.19936" lon="13.74161">
        <ele>238.6</ele>
      </trkpt>
      <trkpt lat="46.1994" lon="13.74162">
        <ele>238.9</ele>
      </trkpt>
      <trkpt lat="46.19949" lon="13.74158">
        <ele>239.6</ele>
      </trkpt>
      <trkpt lat="46.19954" lon="13.74161">
        <ele>240.0</ele>
      </trkpt>
      <trkpt lat="46.19959" lon="13.74169">
        <ele>240.5</ele>
      </trkpt>
      <trkpt lat="46.1996" lon="13.74179">
        <ele>241.1</ele>
      </trkpt>
      <trkpt lat="46.19962" lon="13.74192">
        <ele>239.6</ele>
      </trkpt>
      <trkpt lat="46.19968" lon="13.74197">
        <ele>239.6</ele>
      </trkpt>
      <trkpt lat="46.19981" lon="13.74195">
        <ele>241.4</ele>
      </trkpt>
      <trkpt lat="46.1999" lon="13.74202">
        <ele>241.0</ele>
      </trkpt>
      <trkpt lat="46.19999" lon="13.74203">
        <ele>241.6</ele>
      </trkpt>
      <trkpt lat="46.20008" lon="13.74205">
        <ele>241.7</ele>
      </trkpt>
      <trkpt lat="46.20018" lon="13.74211">
        <ele>241.9</ele>
      </trkpt>
      <trkpt lat="46.20022" lon="13.74211">
        <ele>242.0</ele>
      </trkpt>
      <trkpt lat="46.20021" lon="13.74215">
        <ele>242.0</ele>
      </trkpt>
      <trkpt lat="46.20021" lon="13.74227">
        <ele>242.2</ele>
      </trkpt>
      <trkpt lat="46.20022" lon="13.74233">
        <ele>242.3</ele>
      </trkpt>
      <trkpt lat="46.20025" lon="13.74236">
        <ele>242.3</ele>
      </trkpt>
      <trkpt lat="46.20028" lon="13.74239">
        <ele>242.4</ele>
      </trkpt>
      <trkpt lat="46.20028" lon="13.74239">
        <ele>242.4</ele>
      </trkpt>
      <trkpt lat="46.20024" lon="13.7424">
        <ele>242.5</ele>
      </trkpt>
      <trkpt lat="46.20021" lon="13.74238">
        <ele>242.6</ele>
      </trkpt>
      <trkpt lat="46.20015" lon="13.74232">
        <ele>241.4</ele>
      </trkpt>
      <trkpt lat="46.20007" lon="13.74236">
        <ele>237.1</ele>
      </trkpt>
      <trkpt lat="46.19995" lon="13.74236">
        <ele>234.1</ele>
      </trkpt>
      <trkpt lat="46.19983" lon="13.74232">
        <ele>234.6</ele>
      </trkpt>
      <trkpt lat="46.19974" lon="13.74227">
        <ele>234.5</ele>
      </trkpt>
      <trkpt lat="46.1997" lon="13.74226">
        <ele>234.4</ele>
      </trkpt>
      <trkpt lat="46.19964" lon="13.74241">
        <ele>234.4</ele>
      </trkpt>
      <trkpt lat="46.19954" lon="13.74236">
        <ele>234.3</ele>
      </trkpt>
      <trkpt lat="46.19946" lon="13.74241">
        <ele>234.2</ele>
      </trkpt>
      <trkpt lat="46.19943" lon="13.74234">
        <ele>234.2</ele>
      </trkpt>
      <trkpt lat="46.19934" lon="13.74219">
        <ele>234.1</ele>
      </trkpt>
      <trkpt lat="46.19921" lon="13.74216">
        <ele>233.5</ele>
      </trkpt>
      <trkpt lat="46.1991" lon="13.74206">
        <ele>234.0</ele>
      </trkpt>
      <trkpt lat="46.19906" lon="13.742">
        <ele>234.3</ele>
      </trkpt>
      <trkpt lat="46.19899" lon="13.74197">
        <ele>234.5</ele>
      </trkpt>
      <trkpt lat="46.1989" lon="13.74199">
        <ele>234.9</ele>
      </trkpt>
      <trkpt lat="46.19885" lon="13.74207">
        <ele>235.5</ele>
      </trkpt>
      <trkpt lat="46.19887" lon="13.7422">
        <ele>236.0</ele>
      </trkpt>
      <trkpt lat="46.19883" lon="13.74228">
        <ele>236.8</ele>
      </trkpt>
      <trkpt lat="46.19874" lon="13.74231">
        <ele>238.1</ele>
      </trkpt>
      <trkpt lat="46.19859" lon="13.74226">
        <ele>239.5</ele>
      </trkpt>
      <trkpt lat="46.19841" lon="13.74212">
        <ele>239.1</ele>
      </trkpt>
      <trkpt lat="46.19824" lon="13.74194">
        <ele>238.8</ele>
      </trkpt>
      <trkpt lat="46.198" lon="13.74181">
        <ele>241.9</ele>
      </trkpt>
      <trkpt lat="46.1979" lon="13.74181">
        <ele>244.4</ele>
      </trkpt>
      <trkpt lat="46.19771" lon="13.74177">
        <ele>247.8</ele>
      </trkpt>
      <trkpt lat="46.19768" lon="13.74166">
        <ele>244.9</ele>
      </trkpt>
      <trkpt lat="46.1975" lon="13.74143">
        <ele>242.2</ele>
      </trkpt>
      <trkpt lat="46.19729" lon="13.7413">
        <ele>244.4</ele>
      </trkpt>
      <trkpt lat="46.1971" lon="13.74114">
        <ele>244.1</ele>
      </trkpt>
      <trkpt lat="46.19699" lon="13.74095">
        <ele>239.8</ele>
      </trkpt>
      <trkpt lat="46.1969" lon="13.74083">
        <ele>237.2</ele>
      </trkpt>
      <trkpt lat="46.19666" lon="13.7407">
        <ele>237.7</ele>
      </trkpt>
      <trkpt lat="46.19656" lon="13.74077">
        <ele>243.6</ele>
      </trkpt>
      <trkpt lat="46.19647" lon="13.74073">
        <ele>245.1</ele>
      </trkpt>
      <trkpt lat="46.19633" lon="13.74052">
        <ele>241.2</ele>
      </trkpt>
      <trkpt lat="46.19619" lon="13.74038">
        <ele>239.0</ele>
      </trkpt>
      <trkpt lat="46.19591" lon="13.74016">
        <ele>234.9</ele>
      </trkpt>
      <trkpt lat="46.19575" lon="13.73999">
        <ele>228.3</ele>
      </trkpt>
      <trkpt lat="46.19558" lon="13.73992">
        <ele>227.6</ele>
      </trkpt>
      <trkpt lat="46.1954" lon="13.7399">
        <ele>228.5</ele>
      </trkpt>
      <trkpt lat="46.19527" lon="13.74001">
        <ele>229.2</ele>
      </trkpt>
      <trkpt lat="46.19521" lon="13.74003">
        <ele>229.5</ele>
      </trkpt>
      <trkpt lat="46.19518" lon="13.74003">
        <ele>229.7</ele>
      </trkpt>
      <trkpt lat="46.19513" lon="13.74004">
        <ele>229.9</ele>
      </trkpt>
      <trkpt lat="46.19504" lon="13.73998">
        <ele>230.4</ele>
      </trkpt>
      <trkpt lat="46.19494" lon="13.73994">
        <ele>231.0</ele>
      </trkpt>
      <trkpt lat="46.19473" lon="13.73995">
        <ele>231.3</ele>
      </trkpt>
      <trkpt lat="46.19432" lon="13.74">
        <ele>233.0</ele>
      </trkpt>
      <trkpt lat="46.1942" lon="13.7401">
        <ele>237.2</ele>
      </trkpt>
      <trkpt lat="46.19411" lon="13.74021">
        <ele>242.6</ele>
      </trkpt>
      <trkpt lat="46.19402" lon="13.74021">
        <ele>243.8</ele>
      </trkpt>
      <trkpt lat="46.19388" lon="13.74013">
        <ele>242.9</ele>
      </trkpt>
      <trkpt lat="46.19354" lon="13.74014">
        <ele>248.4</ele>
      </trkpt>
      <trkpt lat="46.19348" lon="13.74007">
        <ele>247.3</ele>
      </trkpt>
      <trkpt lat="46.19346" lon="13.73995">
        <ele>244.0</ele>
      </trkpt>
      <trkpt lat="46.19339" lon="13.73983">
        <ele>241.1</ele>
      </trkpt>
      <trkpt lat="46.19322" lon="13.73966">
        <ele>235.8</ele>
      </trkpt>
      <trkpt lat="46.19307" lon="13.73972">
        <ele>237.3</ele>
      </trkpt>
      <trkpt lat="46.193" lon="13.73971">
        <ele>236.7</ele>
      </trkpt>
      <trkpt lat="46.193" lon="13.73971">
        <ele>236.7</ele>
      </trkpt>
      <trkpt lat="46.19284" lon="13.7397">
        <ele>235.9</ele>
      </trkpt>
      <trkpt lat="46.19266" lon="13.73978">
        <ele>237.6</ele>
      </trkpt>
      <trkpt lat="46.19248" lon="13.73992">
        <ele>240.4</ele>
      </trkpt>
      <trkpt lat="46.19222" lon="13.74009">
        <ele>240.0</ele>
      </trkpt>
      <trkpt lat="46.19204" lon="13.74024">
        <ele>240.3</ele>
      </trkpt>
      <trkpt lat="46.19185" lon="13.7405">
        <ele>242.7</ele>
      </trkpt>
      <trkpt lat="46.19161" lon="13.74078">
        <ele>243.3</ele>
      </trkpt>
      <trkpt lat="46.19165" lon="13.74086">
        <ele>246.0</ele>
      </trkpt>
      <trkpt lat="46.1916" lon="13.74103">
        <ele>247.2</ele>
      </trkpt>
      <trkpt lat="46.19152" lon="13.74139">
        <ele>250.3</ele>
      </trkpt>
      <trkpt lat="46.19152" lon="13.74139">
        <ele>250.3</ele>
      </trkpt>
      <trkpt lat="46.1915" lon="13.7416">
        <ele>252.8</ele>
      </trkpt>
      <trkpt lat="46.1915" lon="13.7417">
        <ele>254.7</ele>
      </trkpt>
      <trkpt lat="46.19153" lon="13.74157">
        <ele>253.2</ele>
      </trkpt>
      <trkpt lat="46.1916" lon="13.74141">
        <ele>252.6</ele>
      </trkpt>
      <trkpt lat="46.19163" lon="13.74136">
        <ele>252.7</ele>
      </trkpt>
      <trkpt lat="46.19166" lon="13.74137">
        <ele>253.6</ele>
      </trkpt>
      <trkpt lat="46.19169" lon="13.74145">
        <ele>255.6</ele>
      </trkpt>
      <trkpt lat="46.19169" lon="13.74148">
        <ele>256.0</ele>
      </trkpt>
      <trkpt lat="46.19169" lon="13.74148">
        <ele>256.0</ele>
      </trkpt>
      <trkpt lat="46.1917" lon="13.74166">
        <ele>258.9</ele>
      </trkpt>
      <trkpt lat="46.19172" lon="13.74176">
        <ele>261.9</ele>
      </trkpt>
      <trkpt lat="46.19175" lon="13.7418">
        <ele>263.8</ele>
      </trkpt>
      <trkpt lat="46.19177" lon="13.74187">
        <ele>266.1</ele>
      </trkpt>
      <trkpt lat="46.19175" lon="13.7421">
        <ele>271.4</ele>
      </trkpt>
      <trkpt lat="46.19182" lon="13.74209">
        <ele>273.2</ele>
      </trkpt>
      <trkpt lat="46.19188" lon="13.74204">
        <ele>273.7</ele>
      </trkpt>
      <trkpt lat="46.19188" lon="13.74204">
        <ele>273.7</ele>
      </trkpt>
      <trkpt lat="46.19197" lon="13.74194">
        <ele>273.7</ele>
      </trkpt>
      <trkpt lat="46.19206" lon="13.74175">
        <ele>271.5</ele>
      </trkpt>
      <trkpt lat="46.19203" lon="13.74195">
        <ele>275.8</ele>
      </trkpt>
      <trkpt lat="46.19194" lon="13.74219">
        <ele>279.3</ele>
      </trkpt>
      <trkpt lat="46.19182" lon="13.74233">
        <ele>279.3</ele>
      </trkpt>
      <trkpt lat="46.19175" lon="13.7424">
        <ele>279.0</ele>
      </trkpt>
      <trkpt lat="46.19165" lon="13.74251">
        <ele>279.0</ele>
      </trkpt>
      <trkpt lat="46.19151" lon="13.74269">
        <ele>282.3</ele>
      </trkpt>
      <trkpt lat="46.19134" lon="13.74281">
        <ele>282.5</ele>
      </trkpt>
      <trkpt lat="46.19119" lon="13.74293">
        <ele>283.0</ele>
      </trkpt>
      <trkpt lat="46.19103" lon="13.74299">
        <ele>281.1</ele>
      </trkpt>
      <trkpt lat="46.19086" lon="13.74309">
        <ele>280.1</ele>
      </trkpt>
      <trkpt lat="46.19086" lon="13.74309">
        <ele>280.1</ele>
      </trkpt>
      <trkpt lat="46.19062" lon="13.7432">
        <ele>278.7</ele>
      </trkpt>
      <trkpt lat="46.19046" lon="13.7432">
        <ele>275.7</ele>
      </trkpt>
      <trkpt lat="46.19018" lon="13.74319">
        <ele>270.0</ele>
      </trkpt>
      <trkpt lat="46.19005" lon="13.74321">
        <ele>268.1</ele>
      </trkpt>
      <trkpt lat="46.19007" lon="13.74357">
        <ele>276.0</ele>
      </trkpt>
      <trkpt lat="46.19006" lon="13.74373">
        <ele>278.2</ele>
      </trkpt>
      <trkpt lat="46.19001" lon="13.74393">
        <ele>279.9</ele>
      </trkpt>
      <trkpt lat="46.18977" lon="13.74444">
        <ele>285.5</ele>
      </trkpt>
      <trkpt lat="46.18946" lon="13.74476">
        <ele>285.0</ele>
      </trkpt>
      <trkpt lat="46.18914" lon="13.74507">
        <ele>282.3</ele>
      </trkpt>
      <trkpt lat="46.18903" lon="13.74508">
        <ele>280.9</ele>
      </trkpt>
      <trkpt lat="46.18891" lon="13.74497">
        <ele>277.3</ele>
      </trkpt>
      <trkpt lat="46.18882" lon="13.74482">
        <ele>274.6</ele>
      </trkpt>
      <trkpt lat="46.18875" lon="13.74472">
        <ele>272.8</ele>
      </trkpt>
      <trkpt lat="46.1887" lon="13.74498">
        <ele>274.7</ele>
      </trkpt>
      <trkpt lat="46.18865" lon="13.74516">
        <ele>276.7</ele>
      </trkpt>
      <trkpt lat="46.18859" lon="13.74528">
        <ele>277.6</ele>
      </trkpt>
      <trkpt lat="46.1885" lon="13.74539">
        <ele>277.4</ele>
      </trkpt>
      <trkpt lat="46.1881" lon="13.74594">
        <ele>279.2</ele>
      </trkpt>
      <trkpt lat="46.18804" lon="13.74604">
        <ele>280.5</ele>
      </trkpt>
      <trkpt lat="46.18792" lon="13.74627">
        <ele>283.9</ele>
      </trkpt>
      <trkpt lat="46.18779" lon="13.74643">
        <ele>286.0</ele>
      </trkpt>
      <trkpt lat="46.18769" lon="13.74656">
        <ele>287.9</ele>
      </trkpt>
      <trkpt lat="46.18764" lon="13.74664">
        <ele>289.2</ele>
      </trkpt>
      <trkpt lat="46.18757" lon="13.74701">
        <ele>296.0</ele>
      </trkpt>
      <trkpt lat="46.18752" lon="13.74711">
        <ele>297.6</ele>
      </trkpt>
      <trkpt lat="46.18748" lon="13.74714">
        <ele>297.9</ele>
      </trkpt>
      <trkpt lat="46.18748" lon="13.74714">
        <ele>297.9</ele>
      </trkpt>
      <trkpt lat="46.18742" lon="13.74716">
        <ele>297.6</ele>
      </trkpt>
      <trkpt lat="46.18742" lon="13.74716">
        <ele>297.6</ele>
      </trkpt>
      <trkpt lat="46.18742" lon="13.74716">
        <ele>297.6</ele>
      </trkpt>
      <trkpt lat="46.18734" lon="13.74719">
        <ele>297.3</ele>
      </trkpt>
      <trkpt lat="46.18714" lon="13.74723">
        <ele>295.9</ele>
      </trkpt>
      <trkpt lat="46.18696" lon="13.74737">
        <ele>296.3</ele>
      </trkpt>
      <trkpt lat="46.18681" lon="13.74745">
        <ele>295.9</ele>
      </trkpt>
      <trkpt lat="46.18671" lon="13.74748">
        <ele>295.2</ele>
      </trkpt>
      <trkpt lat="46.1865" lon="13.74748">
        <ele>293.7</ele>
      </trkpt>
      <trkpt lat="46.18631" lon="13.7475">
        <ele>292.9</ele>
      </trkpt>
      <trkpt lat="46.18606" lon="13.74759">
        <ele>292.0</ele>
      </trkpt>
      <trkpt lat="46.18572" lon="13.74786">
        <ele>290.6</ele>
      </trkpt>
      <trkpt lat="46.18566" lon="13.74788">
        <ele>289.7</ele>
      </trkpt>
      <trkpt lat="46.18539" lon="13.74811">
        <ele>286.6</ele>
      </trkpt>
      <trkpt lat="46.18536" lon="13.74824">
        <ele>286.9</ele>
      </trkpt>
      <trkpt lat="46.18536" lon="13.74831">
        <ele>287.3</ele>
      </trkpt>
      <trkpt lat="46.18537" lon="13.74849">
        <ele>288.7</ele>
      </trkpt>
      <trkpt lat="46.18538" lon="13.74867">
        <ele>290.2</ele>
      </trkpt>
      <trkpt lat="46.18535" lon="13.74877">
        <ele>290.2</ele>
      </trkpt>
      <trkpt lat="46.18529" lon="13.74891">
        <ele>289.7</ele>
      </trkpt>
      <trkpt lat="46.18528" lon="13.749">
        <ele>290.1</ele>
      </trkpt>
      <trkpt lat="46.18527" lon="13.74911">
        <ele>290.5</ele>
      </trkpt>
      <trkpt lat="46.18527" lon="13.74911">
        <ele>290.5</ele>
      </trkpt>
      <trkpt lat="46.18527" lon="13.74933">
        <ele>290.7</ele>
      </trkpt>
      <trkpt lat="46.18518" lon="13.74966">
        <ele>287.7</ele>
      </trkpt>
      <trkpt lat="46.18513" lon="13.75005">
        <ele>285.3</ele>
      </trkpt>
      <trkpt lat="46.18514" lon="13.75018">
        <ele>285.4</ele>
      </trkpt>
      <trkpt lat="46.18519" lon="13.75041">
        <ele>286.7</ele>
      </trkpt>
      <trkpt lat="46.18521" lon="13.75122">
        <ele>287.9</ele>
      </trkpt>
      <trkpt lat="46.18517" lon="13.75134">
        <ele>286.7</ele>
      </trkpt>
      <trkpt lat="46.18508" lon="13.75139">
        <ele>283.4</ele>
      </trkpt>
      <trkpt lat="46.1849" lon="13.75143">
        <ele>277.2</ele>
      </trkpt>
      <trkpt lat="46.18476" lon="13.7515">
        <ele>273.0</ele>
      </trkpt>
      <trkpt lat="46.18469" lon="13.75157">
        <ele>271.0</ele>
      </trkpt>
      <trkpt lat="46.18458" lon="13.75174">
        <ele>268.9</ele>
      </trkpt>
      <trkpt lat="46.18452" lon="13.75194">
        <ele>269.6</ele>
      </trkpt>
      <trkpt lat="46.18443" lon="13.75218">
        <ele>269.5</ele>
      </trkpt>
      <trkpt lat="46.18424" lon="13.75239">
        <ele>264.8</ele>
      </trkpt>
      <trkpt lat="46.18388" lon="13.75284">
        <ele>262.5</ele>
      </trkpt>
      <trkpt lat="46.18374" lon="13.75304">
        <ele>262.7</ele>
      </trkpt>
      <trkpt lat="46.18356" lon="13.75325">
        <ele>262.3</ele>
      </trkpt>
      <trkpt lat="46.18335" lon="13.75339">
        <ele>260.1</ele>
      </trkpt>
      <trkpt lat="46.18306" lon="13.75354">
        <ele>257.2</ele>
      </trkpt>
      <trkpt lat="46.18279" lon="13.75389">
        <ele>256.6</ele>
      </trkpt>
      <trkpt lat="46.18249" lon="13.75436">
        <ele>256.0</ele>
      </trkpt>
      <trkpt lat="46.18228" lon="13.75459">
        <ele>255.4</ele>
      </trkpt>
      <trkpt lat="46.18219" lon="13.75472">
        <ele>255.3</ele>
      </trkpt>
      <trkpt lat="46.18206" lon="13.7548">
        <ele>254.0</ele>
      </trkpt>
      <trkpt lat="46.18197" lon="13.75493">
        <ele>253.6</ele>
      </trkpt>
      <trkpt lat="46.1819" lon="13.75507">
        <ele>253.3</ele>
      </trkpt>
      <trkpt lat="46.18165" lon="13.75512">
        <ele>249.0</ele>
      </trkpt>
      <trkpt lat="46.18153" lon="13.75512">
        <ele>247.0</ele>
      </trkpt>
      <trkpt lat="46.1813" lon="13.75507">
        <ele>243.3</ele>
      </trkpt>
      <trkpt lat="46.1812" lon="13.75494">
        <ele>241.5</ele>
      </trkpt>
      <trkpt lat="46.18112" lon="13.75495">
        <ele>240.3</ele>
      </trkpt>
      <trkpt lat="46.18106" lon="13.75498">
        <ele>239.5</ele>
      </trkpt>
      <trkpt lat="46.18104" lon="13.75502">
        <ele>239.2</ele>
      </trkpt>
      <trkpt lat="46.18096" lon="13.75506">
        <ele>237.8</ele>
      </trkpt>
      <trkpt lat="46.18095" lon="13.75527">
        <ele>237.1</ele>
      </trkpt>
      <trkpt lat="46.18088" lon="13.75559">
        <ele>234.8</ele>
      </trkpt>
      <trkpt lat="46.18085" lon="13.75583">
        <ele>233.4</ele>
      </trkpt>
      <trkpt lat="46.18088" lon="13.75601">
        <ele>234.9</ele>
      </trkpt>
      <trkpt lat="46.181" lon="13.7561">
        <ele>237.4</ele>
      </trkpt>
      <trkpt lat="46.18123" lon="13.75617">
        <ele>241.3</ele>
      </trkpt>
      <trkpt lat="46.18142" lon="13.75626">
        <ele>243.9</ele>
      </trkpt>
      <trkpt lat="46.18148" lon="13.7563">
        <ele>244.6</ele>
      </trkpt>
      <trkpt lat="46.1814" lon="13.75638">
        <ele>243.2</ele>
      </trkpt>
      <trkpt lat="46.1814" lon="13.75638">
        <ele>243.2</ele>
      </trkpt>
      <trkpt lat="46.18085" lon="13.75647">
        <ele>237.0</ele>
      </trkpt>
      <trkpt lat="46.18054" lon="13.7564">
        <ele>237.5</ele>
      </trkpt>
      <trkpt lat="46.18017" lon="13.75611">
        <ele>233.9</ele>
      </trkpt>
      <trkpt lat="46.18006" lon="13.75595">
        <ele>230.6</ele>
      </trkpt>
      <trkpt lat="46.17998" lon="13.7555">
        <ele>226.2</ele>
      </trkpt>
      <trkpt lat="46.17998" lon="13.75528">
        <ele>224.8</ele>
      </trkpt>
      <trkpt lat="46.17997" lon="13.75518">
        <ele>224.1</ele>
      </trkpt>
      <trkpt lat="46.17994" lon="13.75512">
        <ele>223.7</ele>
      </trkpt>
      <trkpt lat="46.17986" lon="13.75505">
        <ele>222.8</ele>
      </trkpt>
      <trkpt lat="46.17969" lon="13.75469">
        <ele>220.7</ele>
      </trkpt>
      <trkpt lat="46.17957" lon="13.75451">
        <ele>219.1</ele>
      </trkpt>
      <trkpt lat="46.17911" lon="13.75402">
        <ele>213.5</ele>
      </trkpt>
      <trkpt lat="46.17863" lon="13.75359">
        <ele>214.4</ele>
      </trkpt>
      <trkpt lat="46.17844" lon="13.75337">
        <ele>211.7</ele>
      </trkpt>
      <trkpt lat="46.17825" lon="13.753">
        <ele>208.6</ele>
      </trkpt>
      <trkpt lat="46.17808" lon="13.75273">
        <ele>206.5</ele>
      </trkpt>
      <trkpt lat="46.17792" lon="13.75257">
        <ele>204.7</ele>
      </trkpt>
      <trkpt lat="46.17769" lon="13.75213">
        <ele>200.2</ele>
      </trkpt>
      <trkpt lat="46.17744" lon="13.75175">
        <ele>194.7</ele>
      </trkpt>
      <trkpt lat="46.17727" lon="13.75168">
        <ele>192.8</ele>
      </trkpt>
      <trkpt lat="46.17705" lon="13.75175">
        <ele>192.8</ele>
      </trkpt>
      <trkpt lat="46.17684" lon="13.75163">
        <ele>189.9</ele>
      </trkpt>
      <trkpt lat="46.17658" lon="13.75138">
        <ele>187.4</ele>
      </trkpt>
      <trkpt lat="46.17635" lon="13.75106">
        <ele>184.9</ele>
      </trkpt>
      <trkpt lat="46.17608" lon="13.75086">
        <ele>182.2</ele>
      </trkpt>
      <trkpt lat="46.17582" lon="13.75087">
        <ele>181.6</ele>
      </trkpt>
      <trkpt lat="46.17568" lon="13.75074">
        <ele>181.4</ele>
      </trkpt>
      <trkpt lat="46.17549" lon="13.75047">
        <ele>180.8</ele>
      </trkpt>
      <trkpt lat="46.17529" lon="13.75001">
        <ele>177.8</ele>
      </trkpt>
      <trkpt lat="46.17519" lon="13.74986">
        <ele>177.4</ele>
      </trkpt>
      <trkpt lat="46.17508" lon="13.74981">
        <ele>176.8</ele>
      </trkpt>
      <trkpt lat="46.17486" lon="13.74979">
        <ele>176.7</ele>
      </trkpt>
      <trkpt lat="46.17473" lon="13.74966">
        <ele>176.9</ele>
      </trkpt>
      <trkpt lat="46.17461" lon="13.74955">
        <ele>176.9</ele>
      </trkpt>
      <trkpt lat="46.17419" lon="13.74923">
        <ele>175.4</ele>
      </trkpt>
      <trkpt lat="46.1739" lon="13.74903">
        <ele>175.0</ele>
      </trkpt>
      <trkpt lat="46.17336" lon="13.74871">
        <ele>173.0</ele>
      </trkpt>
      <trkpt lat="46.17286" lon="13.74881">
        <ele>170.7</ele>
      </trkpt>
      <trkpt lat="46.17268" lon="13.74888">
        <ele>170.2</ele>
      </trkpt>
      <trkpt lat="46.1725" lon="13.74888">
        <ele>169.3</ele>
      </trkpt>
      <trkpt lat="46.17233" lon="13.74883">
        <ele>168.4</ele>
      </trkpt>
      <trkpt lat="46.17216" lon="13.7487">
        <ele>167.0</ele>
      </trkpt>
      <trkpt lat="46.17195" lon="13.74851">
        <ele>165.1</ele>
      </trkpt>
      <trkpt lat="46.17176" lon="13.74812">
        <ele>163.1</ele>
      </trkpt>
      <trkpt lat="46.17156" lon="13.74794">
        <ele>161.7</ele>
      </trkpt>
      <trkpt lat="46.17105" lon="13.74765">
        <ele>157.6</ele>
      </trkpt>
      <trkpt lat="46.17091" lon="13.74751">
        <ele>156.6</ele>
      </trkpt>
      <trkpt lat="46.17069" lon="13.74763">
        <ele>156.2</ele>
      </trkpt>
      <trkpt lat="46.17041" lon="13.74784">
        <ele>156.9</ele>
      </trkpt>
      <trkpt lat="46.17033" lon="13.74786">
        <ele>157.1</ele>
      </trkpt>
      <trkpt lat="46.17027" lon="13.74786">
        <ele>157.3</ele>
      </trkpt>
      <trkpt lat="46.17027" lon="13.74779">
        <ele>157.1</ele>
      </trkpt>
      <trkpt lat="46.17027" lon="13.74779">
        <ele>157.1</ele>
      </trkpt>
      <trkpt lat="46.17031" lon="13.74736">
        <ele>157.0</ele>
      </trkpt>
      <trkpt lat="46.17046" lon="13.74656">
        <ele>159.8</ele>
      </trkpt>
      <trkpt lat="46.1706" lon="13.74576">
        <ele>167.0</ele>
      </trkpt>
      <trkpt lat="46.17083" lon="13.74537">
        <ele>162.4</ele>
      </trkpt>
      <trkpt lat="46.17097" lon="13.74519">
        <ele>163.0</ele>
      </trkpt>
      <trkpt lat="46.17132" lon="13.74479">
        <ele>165.2</ele>
      </trkpt>
      <trkpt lat="46.17151" lon="13.74465">
        <ele>164.6</ele>
      </trkpt>
      <trkpt lat="46.17184" lon="13.74428">
        <ele>164.2</ele>
      </trkpt>
      <trkpt lat="46.17224" lon="13.74383">
        <ele>165.9</ele>
      </trkpt>
      <trkpt lat="46.17252" lon="13.74345">
        <ele>161.8</ele>
      </trkpt>
      <trkpt lat="46.17302" lon="13.74253">
        <ele>163.5</ele>
      </trkpt>
      <trkpt lat="46.17316" lon="13.74203">
        <ele>162.4</ele>
      </trkpt>
      <trkpt lat="46.17325" lon="13.74184">
        <ele>160.9</ele>
      </trkpt>
      <trkpt lat="46.17328" lon="13.74181">
        <ele>160.4</ele>
      </trkpt>
      <trkpt lat="46.17331" lon="13.74182">
        <ele>159.9</ele>
      </trkpt>
      <trkpt lat="46.17333" lon="13.74155">
        <ele>158.7</ele>
      </trkpt>
      <trkpt lat="46.17341" lon="13.74128">
        <ele>158.0</ele>
      </trkpt>
      <trkpt lat="46.17345" lon="13.74101">
        <ele>157.3</ele>
      </trkpt>
      <trkpt lat="46.173529" lon="13.740861">
        <ele>157.3</ele>
      </trkpt>
      <trkpt lat="46.173627" lon="13.740658">
        <ele>158.6</ele>
      </trkpt>
      <trkpt lat="46.173788" lon="13.740358">
        <ele>161.0</ele>
      </trkpt>
    </trkseg>
  </trk>
</gpx>
