<?xml version="1.0" encoding="UTF-8"?>
<gpx creator="https://gpx.studio" version="1.1" xmlns="http://www.topografix.com/GPX/1/1" xmlns:xsi="http://www.w3.org/2001/XMLSchema-instance" xsi:schemaLocation="http://www.topografix.com/GPX/1/1 http://www.topografix.com/GPX/1/1/gpx.xsd http://www.garmin.com/xmlschemas/GpxExtensions/v3 http://www.garmin.com/xmlschemas/GpxExtensionsv3.xsd http://www.garmin.com/xmlschemas/TrackPointExtension/v1 http://www.garmin.com/xmlschemas/TrackPointExtensionv1.xsd http://www.garmin.com/xmlschemas/PowerExtension/v1 http://www.garmin.com/xmlschemas/PowerExtensionv1.xsd http://www.topografix.com/GPX/gpx_style/0/2 http://www.topografix.com/GPX/gpx_style/0/2/gpx_style.xsd" xmlns:gpxtpx="http://www.garmin.com/xmlschemas/TrackPointExtension/v1" xmlns:gpxx="http://www.garmin.com/xmlschemas/GpxExtensions/v3" xmlns:gpxpx="http://www.garmin.com/xmlschemas/PowerExtension/v1" xmlns:gpx_style="http://www.topografix.com/GPX/gpx_style/0/2">
  <metadata>
    <name>New file 1</name>
    <author>
      <name>gpx.studio</name>
      <link href="https://gpx.studio"/>
    </author>
  </metadata>
  <trk>
    <name>New file 1</name>
    <trkseg>
      <trkpt lat="45.901591" lon="13.880492">
        <ele>163.05</ele>
      </trkpt>
      <trkpt lat="45.90163" lon="13.880515">
        <ele>163.09</ele>
      </trkpt>
      <trkpt lat="45.901866" lon="13.880934">
        <ele>163.98</ele>
      </trkpt>
      <trkpt lat="45.902005" lon="13.881143">
        <ele>164.26</ele>
      </trkpt>
      <trkpt lat="45.902351" lon="13.881609">
        <ele>164.7</ele>
      </trkpt>
      <trkpt lat="45.902353" lon="13.881611">
        <ele>164.7</ele>
      </trkpt>
      <trkpt lat="45.902783" lon="13.881224">
        <ele>166.72</ele>
      </trkpt>
      <trkpt lat="45.903077" lon="13.881046">
        <ele>168.18</ele>
      </trkpt>
      <trkpt lat="45.903344" lon="13.880874">
        <ele>170.4</ele>
      </trkpt>
      <trkpt lat="45.90351" lon="13.880674">
        <ele>171.8</ele>
      </trkpt>
      <trkpt lat="45.903698" lon="13.880567">
        <ele>172.37</ele>
      </trkpt>
      <trkpt lat="45.903882" lon="13.880458">
        <ele>173.91</ele>
      </trkpt>
      <trkpt lat="45.903972" lon="13.880361">
        <ele>174.63</ele>
      </trkpt>
      <trkpt lat="45.904006" lon="13.880283">
        <ele>174.94</ele>
      </trkpt>
      <trkpt lat="45.904007" lon="13.880141">
        <ele>174.95</ele>
      </trkpt>
      <trkpt lat="45.904027" lon="13.880104">
        <ele>175.12</ele>
      </trkpt>
      <trkpt lat="45.904075" lon="13.880051">
        <ele>175.56</ele>
      </trkpt>
      <trkpt lat="45.904075" lon="13.880051">
        <ele>175.56</ele>
      </trkpt>
      <trkpt lat="45.904126" lon="13.879995">
        <ele>176.03</ele>
      </trkpt>
      <trkpt lat="45.904285" lon="13.880214">
        <ele>178.05</ele>
      </trkpt>
      <trkpt lat="45.904326" lon="13.880257">
        <ele>177.92</ele>
      </trkpt>
      <trkpt lat="45.904365" lon="13.880276">
        <ele>177.89</ele>
      </trkpt>
      <trkpt lat="45.904477" lon="13.880236">
        <ele>178.65</ele>
      </trkpt>
      <trkpt lat="45.904562" lon="13.880231">
        <ele>179.14</ele>
      </trkpt>
      <trkpt lat="45.904612" lon="13.880215">
        <ele>179.63</ele>
      </trkpt>
      <trkpt lat="45.904765" lon="13.880115">
        <ele>181.28</ele>
      </trkpt>
      <trkpt lat="45.904798" lon="13.880119">
        <ele>181.56</ele>
      </trkpt>
      <trkpt lat="45.904832" lon="13.880156">
        <ele>181.84</ele>
      </trkpt>
      <trkpt lat="45.904859" lon="13.880161">
        <ele>182.14</ele>
      </trkpt>
      <trkpt lat="45.904891" lon="13.880143">
        <ele>182.67</ele>
      </trkpt>
      <trkpt lat="45.904908" lon="13.880093">
        <ele>182.95</ele>
      </trkpt>
      <trkpt lat="45.90494" lon="13.880087">
        <ele>183.49</ele>
      </trkpt>
      <trkpt lat="45.904976" lon="13.880098">
        <ele>184.06</ele>
      </trkpt>
      <trkpt lat="45.90502" lon="13.880081">
        <ele>184.73</ele>
      </trkpt>
      <trkpt lat="45.905086" lon="13.880041">
        <ele>186.37</ele>
      </trkpt>
      <trkpt lat="45.905141" lon="13.879973">
        <ele>187.29</ele>
      </trkpt>
      <trkpt lat="45.905449" lon="13.8795">
        <ele>197.8</ele>
      </trkpt>
      <trkpt lat="45.905544" lon="13.879384">
        <ele>199.61</ele>
      </trkpt>
      <trkpt lat="45.905635" lon="13.879311">
        <ele>202.69</ele>
      </trkpt>
      <trkpt lat="45.90586" lon="13.879203">
        <ele>207.85</ele>
      </trkpt>
      <trkpt lat="45.906506" lon="13.87902">
        <ele>223.5</ele>
      </trkpt>
      <trkpt lat="45.906594" lon="13.879028">
        <ele>225.25</ele>
      </trkpt>
      <trkpt lat="45.906674" lon="13.879017">
        <ele>226.97</ele>
      </trkpt>
      <trkpt lat="45.90675" lon="13.878952">
        <ele>229.23</ele>
      </trkpt>
      <trkpt lat="45.906787" lon="13.878879">
        <ele>231.27</ele>
      </trkpt>
      <trkpt lat="45.90687" lon="13.878618">
        <ele>235.29</ele>
      </trkpt>
      <trkpt lat="45.906912" lon="13.878537">
        <ele>237.09</ele>
      </trkpt>
      <trkpt lat="45.906971" lon="13.878478">
        <ele>237.99</ele>
      </trkpt>
      <trkpt lat="45.907047" lon="13.878435">
        <ele>238.51</ele>
      </trkpt>
      <trkpt lat="45.907232" lon="13.878374">
        <ele>239.98</ele>
      </trkpt>
      <trkpt lat="45.907308" lon="13.878334">
        <ele>240.24</ele>
      </trkpt>
      <trkpt lat="45.907407" lon="13.878247">
        <ele>241.36</ele>
      </trkpt>
      <trkpt lat="45.907595" lon="13.878018">
        <ele>245.36</ele>
      </trkpt>
      <trkpt lat="45.907686" lon="13.87795">
        <ele>246.69</ele>
      </trkpt>
      <trkpt lat="45.907904" lon="13.877868">
        <ele>252.2</ele>
      </trkpt>
      <trkpt lat="45.908258" lon="13.877618">
        <ele>260.22</ele>
      </trkpt>
      <trkpt lat="45.908331" lon="13.877528">
        <ele>260.94</ele>
      </trkpt>
      <trkpt lat="45.908376" lon="13.877415">
        <ele>262.68</ele>
      </trkpt>
      <trkpt lat="45.908717" lon="13.876993">
        <ele>274.51</ele>
      </trkpt>
      <trkpt lat="45.908966" lon="13.87656">
        <ele>285.35</ele>
      </trkpt>
      <trkpt lat="45.909333" lon="13.875915">
        <ele>298.16</ele>
      </trkpt>
      <trkpt lat="45.909395" lon="13.875843">
        <ele>300.16</ele>
      </trkpt>
      <trkpt lat="45.909548" lon="13.875801">
        <ele>301.27</ele>
      </trkpt>
      <trkpt lat="45.909677" lon="13.875734">
        <ele>302.83</ele>
      </trkpt>
      <trkpt lat="45.909773" lon="13.875721">
        <ele>303.49</ele>
      </trkpt>
      <trkpt lat="45.909905" lon="13.875705">
        <ele>304.38</ele>
      </trkpt>
      <trkpt lat="45.91004" lon="13.875678">
        <ele>305.49</ele>
      </trkpt>
      <trkpt lat="45.91013" lon="13.875645">
        <ele>306.19</ele>
      </trkpt>
      <trkpt lat="45.91018" lon="13.875642">
        <ele>307.27</ele>
      </trkpt>
      <trkpt lat="45.91024" lon="13.875664">
        <ele>307.79</ele>
      </trkpt>
      <trkpt lat="45.910431" lon="13.875772">
        <ele>312.12</ele>
      </trkpt>
      <trkpt lat="45.91052" lon="13.875789">
        <ele>313.46</ele>
      </trkpt>
      <trkpt lat="45.910587" lon="13.875776">
        <ele>314.85</ele>
      </trkpt>
      <trkpt lat="45.910674" lon="13.875714">
        <ele>318.51</ele>
      </trkpt>
      <trkpt lat="45.910749" lon="13.87569">
        <ele>319.3</ele>
      </trkpt>
      <trkpt lat="45.910825" lon="13.875644">
        <ele>319.67</ele>
      </trkpt>
      <trkpt lat="45.910989" lon="13.875453">
        <ele>322.14</ele>
      </trkpt>
      <trkpt lat="45.911124" lon="13.875462">
        <ele>323.16</ele>
      </trkpt>
      <trkpt lat="45.911209" lon="13.875443">
        <ele>324.87</ele>
      </trkpt>
      <trkpt lat="45.911288" lon="13.875405">
        <ele>326.74</ele>
      </trkpt>
      <trkpt lat="45.911382" lon="13.875306">
        <ele>330.57</ele>
      </trkpt>
      <trkpt lat="45.911534" lon="13.875252">
        <ele>334.31</ele>
      </trkpt>
      <trkpt lat="45.911631" lon="13.875238">
        <ele>335.64</ele>
      </trkpt>
      <trkpt lat="45.911707" lon="13.875171">
        <ele>338.27</ele>
      </trkpt>
      <trkpt lat="45.911837" lon="13.875076">
        <ele>343.09</ele>
      </trkpt>
      <trkpt lat="45.911866" lon="13.875064">
        <ele>343.94</ele>
      </trkpt>
      <trkpt lat="45.911866" lon="13.875064">
        <ele>343.94</ele>
      </trkpt>
      <trkpt lat="45.911973" lon="13.875022">
        <ele>347.04</ele>
      </trkpt>
      <trkpt lat="45.912048" lon="13.875011">
        <ele>348.5</ele>
      </trkpt>
      <trkpt lat="45.912107" lon="13.874855">
        <ele>354.76</ele>
      </trkpt>
      <trkpt lat="45.912178" lon="13.874819">
        <ele>356.56</ele>
      </trkpt>
      <trkpt lat="45.912231" lon="13.874792">
        <ele>357.91</ele>
      </trkpt>
      <trkpt lat="45.912291" lon="13.87472">
        <ele>360.18</ele>
      </trkpt>
      <trkpt lat="45.912366" lon="13.874605">
        <ele>363.08</ele>
      </trkpt>
      <trkpt lat="45.912532" lon="13.874299">
        <ele>369.84</ele>
      </trkpt>
      <trkpt lat="45.912719" lon="13.874077">
        <ele>376.37</ele>
      </trkpt>
      <trkpt lat="45.912687" lon="13.873956">
        <ele>378.61</ele>
      </trkpt>
      <trkpt lat="45.912688" lon="13.873885">
        <ele>379.84</ele>
      </trkpt>
      <trkpt lat="45.912701" lon="13.873803">
        <ele>381.33</ele>
      </trkpt>
      <trkpt lat="45.912764" lon="13.873708">
        <ele>383.86</ele>
      </trkpt>
      <trkpt lat="45.912834" lon="13.873412">
        <ele>389.84</ele>
      </trkpt>
      <trkpt lat="45.91283" lon="13.873203">
        <ele>393.78</ele>
      </trkpt>
      <trkpt lat="45.91283" lon="13.873203">
        <ele>393.78</ele>
      </trkpt>
      <trkpt lat="45.912824" lon="13.872927">
        <ele>398.99</ele>
      </trkpt>
      <trkpt lat="45.912828" lon="13.872843">
        <ele>400</ele>
      </trkpt>
      <trkpt lat="45.91285" lon="13.872737">
        <ele>401.42</ele>
      </trkpt>
      <trkpt lat="45.912918" lon="13.87253">
        <ele>405.29</ele>
      </trkpt>
      <trkpt lat="45.913116" lon="13.872082">
        <ele>415.25</ele>
      </trkpt>
      <trkpt lat="45.913152" lon="13.872015">
        <ele>416.34</ele>
      </trkpt>
      <trkpt lat="45.91319" lon="13.871861">
        <ele>417.94</ele>
      </trkpt>
      <trkpt lat="45.913294" lon="13.871628">
        <ele>421.97</ele>
      </trkpt>
      <trkpt lat="45.913349" lon="13.871402">
        <ele>427.11</ele>
      </trkpt>
      <trkpt lat="45.913537" lon="13.870882">
        <ele>436.31</ele>
      </trkpt>
      <trkpt lat="45.91361" lon="13.870714">
        <ele>439.55</ele>
      </trkpt>
      <trkpt lat="45.913666" lon="13.870542">
        <ele>443.5</ele>
      </trkpt>
      <trkpt lat="45.913704" lon="13.870466">
        <ele>445.9</ele>
      </trkpt>
      <trkpt lat="45.913753" lon="13.870412">
        <ele>448</ele>
      </trkpt>
      <trkpt lat="45.913844" lon="13.870073">
        <ele>454.19</ele>
      </trkpt>
      <trkpt lat="45.913881" lon="13.869906">
        <ele>455.97</ele>
      </trkpt>
      <trkpt lat="45.913922" lon="13.869771">
        <ele>457.76</ele>
      </trkpt>
      <trkpt lat="45.913976" lon="13.869476">
        <ele>462.56</ele>
      </trkpt>
      <trkpt lat="45.914" lon="13.869271">
        <ele>465.53</ele>
      </trkpt>
      <trkpt lat="45.914066" lon="13.869001">
        <ele>470.04</ele>
      </trkpt>
      <trkpt lat="45.914102" lon="13.868903">
        <ele>472.21</ele>
      </trkpt>
      <trkpt lat="45.914125" lon="13.868749">
        <ele>474.94</ele>
      </trkpt>
      <trkpt lat="45.91419" lon="13.86872">
        <ele>476.39</ele>
      </trkpt>
      <trkpt lat="45.914238" lon="13.868677">
        <ele>478.06</ele>
      </trkpt>
      <trkpt lat="45.91442" lon="13.868422">
        <ele>485.04</ele>
      </trkpt>
      <trkpt lat="45.914464" lon="13.868331">
        <ele>487.32</ele>
      </trkpt>
      <trkpt lat="45.914527" lon="13.868107">
        <ele>492.53</ele>
      </trkpt>
      <trkpt lat="45.91455" lon="13.867901">
        <ele>497.34</ele>
      </trkpt>
      <trkpt lat="45.914652" lon="13.867374">
        <ele>510.45</ele>
      </trkpt>
      <trkpt lat="45.91475" lon="13.8672">
        <ele>515.52</ele>
      </trkpt>
      <trkpt lat="45.914784" lon="13.867107">
        <ele>518.08</ele>
      </trkpt>
      <trkpt lat="45.914806" lon="13.86696">
        <ele>520.81</ele>
      </trkpt>
      <trkpt lat="45.914878" lon="13.866797">
        <ele>523.61</ele>
      </trkpt>
      <trkpt lat="45.914892" lon="13.866714">
        <ele>524.59</ele>
      </trkpt>
      <trkpt lat="45.914887" lon="13.86662">
        <ele>525.59</ele>
      </trkpt>
      <trkpt lat="45.914898" lon="13.866462">
        <ele>528.25</ele>
      </trkpt>
      <trkpt lat="45.91476" lon="13.866012">
        <ele>532.78</ele>
      </trkpt>
      <trkpt lat="45.914846" lon="13.865903">
        <ele>535.59</ele>
      </trkpt>
      <trkpt lat="45.914921" lon="13.865829">
        <ele>537.87</ele>
      </trkpt>
      <trkpt lat="45.915027" lon="13.865808">
        <ele>541.24</ele>
      </trkpt>
      <trkpt lat="45.915154" lon="13.865829">
        <ele>544.13</ele>
      </trkpt>
      <trkpt lat="45.915392" lon="13.865851">
        <ele>547.77</ele>
      </trkpt>
      <trkpt lat="45.915558" lon="13.865866">
        <ele>550.28</ele>
      </trkpt>
      <trkpt lat="45.915726" lon="13.865906">
        <ele>553.63</ele>
      </trkpt>
      <trkpt lat="45.915908" lon="13.865894">
        <ele>557.01</ele>
      </trkpt>
      <trkpt lat="45.91601" lon="13.865859">
        <ele>559.32</ele>
      </trkpt>
      <trkpt lat="45.916117" lon="13.865765">
        <ele>562.7</ele>
      </trkpt>
      <trkpt lat="45.916166" lon="13.865596">
        <ele>566.89</ele>
      </trkpt>
      <trkpt lat="45.916234" lon="13.86547">
        <ele>569.85</ele>
      </trkpt>
      <trkpt lat="45.916311" lon="13.865394">
        <ele>572.48</ele>
      </trkpt>
      <trkpt lat="45.916472" lon="13.865318">
        <ele>577.11</ele>
      </trkpt>
      <trkpt lat="45.916707" lon="13.865215">
        <ele>581.3</ele>
      </trkpt>
      <trkpt lat="45.91686" lon="13.865214">
        <ele>584.41</ele>
      </trkpt>
      <trkpt lat="45.916991" lon="13.865234">
        <ele>586.23</ele>
      </trkpt>
      <trkpt lat="45.917017" lon="13.865295">
        <ele>586.54</ele>
      </trkpt>
      <trkpt lat="45.917047" lon="13.865364">
        <ele>586.9</ele>
      </trkpt>
      <trkpt lat="45.91709" lon="13.865519">
        <ele>588.36</ele>
      </trkpt>
      <trkpt lat="45.917147" lon="13.865544">
        <ele>590.75</ele>
      </trkpt>
      <trkpt lat="45.91718" lon="13.865575">
        <ele>592.36</ele>
      </trkpt>
      <trkpt lat="45.91721" lon="13.865655">
        <ele>595.53</ele>
      </trkpt>
      <trkpt lat="45.91724" lon="13.865688">
        <ele>597.86</ele>
      </trkpt>
      <trkpt lat="45.91728" lon="13.865757">
        <ele>601.29</ele>
      </trkpt>
      <trkpt lat="45.917326" lon="13.865793">
        <ele>604.23</ele>
      </trkpt>
      <trkpt lat="45.917367" lon="13.865786">
        <ele>606.36</ele>
      </trkpt>
      <trkpt lat="45.917458" lon="13.865739">
        <ele>610.72</ele>
      </trkpt>
      <trkpt lat="45.9176" lon="13.865612">
        <ele>616.71</ele>
      </trkpt>
      <trkpt lat="45.9177" lon="13.865499">
        <ele>620.85</ele>
      </trkpt>
      <trkpt lat="45.917825" lon="13.86533">
        <ele>626</ele>
      </trkpt>
      <trkpt lat="45.917924" lon="13.865239">
        <ele>629.78</ele>
      </trkpt>
      <trkpt lat="45.918004" lon="13.86519">
        <ele>632.82</ele>
      </trkpt>
      <trkpt lat="45.918067" lon="13.865103">
        <ele>634.84</ele>
      </trkpt>
      <trkpt lat="45.918164" lon="13.864905">
        <ele>639.4</ele>
      </trkpt>
      <trkpt lat="45.918324" lon="13.864675">
        <ele>646</ele>
      </trkpt>
      <trkpt lat="45.918374" lon="13.864644">
        <ele>647.69</ele>
      </trkpt>
      <trkpt lat="45.918453" lon="13.86456">
        <ele>650.75</ele>
      </trkpt>
      <trkpt lat="45.918522" lon="13.864523">
        <ele>653.07</ele>
      </trkpt>
      <trkpt lat="45.918647" lon="13.864481">
        <ele>657.9</ele>
      </trkpt>
      <trkpt lat="45.918807" lon="13.864405">
        <ele>665.28</ele>
      </trkpt>
      <trkpt lat="45.918858" lon="13.864358">
        <ele>668.2</ele>
      </trkpt>
      <trkpt lat="45.918903" lon="13.864354">
        <ele>669.7</ele>
      </trkpt>
      <trkpt lat="45.918972" lon="13.864373">
        <ele>671.84</ele>
      </trkpt>
      <trkpt lat="45.919095" lon="13.864288">
        <ele>676.95</ele>
      </trkpt>
      <trkpt lat="45.919166" lon="13.864262">
        <ele>679.61</ele>
      </trkpt>
      <trkpt lat="45.919243" lon="13.864257">
        <ele>682.5</ele>
      </trkpt>
      <trkpt lat="45.919296" lon="13.864234">
        <ele>684.98</ele>
      </trkpt>
      <trkpt lat="45.919344" lon="13.864199">
        <ele>687.3</ele>
      </trkpt>
      <trkpt lat="45.919405" lon="13.864177">
        <ele>689.58</ele>
      </trkpt>
      <trkpt lat="45.919476" lon="13.864123">
        <ele>692.6</ele>
      </trkpt>
      <trkpt lat="45.919515" lon="13.864127">
        <ele>693.84</ele>
      </trkpt>
      <trkpt lat="45.91972" lon="13.864052">
        <ele>701.53</ele>
      </trkpt>
      <trkpt lat="45.919848" lon="13.864069">
        <ele>705.03</ele>
      </trkpt>
      <trkpt lat="45.919976" lon="13.864013">
        <ele>709.59</ele>
      </trkpt>
      <trkpt lat="45.920178" lon="13.863956">
        <ele>717.41</ele>
      </trkpt>
      <trkpt lat="45.920278" lon="13.863958">
        <ele>721.55</ele>
      </trkpt>
      <trkpt lat="45.920482" lon="13.864061">
        <ele>724.63</ele>
      </trkpt>
      <trkpt lat="45.920676" lon="13.864092">
        <ele>727.46</ele>
      </trkpt>
      <trkpt lat="45.920885" lon="13.864043">
        <ele>731.32</ele>
      </trkpt>
      <trkpt lat="45.921034" lon="13.863928">
        <ele>736.37</ele>
      </trkpt>
      <trkpt lat="45.921094" lon="13.863853">
        <ele>739.18</ele>
      </trkpt>
      <trkpt lat="45.921252" lon="13.863777">
        <ele>745.16</ele>
      </trkpt>
      <trkpt lat="45.9213" lon="13.863744">
        <ele>747.71</ele>
      </trkpt>
      <trkpt lat="45.921335" lon="13.863701">
        <ele>750.13</ele>
      </trkpt>
      <trkpt lat="45.921392" lon="13.863573">
        <ele>755.87</ele>
      </trkpt>
      <trkpt lat="45.92146" lon="13.863562">
        <ele>758.65</ele>
      </trkpt>
      <trkpt lat="45.921489" lon="13.86353">
        <ele>760.55</ele>
      </trkpt>
      <trkpt lat="45.921529" lon="13.86346">
        <ele>765.51</ele>
      </trkpt>
      <trkpt lat="45.921659" lon="13.863425">
        <ele>775.99</ele>
      </trkpt>
      <trkpt lat="45.921702" lon="13.863429">
        <ele>778.89</ele>
      </trkpt>
      <trkpt lat="45.921731" lon="13.863467">
        <ele>779.77</ele>
      </trkpt>
      <trkpt lat="45.921784" lon="13.863481">
        <ele>784.8</ele>
      </trkpt>
      <trkpt lat="45.921826" lon="13.863516">
        <ele>788.04</ele>
      </trkpt>
      <trkpt lat="45.921945" lon="13.863518">
        <ele>796.56</ele>
      </trkpt>
      <trkpt lat="45.921972" lon="13.863501">
        <ele>799.05</ele>
      </trkpt>
      <trkpt lat="45.922086" lon="13.863414">
        <ele>804.05</ele>
      </trkpt>
      <trkpt lat="45.922148" lon="13.863422">
        <ele>805.92</ele>
      </trkpt>
      <trkpt lat="45.922222" lon="13.863344">
        <ele>811.11</ele>
      </trkpt>
      <trkpt lat="45.922237" lon="13.863314">
        <ele>812.23</ele>
      </trkpt>
      <trkpt lat="45.922297" lon="13.863196">
        <ele>816.7</ele>
      </trkpt>
      <trkpt lat="45.922396" lon="13.863114">
        <ele>826.07</ele>
      </trkpt>
      <trkpt lat="45.922498" lon="13.862996">
        <ele>841.88</ele>
      </trkpt>
      <trkpt lat="45.922577" lon="13.862915">
        <ele>848.56</ele>
      </trkpt>
      <trkpt lat="45.922706" lon="13.86274">
        <ele>853.87</ele>
      </trkpt>
      <trkpt lat="45.922781" lon="13.86261">
        <ele>856.65</ele>
      </trkpt>
      <trkpt lat="45.922881" lon="13.862589">
        <ele>865.25</ele>
      </trkpt>
      <trkpt lat="45.92303" lon="13.862419">
        <ele>875.15</ele>
      </trkpt>
      <trkpt lat="45.9231" lon="13.862309">
        <ele>881.38</ele>
      </trkpt>
      <trkpt lat="45.923134" lon="13.862192">
        <ele>885.55</ele>
      </trkpt>
      <trkpt lat="45.923234" lon="13.862178">
        <ele>893.15</ele>
      </trkpt>
      <trkpt lat="45.9233" lon="13.862121">
        <ele>898.43</ele>
      </trkpt>
      <trkpt lat="45.923408" lon="13.86195">
        <ele>907.61</ele>
      </trkpt>
      <trkpt lat="45.92349" lon="13.861898">
        <ele>913.72</ele>
      </trkpt>
      <trkpt lat="45.923603" lon="13.861749">
        <ele>923.03</ele>
      </trkpt>
      <trkpt lat="45.92374" lon="13.861679">
        <ele>933.3</ele>
      </trkpt>
      <trkpt lat="45.923781" lon="13.861607">
        <ele>936.55</ele>
      </trkpt>
      <trkpt lat="45.923894" lon="13.861613">
        <ele>944.2</ele>
      </trkpt>
      <trkpt lat="45.923991" lon="13.861469">
        <ele>951.58</ele>
      </trkpt>
      <trkpt lat="45.924062" lon="13.861389">
        <ele>957.1</ele>
      </trkpt>
      <trkpt lat="45.924165" lon="13.861396">
        <ele>965.13</ele>
      </trkpt>
      <trkpt lat="45.924216" lon="13.861361">
        <ele>969.34</ele>
      </trkpt>
      <trkpt lat="45.924295" lon="13.861238">
        <ele>976.22</ele>
      </trkpt>
      <trkpt lat="45.924335" lon="13.861252">
        <ele>979.34</ele>
      </trkpt>
      <trkpt lat="45.924481" lon="13.861458">
        <ele>989.35</ele>
      </trkpt>
      <trkpt lat="45.924521" lon="13.861493">
        <ele>991.61</ele>
      </trkpt>
      <trkpt lat="45.924585" lon="13.861531">
        <ele>994.8</ele>
      </trkpt>
      <trkpt lat="45.924604" lon="13.861529">
        <ele>995.85</ele>
      </trkpt>
      <trkpt lat="45.924605" lon="13.861501">
        <ele>996.44</ele>
      </trkpt>
      <trkpt lat="45.92465" lon="13.861516">
        <ele>999.01</ele>
      </trkpt>
      <trkpt lat="45.924672" lon="13.861512">
        <ele>1000.5</ele>
      </trkpt>
      <trkpt lat="45.924725" lon="13.861512">
        <ele>1003.45</ele>
      </trkpt>
      <trkpt lat="45.924769" lon="13.861467">
        <ele>1006.08</ele>
      </trkpt>
      <trkpt lat="45.924797" lon="13.861367">
        <ele>1010.7</ele>
      </trkpt>
      <trkpt lat="45.92483" lon="13.861288">
        <ele>1015.63</ele>
      </trkpt>
      <trkpt lat="45.924857" lon="13.861146">
        <ele>1019.35</ele>
      </trkpt>
      <trkpt lat="45.924902" lon="13.861063">
        <ele>1022.56</ele>
      </trkpt>
      <trkpt lat="45.924905" lon="13.861041">
        <ele>1023.42</ele>
      </trkpt>
      <trkpt lat="45.924916" lon="13.860933">
        <ele>1027.66</ele>
      </trkpt>
      <trkpt lat="45.924921" lon="13.860637">
        <ele>1034.68</ele>
      </trkpt>
      <trkpt lat="45.924943" lon="13.860529">
        <ele>1038.71</ele>
      </trkpt>
      <trkpt lat="45.924979" lon="13.860445">
        <ele>1042.99</ele>
      </trkpt>
      <trkpt lat="45.924984" lon="13.860387">
        <ele>1044.37</ele>
      </trkpt>
      <trkpt lat="45.925005" lon="13.860316">
        <ele>1047.43</ele>
      </trkpt>
      <trkpt lat="45.925004" lon="13.860236">
        <ele>1049.24</ele>
      </trkpt>
      <trkpt lat="45.925026" lon="13.860159">
        <ele>1052.23</ele>
      </trkpt>
      <trkpt lat="45.925023" lon="13.860112">
        <ele>1052.95</ele>
      </trkpt>
      <trkpt lat="45.925056" lon="13.85998">
        <ele>1057.43</ele>
      </trkpt>
      <trkpt lat="45.9251" lon="13.859937">
        <ele>1060.69</ele>
      </trkpt>
      <trkpt lat="45.92511" lon="13.859864">
        <ele>1062.87</ele>
      </trkpt>
      <trkpt lat="45.925127" lon="13.859833">
        <ele>1064.74</ele>
      </trkpt>
      <trkpt lat="45.925144" lon="13.859774">
        <ele>1067.16</ele>
      </trkpt>
      <trkpt lat="45.925146" lon="13.859717">
        <ele>1068.75</ele>
      </trkpt>
      <trkpt lat="45.925161" lon="13.859638">
        <ele>1071.23</ele>
      </trkpt>
      <trkpt lat="45.925209" lon="13.85961">
        <ele>1073.04</ele>
      </trkpt>
      <trkpt lat="45.925251" lon="13.859542">
        <ele>1075.45</ele>
      </trkpt>
      <trkpt lat="45.925256" lon="13.859518">
        <ele>1075.86</ele>
      </trkpt>
      <trkpt lat="45.925241" lon="13.859423">
        <ele>1076.58</ele>
      </trkpt>
      <trkpt lat="45.925263" lon="13.859362">
        <ele>1077.85</ele>
      </trkpt>
      <trkpt lat="45.925263" lon="13.859289">
        <ele>1078.75</ele>
      </trkpt>
      <trkpt lat="45.925405" lon="13.859074">
        <ele>1086.72</ele>
      </trkpt>
      <trkpt lat="45.925429" lon="13.859068">
        <ele>1087.85</ele>
      </trkpt>
      <trkpt lat="45.925458" lon="13.859039">
        <ele>1089.35</ele>
      </trkpt>
      <trkpt lat="45.925492" lon="13.859027">
        <ele>1090.48</ele>
      </trkpt>
      <trkpt lat="45.925511" lon="13.859006">
        <ele>1091.23</ele>
      </trkpt>
      <trkpt lat="45.925571" lon="13.858999">
        <ele>1092.34</ele>
      </trkpt>
      <trkpt lat="45.925592" lon="13.85898">
        <ele>1092.5</ele>
      </trkpt>
      <trkpt lat="45.925636" lon="13.858876">
        <ele>1093.94</ele>
      </trkpt>
      <trkpt lat="45.925661" lon="13.858778">
        <ele>1095.22</ele>
      </trkpt>
      <trkpt lat="45.925699" lon="13.858756">
        <ele>1095.89</ele>
      </trkpt>
      <trkpt lat="45.925712" lon="13.858708">
        <ele>1097.09</ele>
      </trkpt>
      <trkpt lat="45.92575" lon="13.858669">
        <ele>1098.38</ele>
      </trkpt>
      <trkpt lat="45.925867" lon="13.858569">
        <ele>1101.57</ele>
      </trkpt>
      <trkpt lat="45.92588" lon="13.85853">
        <ele>1102.74</ele>
      </trkpt>
      <trkpt lat="45.925882" lon="13.858475">
        <ele>1103.3</ele>
      </trkpt>
      <trkpt lat="45.925936" lon="13.858418">
        <ele>1105.39</ele>
      </trkpt>
      <trkpt lat="45.925977" lon="13.858407">
        <ele>1107.01</ele>
      </trkpt>
      <trkpt lat="45.926059" lon="13.85842">
        <ele>1109.36</ele>
      </trkpt>
      <trkpt lat="45.926104" lon="13.858388">
        <ele>1111.68</ele>
      </trkpt>
      <trkpt lat="45.926284" lon="13.858369">
        <ele>1116.26</ele>
      </trkpt>
      <trkpt lat="45.92646" lon="13.858227">
        <ele>1125.25</ele>
      </trkpt>
      <trkpt lat="45.926505" lon="13.858171">
        <ele>1127.8</ele>
      </trkpt>
      <trkpt lat="45.926559" lon="13.858131">
        <ele>1131.37</ele>
      </trkpt>
      <trkpt lat="45.926653" lon="13.858007">
        <ele>1137.23</ele>
      </trkpt>
      <trkpt lat="45.926732" lon="13.85802">
        <ele>1141.6</ele>
      </trkpt>
      <trkpt lat="45.92681" lon="13.858055">
        <ele>1143.68</ele>
      </trkpt>
      <trkpt lat="45.926825" lon="13.858039">
        <ele>1144.31</ele>
      </trkpt>
      <trkpt lat="45.926856" lon="13.857939">
        <ele>1146.63</ele>
      </trkpt>
      <trkpt lat="45.926923" lon="13.857787">
        <ele>1150.78</ele>
      </trkpt>
      <trkpt lat="45.926921" lon="13.857741">
        <ele>1151.28</ele>
      </trkpt>
      <trkpt lat="45.92694" lon="13.857577">
        <ele>1153.66</ele>
      </trkpt>
      <trkpt lat="45.926976" lon="13.857432">
        <ele>1155.97</ele>
      </trkpt>
      <trkpt lat="45.926982" lon="13.857358">
        <ele>1156.54</ele>
      </trkpt>
      <trkpt lat="45.927012" lon="13.857175">
        <ele>1158.52</ele>
      </trkpt>
      <trkpt lat="45.927012" lon="13.856901">
        <ele>1161.39</ele>
      </trkpt>
      <trkpt lat="45.927048" lon="13.856612">
        <ele>1167.1</ele>
      </trkpt>
      <trkpt lat="45.927072" lon="13.856522">
        <ele>1168.93</ele>
      </trkpt>
      <trkpt lat="45.927075" lon="13.856365">
        <ele>1171.75</ele>
      </trkpt>
      <trkpt lat="45.9271" lon="13.856258">
        <ele>1174.22</ele>
      </trkpt>
      <trkpt lat="45.927118" lon="13.856217">
        <ele>1175.54</ele>
      </trkpt>
      <trkpt lat="45.927131" lon="13.85608">
        <ele>1178.22</ele>
      </trkpt>
      <trkpt lat="45.927158" lon="13.855952">
        <ele>1178.78</ele>
      </trkpt>
      <trkpt lat="45.927302" lon="13.855757">
        <ele>1182.64</ele>
      </trkpt>
      <trkpt lat="45.927339" lon="13.855695">
        <ele>1183.6</ele>
      </trkpt>
      <trkpt lat="45.927485" lon="13.855532">
        <ele>1186.27</ele>
      </trkpt>
      <trkpt lat="45.927535" lon="13.855452">
        <ele>1187.86</ele>
      </trkpt>
      <trkpt lat="45.927595" lon="13.855392">
        <ele>1190.02</ele>
      </trkpt>
      <trkpt lat="45.927636" lon="13.855327">
        <ele>1191.15</ele>
      </trkpt>
      <trkpt lat="45.927696" lon="13.855267">
        <ele>1193.71</ele>
      </trkpt>
      <trkpt lat="45.927827" lon="13.854956">
        <ele>1198.72</ele>
      </trkpt>
      <trkpt lat="45.927882" lon="13.854802">
        <ele>1201.32</ele>
      </trkpt>
      <trkpt lat="45.927882" lon="13.854802">
        <ele>1201.32</ele>
      </trkpt>
      <trkpt lat="45.927928" lon="13.854671">
        <ele>1203.51</ele>
      </trkpt>
      <trkpt lat="45.927961" lon="13.854641">
        <ele>1205.28</ele>
      </trkpt>
      <trkpt lat="45.927994" lon="13.85459">
        <ele>1206.64</ele>
      </trkpt>
      <trkpt lat="45.928042" lon="13.854556">
        <ele>1208.84</ele>
      </trkpt>
      <trkpt lat="45.9281" lon="13.854488">
        <ele>1211.38</ele>
      </trkpt>
      <trkpt lat="45.928248" lon="13.854236">
        <ele>1217.13</ele>
      </trkpt>
      <trkpt lat="45.928387" lon="13.854076">
        <ele>1222.02</ele>
      </trkpt>
      <trkpt lat="45.928493" lon="13.853894">
        <ele>1224.63</ele>
      </trkpt>
      <trkpt lat="45.928634" lon="13.853766">
        <ele>1227.5</ele>
      </trkpt>
      <trkpt lat="45.928737" lon="13.853612">
        <ele>1229.55</ele>
      </trkpt>
      <trkpt lat="45.928801" lon="13.853476">
        <ele>1230.74</ele>
      </trkpt>
      <trkpt lat="45.92888" lon="13.853246">
        <ele>1234.19</ele>
      </trkpt>
      <trkpt lat="45.928891" lon="13.85311">
        <ele>1234.61</ele>
      </trkpt>
      <trkpt lat="45.928918" lon="13.852958">
        <ele>1234.88</ele>
      </trkpt>
      <trkpt lat="45.92892" lon="13.852681">
        <ele>1233.39</ele>
      </trkpt>
      <trkpt lat="45.92886" lon="13.852472">
        <ele>1232.49</ele>
      </trkpt>
      <trkpt lat="45.928802" lon="13.852252">
        <ele>1229.6</ele>
      </trkpt>
      <trkpt lat="45.928804" lon="13.852061">
        <ele>1228.35</ele>
      </trkpt>
      <trkpt lat="45.928772" lon="13.85196">
        <ele>1227.66</ele>
      </trkpt>
      <trkpt lat="45.928707" lon="13.851822">
        <ele>1226.65</ele>
      </trkpt>
      <trkpt lat="45.928583" lon="13.851772">
        <ele>1227.25</ele>
      </trkpt>
      <trkpt lat="45.928429" lon="13.851692">
        <ele>1224.48</ele>
      </trkpt>
      <trkpt lat="45.928361" lon="13.851592">
        <ele>1223.14</ele>
      </trkpt>
      <trkpt lat="45.928305" lon="13.851397">
        <ele>1222.01</ele>
      </trkpt>
      <trkpt lat="45.928345" lon="13.85103">
        <ele>1220.68</ele>
      </trkpt>
      <trkpt lat="45.928337" lon="13.850894">
        <ele>1220.62</ele>
      </trkpt>
      <trkpt lat="45.928259" lon="13.850344">
        <ele>1218.5</ele>
      </trkpt>
      <trkpt lat="45.928202" lon="13.850083">
        <ele>1217.58</ele>
      </trkpt>
      <trkpt lat="45.928209" lon="13.849918">
        <ele>1216.84</ele>
      </trkpt>
      <trkpt lat="45.928215" lon="13.849186">
        <ele>1210.06</ele>
      </trkpt>
      <trkpt lat="45.928199" lon="13.848751">
        <ele>1206.07</ele>
      </trkpt>
      <trkpt lat="45.928184" lon="13.84796">
        <ele>1203.32</ele>
      </trkpt>
      <trkpt lat="45.928087" lon="13.847829">
        <ele>1201.83</ele>
      </trkpt>
      <trkpt lat="45.927949" lon="13.84771">
        <ele>1201.26</ele>
      </trkpt>
      <trkpt lat="45.927769" lon="13.847519">
        <ele>1199.82</ele>
      </trkpt>
      <trkpt lat="45.927722" lon="13.847449">
        <ele>1198.99</ele>
      </trkpt>
      <trkpt lat="45.927681" lon="13.847306">
        <ele>1196.71</ele>
      </trkpt>
      <trkpt lat="45.927707" lon="13.847079">
        <ele>1193.17</ele>
      </trkpt>
      <trkpt lat="45.927757" lon="13.846749">
        <ele>1188.52</ele>
      </trkpt>
      <trkpt lat="45.927828" lon="13.846386">
        <ele>1183.6</ele>
      </trkpt>
      <trkpt lat="45.927941" lon="13.845981">
        <ele>1179.36</ele>
      </trkpt>
      <trkpt lat="45.927906" lon="13.845763">
        <ele>1177.67</ele>
      </trkpt>
      <trkpt lat="45.927825" lon="13.845637">
        <ele>1176.99</ele>
      </trkpt>
      <trkpt lat="45.927717" lon="13.8456">
        <ele>1174.27</ele>
      </trkpt>
      <trkpt lat="45.927641" lon="13.845521">
        <ele>1172.66</ele>
      </trkpt>
      <trkpt lat="45.927649" lon="13.845437">
        <ele>1172.98</ele>
      </trkpt>
      <trkpt lat="45.927844" lon="13.845123">
        <ele>1168.07</ele>
      </trkpt>
      <trkpt lat="45.927908" lon="13.844995">
        <ele>1166.55</ele>
      </trkpt>
      <trkpt lat="45.927955" lon="13.844832">
        <ele>1163.54</ele>
      </trkpt>
      <trkpt lat="45.927985" lon="13.844769">
        <ele>1162.58</ele>
      </trkpt>
      <trkpt lat="45.928021" lon="13.844692">
        <ele>1161.39</ele>
      </trkpt>
      <trkpt lat="45.928084" lon="13.844456">
        <ele>1158.33</ele>
      </trkpt>
      <trkpt lat="45.928099" lon="13.844265">
        <ele>1155.36</ele>
      </trkpt>
      <trkpt lat="45.928125" lon="13.844102">
        <ele>1152.78</ele>
      </trkpt>
      <trkpt lat="45.928195" lon="13.843858">
        <ele>1149.65</ele>
      </trkpt>
      <trkpt lat="45.928184" lon="13.843683">
        <ele>1146.55</ele>
      </trkpt>
      <trkpt lat="45.928204" lon="13.84342">
        <ele>1143.56</ele>
      </trkpt>
      <trkpt lat="45.928195" lon="13.843307">
        <ele>1142.16</ele>
      </trkpt>
      <trkpt lat="45.927976" lon="13.843026">
        <ele>1137.79</ele>
      </trkpt>
      <trkpt lat="45.927887" lon="13.842881">
        <ele>1135.98</ele>
      </trkpt>
      <trkpt lat="45.927818" lon="13.842677">
        <ele>1132.73</ele>
      </trkpt>
      <trkpt lat="45.927745" lon="13.842506">
        <ele>1130.31</ele>
      </trkpt>
      <trkpt lat="45.927702" lon="13.842342">
        <ele>1128.85</ele>
      </trkpt>
      <trkpt lat="45.927637" lon="13.842168">
        <ele>1127.22</ele>
      </trkpt>
      <trkpt lat="45.92762" lon="13.842031">
        <ele>1125.21</ele>
      </trkpt>
      <trkpt lat="45.927671" lon="13.841858">
        <ele>1123.41</ele>
      </trkpt>
      <trkpt lat="45.927752" lon="13.841657">
        <ele>1121.94</ele>
      </trkpt>
      <trkpt lat="45.927867" lon="13.841235">
        <ele>1119.62</ele>
      </trkpt>
      <trkpt lat="45.927873" lon="13.841069">
        <ele>1118.47</ele>
      </trkpt>
      <trkpt lat="45.927864" lon="13.840896">
        <ele>1118.02</ele>
      </trkpt>
      <trkpt lat="45.927802" lon="13.840434">
        <ele>1117.68</ele>
      </trkpt>
      <trkpt lat="45.927782" lon="13.840071">
        <ele>1115.52</ele>
      </trkpt>
      <trkpt lat="45.927786" lon="13.839753">
        <ele>1115.27</ele>
      </trkpt>
      <trkpt lat="45.92781" lon="13.839459">
        <ele>1114.8</ele>
      </trkpt>
      <trkpt lat="45.92783" lon="13.838994">
        <ele>1116.9</ele>
      </trkpt>
      <trkpt lat="45.927759" lon="13.838609">
        <ele>1122.71</ele>
      </trkpt>
      <trkpt lat="45.927703" lon="13.838343">
        <ele>1125.5</ele>
      </trkpt>
      <trkpt lat="45.927652" lon="13.838161">
        <ele>1123.96</ele>
      </trkpt>
      <trkpt lat="45.927769" lon="13.837923">
        <ele>1121.27</ele>
      </trkpt>
      <trkpt lat="45.927951" lon="13.837818">
        <ele>1118.48</ele>
      </trkpt>
      <trkpt lat="45.928136" lon="13.83779">
        <ele>1112.35</ele>
      </trkpt>
      <trkpt lat="45.928308" lon="13.837731">
        <ele>1111.76</ele>
      </trkpt>
      <trkpt lat="45.928496" lon="13.837743">
        <ele>1114.08</ele>
      </trkpt>
      <trkpt lat="45.928621" lon="13.837685">
        <ele>1114.1</ele>
      </trkpt>
      <trkpt lat="45.928713" lon="13.837645">
        <ele>1112.48</ele>
      </trkpt>
      <trkpt lat="45.928866" lon="13.837665">
        <ele>1112.1</ele>
      </trkpt>
      <trkpt lat="45.929021" lon="13.837653">
        <ele>1110.39</ele>
      </trkpt>
      <trkpt lat="45.92913" lon="13.837704">
        <ele>1111.25</ele>
      </trkpt>
      <trkpt lat="45.929152" lon="13.837775">
        <ele>1113.7</ele>
      </trkpt>
      <trkpt lat="45.929244" lon="13.837731">
        <ele>1112.97</ele>
      </trkpt>
      <trkpt lat="45.929348" lon="13.837661">
        <ele>1113.05</ele>
      </trkpt>
      <trkpt lat="45.929427" lon="13.837571">
        <ele>1112.41</ele>
      </trkpt>
      <trkpt lat="45.929517" lon="13.837516">
        <ele>1113.07</ele>
      </trkpt>
      <trkpt lat="45.929767" lon="13.837164">
        <ele>1110.22</ele>
      </trkpt>
      <trkpt lat="45.929851" lon="13.837003">
        <ele>1108.65</ele>
      </trkpt>
      <trkpt lat="45.929922" lon="13.836953">
        <ele>1109.36</ele>
      </trkpt>
      <trkpt lat="45.929993" lon="13.836878">
        <ele>1109.27</ele>
      </trkpt>
      <trkpt lat="45.93017" lon="13.836729">
        <ele>1110.69</ele>
      </trkpt>
      <trkpt lat="45.930371" lon="13.836624">
        <ele>1111.43</ele>
      </trkpt>
      <trkpt lat="45.930543" lon="13.836495">
        <ele>1113.83</ele>
      </trkpt>
      <trkpt lat="45.93063" lon="13.836393">
        <ele>1115.59</ele>
      </trkpt>
      <trkpt lat="45.930701" lon="13.836279">
        <ele>1116.38</ele>
      </trkpt>
      <trkpt lat="45.930815" lon="13.836064">
        <ele>1116.94</ele>
      </trkpt>
      <trkpt lat="45.930927" lon="13.835935">
        <ele>1114.56</ele>
      </trkpt>
      <trkpt lat="45.930992" lon="13.835888">
        <ele>1114.37</ele>
      </trkpt>
      <trkpt lat="45.931117" lon="13.835665">
        <ele>1113.17</ele>
      </trkpt>
      <trkpt lat="45.931228" lon="13.835512">
        <ele>1113.68</ele>
      </trkpt>
      <trkpt lat="45.931251" lon="13.835438">
        <ele>1113.53</ele>
      </trkpt>
      <trkpt lat="45.931297" lon="13.835341">
        <ele>1113.34</ele>
      </trkpt>
      <trkpt lat="45.931274" lon="13.835259">
        <ele>1113</ele>
      </trkpt>
      <trkpt lat="45.931235" lon="13.835166">
        <ele>1113</ele>
      </trkpt>
      <trkpt lat="45.931185" lon="13.835087">
        <ele>1112.63</ele>
      </trkpt>
      <trkpt lat="45.931108" lon="13.835005">
        <ele>1112.24</ele>
      </trkpt>
      <trkpt lat="45.93101" lon="13.834933">
        <ele>1112.08</ele>
      </trkpt>
      <trkpt lat="45.930908" lon="13.834875">
        <ele>1111.43</ele>
      </trkpt>
      <trkpt lat="45.930829" lon="13.834807">
        <ele>1110.79</ele>
      </trkpt>
      <trkpt lat="45.930771" lon="13.834728">
        <ele>1110.94</ele>
      </trkpt>
      <trkpt lat="45.930741" lon="13.834634">
        <ele>1111.21</ele>
      </trkpt>
      <trkpt lat="45.930732" lon="13.834542">
        <ele>1111.78</ele>
      </trkpt>
      <trkpt lat="45.930756" lon="13.833916">
        <ele>1115.49</ele>
      </trkpt>
      <trkpt lat="45.930746" lon="13.833769">
        <ele>1116.11</ele>
      </trkpt>
      <trkpt lat="45.930714" lon="13.833577">
        <ele>1118.46</ele>
      </trkpt>
      <trkpt lat="45.930687" lon="13.83346">
        <ele>1119.4</ele>
      </trkpt>
      <trkpt lat="45.930572" lon="13.832964">
        <ele>1123.36</ele>
      </trkpt>
      <trkpt lat="45.930374" lon="13.83226">
        <ele>1127.89</ele>
      </trkpt>
      <trkpt lat="45.930358" lon="13.832144">
        <ele>1128.96</ele>
      </trkpt>
      <trkpt lat="45.930356" lon="13.832021">
        <ele>1130.01</ele>
      </trkpt>
      <trkpt lat="45.930221" lon="13.831834">
        <ele>1134.04</ele>
      </trkpt>
      <trkpt lat="45.9302" lon="13.831818">
        <ele>1134.42</ele>
      </trkpt>
      <trkpt lat="45.930124" lon="13.831798">
        <ele>1135.59</ele>
      </trkpt>
      <trkpt lat="45.930124" lon="13.831651">
        <ele>1137.88</ele>
      </trkpt>
      <trkpt lat="45.930136" lon="13.831598">
        <ele>1138.49</ele>
      </trkpt>
      <trkpt lat="45.93019" lon="13.83152">
        <ele>1138.49</ele>
      </trkpt>
      <trkpt lat="45.93019" lon="13.83152">
        <ele>1138.49</ele>
      </trkpt>
      <trkpt lat="45.930217" lon="13.831458">
        <ele>1138.9</ele>
      </trkpt>
      <trkpt lat="45.930213" lon="13.831391">
        <ele>1140.16</ele>
      </trkpt>
      <trkpt lat="45.930174" lon="13.831266">
        <ele>1143.33</ele>
      </trkpt>
      <trkpt lat="45.93011" lon="13.831107">
        <ele>1147.34</ele>
      </trkpt>
      <trkpt lat="45.93011" lon="13.831065">
        <ele>1147.82</ele>
      </trkpt>
      <trkpt lat="45.930123" lon="13.831019">
        <ele>1147.91</ele>
      </trkpt>
      <trkpt lat="45.930124" lon="13.830943">
        <ele>1148.45</ele>
      </trkpt>
      <trkpt lat="45.930103" lon="13.830885">
        <ele>1149.49</ele>
      </trkpt>
      <trkpt lat="45.930079" lon="13.830778">
        <ele>1150.85</ele>
      </trkpt>
      <trkpt lat="45.930012" lon="13.830658">
        <ele>1153.17</ele>
      </trkpt>
      <trkpt lat="45.929988" lon="13.830558">
        <ele>1153.83</ele>
      </trkpt>
      <trkpt lat="45.929951" lon="13.830453">
        <ele>1154.41</ele>
      </trkpt>
      <trkpt lat="45.929843" lon="13.83036">
        <ele>1154.7</ele>
      </trkpt>
      <trkpt lat="45.92973" lon="13.830308">
        <ele>1154.08</ele>
      </trkpt>
      <trkpt lat="45.92964" lon="13.830344">
        <ele>1154.7</ele>
      </trkpt>
      <trkpt lat="45.929596" lon="13.830346">
        <ele>1154.94</ele>
      </trkpt>
      <trkpt lat="45.929409" lon="13.830284">
        <ele>1155.68</ele>
      </trkpt>
      <trkpt lat="45.929351" lon="13.830222">
        <ele>1155.64</ele>
      </trkpt>
      <trkpt lat="45.929314" lon="13.830196">
        <ele>1155.73</ele>
      </trkpt>
      <trkpt lat="45.929296" lon="13.830161">
        <ele>1155.76</ele>
      </trkpt>
      <trkpt lat="45.929262" lon="13.829962">
        <ele>1157.07</ele>
      </trkpt>
      <trkpt lat="45.929231" lon="13.829884">
        <ele>1158.14</ele>
      </trkpt>
      <trkpt lat="45.929041" lon="13.829649">
        <ele>1161.45</ele>
      </trkpt>
      <trkpt lat="45.928893" lon="13.829457">
        <ele>1162.61</ele>
      </trkpt>
      <trkpt lat="45.928865" lon="13.82928">
        <ele>1163.63</ele>
      </trkpt>
      <trkpt lat="45.928818" lon="13.829227">
        <ele>1163.32</ele>
      </trkpt>
      <trkpt lat="45.928664" lon="13.82917">
        <ele>1164.18</ele>
      </trkpt>
      <trkpt lat="45.928565" lon="13.829058">
        <ele>1166.31</ele>
      </trkpt>
      <trkpt lat="45.928541" lon="13.829004">
        <ele>1167.16</ele>
      </trkpt>
      <trkpt lat="45.928529" lon="13.82894">
        <ele>1168.11</ele>
      </trkpt>
      <trkpt lat="45.928544" lon="13.828827">
        <ele>1168.58</ele>
      </trkpt>
      <trkpt lat="45.92857" lon="13.828781">
        <ele>1168.63</ele>
      </trkpt>
      <trkpt lat="45.928592" lon="13.828563">
        <ele>1169.64</ele>
      </trkpt>
      <trkpt lat="45.928614" lon="13.828449">
        <ele>1169.87</ele>
      </trkpt>
      <trkpt lat="45.928672" lon="13.828368">
        <ele>1170.18</ele>
      </trkpt>
      <trkpt lat="45.928698" lon="13.828303">
        <ele>1170.34</ele>
      </trkpt>
      <trkpt lat="45.928708" lon="13.82825">
        <ele>1170.56</ele>
      </trkpt>
      <trkpt lat="45.928699" lon="13.82803">
        <ele>1171.22</ele>
      </trkpt>
      <trkpt lat="45.928799" lon="13.827424">
        <ele>1173.46</ele>
      </trkpt>
      <trkpt lat="45.92882" lon="13.827154">
        <ele>1176.25</ele>
      </trkpt>
      <trkpt lat="45.928893" lon="13.826807">
        <ele>1183.29</ele>
      </trkpt>
      <trkpt lat="45.928888" lon="13.826702">
        <ele>1185.64</ele>
      </trkpt>
      <trkpt lat="45.928839" lon="13.82662">
        <ele>1186.92</ele>
      </trkpt>
      <trkpt lat="45.928855" lon="13.826106">
        <ele>1200.24</ele>
      </trkpt>
      <trkpt lat="45.928898" lon="13.825816">
        <ele>1210.43</ele>
      </trkpt>
      <trkpt lat="45.928877" lon="13.825632">
        <ele>1217.14</ele>
      </trkpt>
      <trkpt lat="45.928825" lon="13.825334">
        <ele>1227.64</ele>
      </trkpt>
      <trkpt lat="45.928777" lon="13.825132">
        <ele>1234.04</ele>
      </trkpt>
      <trkpt lat="45.928738" lon="13.825047">
        <ele>1234.59</ele>
      </trkpt>
      <trkpt lat="45.928695" lon="13.824982">
        <ele>1235.11</ele>
      </trkpt>
      <trkpt lat="45.928653" lon="13.824938">
        <ele>1233.54</ele>
      </trkpt>
      <trkpt lat="45.928614" lon="13.824916">
        <ele>1231.29</ele>
      </trkpt>
      <trkpt lat="45.928548" lon="13.824799">
        <ele>1229.01</ele>
      </trkpt>
      <trkpt lat="45.928475" lon="13.824706">
        <ele>1224.88</ele>
      </trkpt>
      <trkpt lat="45.928426" lon="13.824621">
        <ele>1222.92</ele>
      </trkpt>
      <trkpt lat="45.928434" lon="13.824523">
        <ele>1221.24</ele>
      </trkpt>
      <trkpt lat="45.928352" lon="13.824413">
        <ele>1217.56</ele>
      </trkpt>
      <trkpt lat="45.928305" lon="13.824268">
        <ele>1215.62</ele>
      </trkpt>
      <trkpt lat="45.928285" lon="13.824176">
        <ele>1213.54</ele>
      </trkpt>
      <trkpt lat="45.928283" lon="13.82412">
        <ele>1212.36</ele>
      </trkpt>
      <trkpt lat="45.928294" lon="13.824018">
        <ele>1209.36</ele>
      </trkpt>
      <trkpt lat="45.928356" lon="13.823919">
        <ele>1205.95</ele>
      </trkpt>
      <trkpt lat="45.92844" lon="13.823724">
        <ele>1199.59</ele>
      </trkpt>
      <trkpt lat="45.928489" lon="13.823497">
        <ele>1192.59</ele>
      </trkpt>
      <trkpt lat="45.928423" lon="13.823155">
        <ele>1185.31</ele>
      </trkpt>
      <trkpt lat="45.928422" lon="13.822971">
        <ele>1183.32</ele>
      </trkpt>
      <trkpt lat="45.928393" lon="13.822826">
        <ele>1181.64</ele>
      </trkpt>
      <trkpt lat="45.928378" lon="13.822684">
        <ele>1179.43</ele>
      </trkpt>
      <trkpt lat="45.928377" lon="13.822584">
        <ele>1177.44</ele>
      </trkpt>
      <trkpt lat="45.928346" lon="13.822496">
        <ele>1174.18</ele>
      </trkpt>
      <trkpt lat="45.928318" lon="13.822381">
        <ele>1170.38</ele>
      </trkpt>
      <trkpt lat="45.928315" lon="13.822259">
        <ele>1168.15</ele>
      </trkpt>
      <trkpt lat="45.928295" lon="13.822033">
        <ele>1163.26</ele>
      </trkpt>
      <trkpt lat="45.928307" lon="13.821891">
        <ele>1161.36</ele>
      </trkpt>
      <trkpt lat="45.928259" lon="13.821699">
        <ele>1154.63</ele>
      </trkpt>
      <trkpt lat="45.92821" lon="13.821591">
        <ele>1150.29</ele>
      </trkpt>
      <trkpt lat="45.928008" lon="13.821327">
        <ele>1136.76</ele>
      </trkpt>
      <trkpt lat="45.927928" lon="13.821317">
        <ele>1132.61</ele>
      </trkpt>
      <trkpt lat="45.927887" lon="13.821283">
        <ele>1129.95</ele>
      </trkpt>
      <trkpt lat="45.927789" lon="13.82115">
        <ele>1122.65</ele>
      </trkpt>
      <trkpt lat="45.92761" lon="13.820979">
        <ele>1110.95</ele>
      </trkpt>
      <trkpt lat="45.927551" lon="13.820903">
        <ele>1106.63</ele>
      </trkpt>
      <trkpt lat="45.927482" lon="13.820689">
        <ele>1100.11</ele>
      </trkpt>
      <trkpt lat="45.927437" lon="13.82065">
        <ele>1097.02</ele>
      </trkpt>
      <trkpt lat="45.927393" lon="13.820516">
        <ele>1092.85</ele>
      </trkpt>
      <trkpt lat="45.927325" lon="13.82041">
        <ele>1088.47</ele>
      </trkpt>
      <trkpt lat="45.927211" lon="13.820095">
        <ele>1079.58</ele>
      </trkpt>
      <trkpt lat="45.927096" lon="13.81991">
        <ele>1072.16</ele>
      </trkpt>
      <trkpt lat="45.926907" lon="13.819574">
        <ele>1058.72</ele>
      </trkpt>
      <trkpt lat="45.926815" lon="13.819531">
        <ele>1054.47</ele>
      </trkpt>
      <trkpt lat="45.926641" lon="13.819407">
        <ele>1046.64</ele>
      </trkpt>
      <trkpt lat="45.926615" lon="13.819326">
        <ele>1044.73</ele>
      </trkpt>
      <trkpt lat="45.926499" lon="13.819367">
        <ele>1040.27</ele>
      </trkpt>
      <trkpt lat="45.926397" lon="13.819377">
        <ele>1035.27</ele>
      </trkpt>
      <trkpt lat="45.926318" lon="13.819374">
        <ele>1030.68</ele>
      </trkpt>
      <trkpt lat="45.92613" lon="13.819415">
        <ele>1019.48</ele>
      </trkpt>
      <trkpt lat="45.926044" lon="13.819406">
        <ele>1014.42</ele>
      </trkpt>
      <trkpt lat="45.925897" lon="13.819497">
        <ele>1007.46</ele>
      </trkpt>
      <trkpt lat="45.925816" lon="13.81938">
        <ele>1001.38</ele>
      </trkpt>
      <trkpt lat="45.925796" lon="13.819306">
        <ele>999.38</ele>
      </trkpt>
      <trkpt lat="45.925716" lon="13.819224">
        <ele>993.86</ele>
      </trkpt>
      <trkpt lat="45.925611" lon="13.819184">
        <ele>986.79</ele>
      </trkpt>
      <trkpt lat="45.925515" lon="13.819212">
        <ele>981.34</ele>
      </trkpt>
      <trkpt lat="45.925366" lon="13.819209">
        <ele>972.03</ele>
      </trkpt>
      <trkpt lat="45.925295" lon="13.819229">
        <ele>967.59</ele>
      </trkpt>
      <trkpt lat="45.925226" lon="13.819164">
        <ele>961.88</ele>
      </trkpt>
      <trkpt lat="45.925203" lon="13.819077">
        <ele>959.06</ele>
      </trkpt>
      <trkpt lat="45.92513" lon="13.81908">
        <ele>954.09</ele>
      </trkpt>
      <trkpt lat="45.925103" lon="13.819132">
        <ele>953.07</ele>
      </trkpt>
      <trkpt lat="45.925085" lon="13.819115">
        <ele>951.59</ele>
      </trkpt>
      <trkpt lat="45.925075" lon="13.818989">
        <ele>948.71</ele>
      </trkpt>
      <trkpt lat="45.925023" lon="13.81886">
        <ele>942.23</ele>
      </trkpt>
      <trkpt lat="45.924961" lon="13.81863">
        <ele>935.58</ele>
      </trkpt>
      <trkpt lat="45.924961" lon="13.81863">
        <ele>935.58</ele>
      </trkpt>
      <trkpt lat="45.924939" lon="13.818494">
        <ele>934.28</ele>
      </trkpt>
      <trkpt lat="45.924882" lon="13.818345">
        <ele>929.23</ele>
      </trkpt>
      <trkpt lat="45.924848" lon="13.818227">
        <ele>926.64</ele>
      </trkpt>
      <trkpt lat="45.924682" lon="13.81807">
        <ele>913.57</ele>
      </trkpt>
      <trkpt lat="45.924637" lon="13.818057">
        <ele>910.27</ele>
      </trkpt>
      <trkpt lat="45.924455" lon="13.817944">
        <ele>897.57</ele>
      </trkpt>
      <trkpt lat="45.924371" lon="13.817875">
        <ele>891.75</ele>
      </trkpt>
      <trkpt lat="45.92433" lon="13.817749">
        <ele>887.79</ele>
      </trkpt>
      <trkpt lat="45.924318" lon="13.817497">
        <ele>882.65</ele>
      </trkpt>
      <trkpt lat="45.924255" lon="13.817768">
        <ele>881.67</ele>
      </trkpt>
      <trkpt lat="45.924252" lon="13.818476">
        <ele>879.93</ele>
      </trkpt>
      <trkpt lat="45.924303" lon="13.818896">
        <ele>883.69</ele>
      </trkpt>
      <trkpt lat="45.924183" lon="13.819434">
        <ele>883.44</ele>
      </trkpt>
      <trkpt lat="45.924161" lon="13.819737">
        <ele>885.25</ele>
      </trkpt>
      <trkpt lat="45.924114" lon="13.819982">
        <ele>886.73</ele>
      </trkpt>
      <trkpt lat="45.924008" lon="13.820514">
        <ele>886.85</ele>
      </trkpt>
      <trkpt lat="45.923946" lon="13.820786">
        <ele>884.55</ele>
      </trkpt>
      <trkpt lat="45.923935" lon="13.821022">
        <ele>882.31</ele>
      </trkpt>
      <trkpt lat="45.923933" lon="13.821097">
        <ele>883.3</ele>
      </trkpt>
      <trkpt lat="45.92388" lon="13.821205">
        <ele>880</ele>
      </trkpt>
      <trkpt lat="45.923888" lon="13.82138">
        <ele>879.22</ele>
      </trkpt>
      <trkpt lat="45.923858" lon="13.821644">
        <ele>876.1</ele>
      </trkpt>
      <trkpt lat="45.923885" lon="13.821803">
        <ele>872.89</ele>
      </trkpt>
      <trkpt lat="45.923934" lon="13.821905">
        <ele>871.98</ele>
      </trkpt>
      <trkpt lat="45.923956" lon="13.822127">
        <ele>868.99</ele>
      </trkpt>
      <trkpt lat="45.923984" lon="13.822469">
        <ele>873.56</ele>
      </trkpt>
      <trkpt lat="45.923955" lon="13.822613">
        <ele>871.69</ele>
      </trkpt>
      <trkpt lat="45.924002" lon="13.822807">
        <ele>867.76</ele>
      </trkpt>
      <trkpt lat="45.924098" lon="13.822989">
        <ele>868.11</ele>
      </trkpt>
      <trkpt lat="45.924229" lon="13.823376">
        <ele>868.51</ele>
      </trkpt>
      <trkpt lat="45.924305" lon="13.823551">
        <ele>870.02</ele>
      </trkpt>
      <trkpt lat="45.924508" lon="13.824093">
        <ele>871.82</ele>
      </trkpt>
      <trkpt lat="45.92458" lon="13.824358">
        <ele>872.57</ele>
      </trkpt>
      <trkpt lat="45.924617" lon="13.824568">
        <ele>872.81</ele>
      </trkpt>
      <trkpt lat="45.92462" lon="13.824815">
        <ele>871.54</ele>
      </trkpt>
      <trkpt lat="45.924615" lon="13.82499">
        <ele>870.2</ele>
      </trkpt>
      <trkpt lat="45.924718" lon="13.825435">
        <ele>875.48</ele>
      </trkpt>
      <trkpt lat="45.924756" lon="13.825864">
        <ele>875.34</ele>
      </trkpt>
      <trkpt lat="45.924814" lon="13.826129">
        <ele>875.57</ele>
      </trkpt>
      <trkpt lat="45.924851" lon="13.82645">
        <ele>872.17</ele>
      </trkpt>
      <trkpt lat="45.924908" lon="13.826706">
        <ele>874.21</ele>
      </trkpt>
      <trkpt lat="45.924838" lon="13.827328">
        <ele>870.5</ele>
      </trkpt>
      <trkpt lat="45.924855" lon="13.827626">
        <ele>871.78</ele>
      </trkpt>
      <trkpt lat="45.924832" lon="13.8278">
        <ele>871.15</ele>
      </trkpt>
      <trkpt lat="45.924832" lon="13.8278">
        <ele>871.15</ele>
      </trkpt>
      <trkpt lat="45.924803" lon="13.828018">
        <ele>870.36</ele>
      </trkpt>
      <trkpt lat="45.924801" lon="13.828509">
        <ele>870.99</ele>
      </trkpt>
      <trkpt lat="45.924823" lon="13.828945">
        <ele>869.97</ele>
      </trkpt>
      <trkpt lat="45.924899" lon="13.829352">
        <ele>869.27</ele>
      </trkpt>
      <trkpt lat="45.924964" lon="13.829696">
        <ele>873.32</ele>
      </trkpt>
      <trkpt lat="45.924933" lon="13.830244">
        <ele>874.09</ele>
      </trkpt>
      <trkpt lat="45.924859" lon="13.830435">
        <ele>873.82</ele>
      </trkpt>
      <trkpt lat="45.924805" lon="13.830728">
        <ele>873.99</ele>
      </trkpt>
      <trkpt lat="45.924783" lon="13.83105">
        <ele>870.46</ele>
      </trkpt>
      <trkpt lat="45.92484" lon="13.831521">
        <ele>872.51</ele>
      </trkpt>
      <trkpt lat="45.924804" lon="13.831835">
        <ele>873.74</ele>
      </trkpt>
      <trkpt lat="45.924792" lon="13.832101">
        <ele>874.81</ele>
      </trkpt>
      <trkpt lat="45.924787" lon="13.832638">
        <ele>872.84</ele>
      </trkpt>
      <trkpt lat="45.924825" lon="13.83305">
        <ele>878.25</ele>
      </trkpt>
      <trkpt lat="45.924735" lon="13.833365">
        <ele>874.9</ele>
      </trkpt>
      <trkpt lat="45.924776" lon="13.833757">
        <ele>876.17</ele>
      </trkpt>
      <trkpt lat="45.924719" lon="13.83404">
        <ele>874.74</ele>
      </trkpt>
      <trkpt lat="45.924687" lon="13.83438">
        <ele>876.32</ele>
      </trkpt>
      <trkpt lat="45.924627" lon="13.834559">
        <ele>875.11</ele>
      </trkpt>
      <trkpt lat="45.924575" lon="13.834747">
        <ele>873.3</ele>
      </trkpt>
      <trkpt lat="45.924582" lon="13.834919">
        <ele>873.11</ele>
      </trkpt>
      <trkpt lat="45.924574" lon="13.835128">
        <ele>871.39</ele>
      </trkpt>
      <trkpt lat="45.924578" lon="13.835357">
        <ele>872.27</ele>
      </trkpt>
      <trkpt lat="45.924499" lon="13.835644">
        <ele>870.31</ele>
      </trkpt>
      <trkpt lat="45.92449" lon="13.835476">
        <ele>867.97</ele>
      </trkpt>
      <trkpt lat="45.924387" lon="13.835205">
        <ele>858.91</ele>
      </trkpt>
      <trkpt lat="45.924325" lon="13.834952">
        <ele>854.94</ele>
      </trkpt>
      <trkpt lat="45.924215" lon="13.834624">
        <ele>846.81</ele>
      </trkpt>
      <trkpt lat="45.924147" lon="13.834359">
        <ele>840.22</ele>
      </trkpt>
      <trkpt lat="45.924121" lon="13.834207">
        <ele>836.61</ele>
      </trkpt>
      <trkpt lat="45.924061" lon="13.834061">
        <ele>831.57</ele>
      </trkpt>
      <trkpt lat="45.924026" lon="13.833933">
        <ele>828.79</ele>
      </trkpt>
      <trkpt lat="45.923874" lon="13.833508">
        <ele>817.81</ele>
      </trkpt>
      <trkpt lat="45.923772" lon="13.833286">
        <ele>812.69</ele>
      </trkpt>
      <trkpt lat="45.923682" lon="13.833392">
        <ele>808.22</ele>
      </trkpt>
      <trkpt lat="45.92354" lon="13.833727">
        <ele>800.14</ele>
      </trkpt>
      <trkpt lat="45.923447" lon="13.833817">
        <ele>795.99</ele>
      </trkpt>
      <trkpt lat="45.923402" lon="13.83394">
        <ele>794.28</ele>
      </trkpt>
      <trkpt lat="45.923268" lon="13.834091">
        <ele>788.42</ele>
      </trkpt>
      <trkpt lat="45.923184" lon="13.834208">
        <ele>784.77</ele>
      </trkpt>
      <trkpt lat="45.923118" lon="13.834364">
        <ele>784.22</ele>
      </trkpt>
      <trkpt lat="45.922998" lon="13.834473">
        <ele>779.99</ele>
      </trkpt>
      <trkpt lat="45.922833" lon="13.834659">
        <ele>773.12</ele>
      </trkpt>
      <trkpt lat="45.922736" lon="13.834787">
        <ele>768.85</ele>
      </trkpt>
      <trkpt lat="45.922535" lon="13.834927">
        <ele>762.13</ele>
      </trkpt>
      <trkpt lat="45.922462" lon="13.834989">
        <ele>759.43</ele>
      </trkpt>
      <trkpt lat="45.922422" lon="13.83508">
        <ele>757.6</ele>
      </trkpt>
      <trkpt lat="45.922312" lon="13.835193">
        <ele>753.63</ele>
      </trkpt>
      <trkpt lat="45.922173" lon="13.835316">
        <ele>747.78</ele>
      </trkpt>
      <trkpt lat="45.922092" lon="13.835366">
        <ele>744.36</ele>
      </trkpt>
      <trkpt lat="45.921923" lon="13.835366">
        <ele>737.9</ele>
      </trkpt>
      <trkpt lat="45.921839" lon="13.835398">
        <ele>734.21</ele>
      </trkpt>
      <trkpt lat="45.921774" lon="13.835432">
        <ele>731.84</ele>
      </trkpt>
      <trkpt lat="45.921699" lon="13.835535">
        <ele>728.55</ele>
      </trkpt>
      <trkpt lat="45.92159" lon="13.835605">
        <ele>723.69</ele>
      </trkpt>
      <trkpt lat="45.921549" lon="13.83566">
        <ele>722.08</ele>
      </trkpt>
      <trkpt lat="45.92129" lon="13.835743">
        <ele>712.88</ele>
      </trkpt>
      <trkpt lat="45.921263" lon="13.835759">
        <ele>711.87</ele>
      </trkpt>
      <trkpt lat="45.921054" lon="13.835888">
        <ele>704.12</ele>
      </trkpt>
      <trkpt lat="45.920974" lon="13.83598">
        <ele>700.66</ele>
      </trkpt>
      <trkpt lat="45.920923" lon="13.836093">
        <ele>697</ele>
      </trkpt>
      <trkpt lat="45.920855" lon="13.836177">
        <ele>694.03</ele>
      </trkpt>
      <trkpt lat="45.920825" lon="13.836249">
        <ele>692.59</ele>
      </trkpt>
      <trkpt lat="45.920769" lon="13.836329">
        <ele>690</ele>
      </trkpt>
      <trkpt lat="45.920735" lon="13.836637">
        <ele>685.29</ele>
      </trkpt>
      <trkpt lat="45.920692" lon="13.836735">
        <ele>682.96</ele>
      </trkpt>
      <trkpt lat="45.920548" lon="13.836889">
        <ele>677.66</ele>
      </trkpt>
      <trkpt lat="45.920468" lon="13.837026">
        <ele>673.26</ele>
      </trkpt>
      <trkpt lat="45.920406" lon="13.837104">
        <ele>670.35</ele>
      </trkpt>
      <trkpt lat="45.920252" lon="13.837196">
        <ele>666.29</ele>
      </trkpt>
      <trkpt lat="45.920263" lon="13.837458">
        <ele>664.9</ele>
      </trkpt>
      <trkpt lat="45.920244" lon="13.837679">
        <ele>664.82</ele>
      </trkpt>
      <trkpt lat="45.920191" lon="13.837836">
        <ele>664.36</ele>
      </trkpt>
      <trkpt lat="45.9201" lon="13.838">
        <ele>663.93</ele>
      </trkpt>
      <trkpt lat="45.919932" lon="13.838241">
        <ele>661.21</ele>
      </trkpt>
      <trkpt lat="45.919108" lon="13.839214">
        <ele>651.11</ele>
      </trkpt>
      <trkpt lat="45.918714" lon="13.839541">
        <ele>647.01</ele>
      </trkpt>
      <trkpt lat="45.918325" lon="13.839865">
        <ele>642.96</ele>
      </trkpt>
      <trkpt lat="45.918069" lon="13.840117">
        <ele>640.49</ele>
      </trkpt>
      <trkpt lat="45.917788" lon="13.84043">
        <ele>639.05</ele>
      </trkpt>
      <trkpt lat="45.917665" lon="13.840604">
        <ele>638</ele>
      </trkpt>
      <trkpt lat="45.917571" lon="13.84078">
        <ele>636.7</ele>
      </trkpt>
      <trkpt lat="45.91748" lon="13.840977">
        <ele>635.64</ele>
      </trkpt>
      <trkpt lat="45.917426" lon="13.84121">
        <ele>634.77</ele>
      </trkpt>
      <trkpt lat="45.917385" lon="13.841542">
        <ele>634.27</ele>
      </trkpt>
      <trkpt lat="45.917322" lon="13.842237">
        <ele>636.52</ele>
      </trkpt>
      <trkpt lat="45.917277" lon="13.842634">
        <ele>637.81</ele>
      </trkpt>
      <trkpt lat="45.917229" lon="13.843208">
        <ele>640.19</ele>
      </trkpt>
      <trkpt lat="45.917228" lon="13.84368">
        <ele>641.7</ele>
      </trkpt>
      <trkpt lat="45.917238" lon="13.843943">
        <ele>643.19</ele>
      </trkpt>
      <trkpt lat="45.917207" lon="13.844129">
        <ele>643.5</ele>
      </trkpt>
      <trkpt lat="45.917156" lon="13.844232">
        <ele>643.59</ele>
      </trkpt>
      <trkpt lat="45.917077" lon="13.844338">
        <ele>644.71</ele>
      </trkpt>
      <trkpt lat="45.916825" lon="13.844507">
        <ele>645.54</ele>
      </trkpt>
      <trkpt lat="45.916712" lon="13.844601">
        <ele>645.6</ele>
      </trkpt>
      <trkpt lat="45.916659" lon="13.844738">
        <ele>645.54</ele>
      </trkpt>
      <trkpt lat="45.916636" lon="13.844921">
        <ele>644.92</ele>
      </trkpt>
      <trkpt lat="45.916638" lon="13.845107">
        <ele>643.87</ele>
      </trkpt>
      <trkpt lat="45.916662" lon="13.845421">
        <ele>641.91</ele>
      </trkpt>
      <trkpt lat="45.916637" lon="13.845562">
        <ele>640.95</ele>
      </trkpt>
      <trkpt lat="45.916598" lon="13.845731">
        <ele>639.05</ele>
      </trkpt>
      <trkpt lat="45.916488" lon="13.846269">
        <ele>637.8</ele>
      </trkpt>
      <trkpt lat="45.916348" lon="13.846862">
        <ele>638.15</ele>
      </trkpt>
      <trkpt lat="45.916304" lon="13.846967">
        <ele>638.41</ele>
      </trkpt>
      <trkpt lat="45.916233" lon="13.847038">
        <ele>637.87</ele>
      </trkpt>
      <trkpt lat="45.915984" lon="13.847199">
        <ele>638.6</ele>
      </trkpt>
      <trkpt lat="45.9159" lon="13.847254">
        <ele>638.85</ele>
      </trkpt>
      <trkpt lat="45.915815" lon="13.847353">
        <ele>639.55</ele>
      </trkpt>
      <trkpt lat="45.915639" lon="13.847708">
        <ele>640.51</ele>
      </trkpt>
      <trkpt lat="45.915475" lon="13.848165">
        <ele>641</ele>
      </trkpt>
      <trkpt lat="45.915444" lon="13.848293">
        <ele>641.43</ele>
      </trkpt>
      <trkpt lat="45.915449" lon="13.848392">
        <ele>641.95</ele>
      </trkpt>
      <trkpt lat="45.915471" lon="13.848474">
        <ele>641.83</ele>
      </trkpt>
      <trkpt lat="45.915556" lon="13.848607">
        <ele>642.3</ele>
      </trkpt>
      <trkpt lat="45.915695" lon="13.848777">
        <ele>641.81</ele>
      </trkpt>
      <trkpt lat="45.915877" lon="13.848969">
        <ele>641.09</ele>
      </trkpt>
      <trkpt lat="45.91599" lon="13.849118">
        <ele>640.38</ele>
      </trkpt>
      <trkpt lat="45.916076" lon="13.849267">
        <ele>640.33</ele>
      </trkpt>
      <trkpt lat="45.916177" lon="13.849491">
        <ele>641.58</ele>
      </trkpt>
      <trkpt lat="45.916262" lon="13.849742">
        <ele>642.7</ele>
      </trkpt>
      <trkpt lat="45.916286" lon="13.849898">
        <ele>643.1</ele>
      </trkpt>
      <trkpt lat="45.916285" lon="13.850067">
        <ele>643.99</ele>
      </trkpt>
      <trkpt lat="45.91627" lon="13.850247">
        <ele>644.79</ele>
      </trkpt>
      <trkpt lat="45.91619" lon="13.850532">
        <ele>645.71</ele>
      </trkpt>
      <trkpt lat="45.916072" lon="13.850893">
        <ele>646.95</ele>
      </trkpt>
      <trkpt lat="45.916025" lon="13.851119">
        <ele>648.12</ele>
      </trkpt>
      <trkpt lat="45.91599" lon="13.851415">
        <ele>648.9</ele>
      </trkpt>
      <trkpt lat="45.916007" lon="13.851681">
        <ele>649.44</ele>
      </trkpt>
      <trkpt lat="45.916139" lon="13.852332">
        <ele>652.4</ele>
      </trkpt>
      <trkpt lat="45.916152" lon="13.852512">
        <ele>653.55</ele>
      </trkpt>
      <trkpt lat="45.916132" lon="13.852669">
        <ele>654.32</ele>
      </trkpt>
      <trkpt lat="45.916071" lon="13.852777">
        <ele>655.07</ele>
      </trkpt>
      <trkpt lat="45.915983" lon="13.852846">
        <ele>655.14</ele>
      </trkpt>
      <trkpt lat="45.915741" lon="13.852999">
        <ele>657.95</ele>
      </trkpt>
      <trkpt lat="45.915698" lon="13.853052">
        <ele>658.17</ele>
      </trkpt>
      <trkpt lat="45.915644" lon="13.853295">
        <ele>658.99</ele>
      </trkpt>
      <trkpt lat="45.915518" lon="13.853536">
        <ele>661.13</ele>
      </trkpt>
      <trkpt lat="45.915514" lon="13.853601">
        <ele>661.1</ele>
      </trkpt>
      <trkpt lat="45.915535" lon="13.853663">
        <ele>661.28</ele>
      </trkpt>
      <trkpt lat="45.915594" lon="13.853723">
        <ele>661.33</ele>
      </trkpt>
      <trkpt lat="45.915714" lon="13.853792">
        <ele>660.66</ele>
      </trkpt>
      <trkpt lat="45.915944" lon="13.853882">
        <ele>660.14</ele>
      </trkpt>
      <trkpt lat="45.915944" lon="13.853882">
        <ele>660.14</ele>
      </trkpt>
      <trkpt lat="45.91612" lon="13.853952">
        <ele>661.68</ele>
      </trkpt>
      <trkpt lat="45.916179" lon="13.854048">
        <ele>660.64</ele>
      </trkpt>
      <trkpt lat="45.916217" lon="13.854156">
        <ele>660.96</ele>
      </trkpt>
      <trkpt lat="45.916269" lon="13.854722">
        <ele>661.81</ele>
      </trkpt>
      <trkpt lat="45.9163" lon="13.855219">
        <ele>662.02</ele>
      </trkpt>
      <trkpt lat="45.916322" lon="13.855557">
        <ele>661.58</ele>
      </trkpt>
      <trkpt lat="45.916318" lon="13.856015">
        <ele>662.38</ele>
      </trkpt>
      <trkpt lat="45.916174" lon="13.856868">
        <ele>661.36</ele>
      </trkpt>
      <trkpt lat="45.916094" lon="13.857329">
        <ele>662.92</ele>
      </trkpt>
      <trkpt lat="45.91605" lon="13.857932">
        <ele>663.69</ele>
      </trkpt>
      <trkpt lat="45.916048" lon="13.85814">
        <ele>663.33</ele>
      </trkpt>
      <trkpt lat="45.916084" lon="13.858363">
        <ele>662.3</ele>
      </trkpt>
      <trkpt lat="45.916158" lon="13.858593">
        <ele>662.72</ele>
      </trkpt>
      <trkpt lat="45.91627" lon="13.858897">
        <ele>661.36</ele>
      </trkpt>
      <trkpt lat="45.916366" lon="13.859049">
        <ele>658.99</ele>
      </trkpt>
      <trkpt lat="45.916404" lon="13.859085">
        <ele>659.05</ele>
      </trkpt>
      <trkpt lat="45.916503" lon="13.85942">
        <ele>657.42</ele>
      </trkpt>
      <trkpt lat="45.916555" lon="13.859638">
        <ele>655.54</ele>
      </trkpt>
      <trkpt lat="45.916565" lon="13.859866">
        <ele>651.9</ele>
      </trkpt>
      <trkpt lat="45.916546" lon="13.860132">
        <ele>648.02</ele>
      </trkpt>
      <trkpt lat="45.916512" lon="13.860138">
        <ele>647.2</ele>
      </trkpt>
      <trkpt lat="45.916425" lon="13.860267">
        <ele>642.73</ele>
      </trkpt>
      <trkpt lat="45.916324" lon="13.86032">
        <ele>638.56</ele>
      </trkpt>
      <trkpt lat="45.916206" lon="13.86035">
        <ele>635.27</ele>
      </trkpt>
      <trkpt lat="45.916134" lon="13.860382">
        <ele>633.08</ele>
      </trkpt>
      <trkpt lat="45.916092" lon="13.860389">
        <ele>632.02</ele>
      </trkpt>
      <trkpt lat="45.915873" lon="13.860357">
        <ele>628.47</ele>
      </trkpt>
      <trkpt lat="45.915808" lon="13.860329">
        <ele>627.26</ele>
      </trkpt>
      <trkpt lat="45.915728" lon="13.860296">
        <ele>625.78</ele>
      </trkpt>
      <trkpt lat="45.915608" lon="13.860226">
        <ele>623.77</ele>
      </trkpt>
      <trkpt lat="45.915485" lon="13.859941">
        <ele>620.71</ele>
      </trkpt>
      <trkpt lat="45.91535" lon="13.859647">
        <ele>619.59</ele>
      </trkpt>
      <trkpt lat="45.914943" lon="13.859413">
        <ele>611.09</ele>
      </trkpt>
      <trkpt lat="45.91463" lon="13.859308">
        <ele>601.84</ele>
      </trkpt>
      <trkpt lat="45.913839" lon="13.859357">
        <ele>574.5</ele>
      </trkpt>
      <trkpt lat="45.91356" lon="13.859539">
        <ele>565.08</ele>
      </trkpt>
      <trkpt lat="45.913025" lon="13.859585">
        <ele>549.07</ele>
      </trkpt>
      <trkpt lat="45.912758" lon="13.859608">
        <ele>543.51</ele>
      </trkpt>
      <trkpt lat="45.912515" lon="13.859656">
        <ele>540.06</ele>
      </trkpt>
      <trkpt lat="45.912048" lon="13.859712">
        <ele>531.41</ele>
      </trkpt>
      <trkpt lat="45.911838" lon="13.859738">
        <ele>526.08</ele>
      </trkpt>
      <trkpt lat="45.911331" lon="13.85985">
        <ele>514.93</ele>
      </trkpt>
      <trkpt lat="45.911352" lon="13.860052">
        <ele>514.67</ele>
      </trkpt>
      <trkpt lat="45.911044" lon="13.860401">
        <ele>510.75</ele>
      </trkpt>
      <trkpt lat="45.910866" lon="13.860735">
        <ele>509.31</ele>
      </trkpt>
      <trkpt lat="45.910773" lon="13.860937">
        <ele>508.89</ele>
      </trkpt>
      <trkpt lat="45.910789" lon="13.861087">
        <ele>508.03</ele>
      </trkpt>
      <trkpt lat="45.910847" lon="13.861412">
        <ele>504.23</ele>
      </trkpt>
      <trkpt lat="45.910899" lon="13.861648">
        <ele>504.16</ele>
      </trkpt>
      <trkpt lat="45.911041" lon="13.86201">
        <ele>492.47</ele>
      </trkpt>
      <trkpt lat="45.911078" lon="13.862171">
        <ele>486.1</ele>
      </trkpt>
      <trkpt lat="45.910921" lon="13.862353">
        <ele>478.61</ele>
      </trkpt>
      <trkpt lat="45.910772" lon="13.862429">
        <ele>474.61</ele>
      </trkpt>
      <trkpt lat="45.910593" lon="13.862836">
        <ele>465.46</ele>
      </trkpt>
      <trkpt lat="45.910485" lon="13.863109">
        <ele>459.39</ele>
      </trkpt>
      <trkpt lat="45.910421" lon="13.863192">
        <ele>457.27</ele>
      </trkpt>
      <trkpt lat="45.910332" lon="13.863308">
        <ele>454.31</ele>
      </trkpt>
      <trkpt lat="45.910197" lon="13.863509">
        <ele>448.56</ele>
      </trkpt>
      <trkpt lat="45.910211" lon="13.863838">
        <ele>443.66</ele>
      </trkpt>
      <trkpt lat="45.910228" lon="13.863981">
        <ele>441.44</ele>
      </trkpt>
      <trkpt lat="45.910227" lon="13.864074">
        <ele>440.16</ele>
      </trkpt>
      <trkpt lat="45.910182" lon="13.864191">
        <ele>438.04</ele>
      </trkpt>
      <trkpt lat="45.91017" lon="13.864257">
        <ele>437.08</ele>
      </trkpt>
      <trkpt lat="45.910174" lon="13.864377">
        <ele>435.75</ele>
      </trkpt>
      <trkpt lat="45.910201" lon="13.864539">
        <ele>434.25</ele>
      </trkpt>
      <trkpt lat="45.910208" lon="13.864539">
        <ele>430.52195641961646</ele>
      </trkpt>
      <trkpt lat="45.9101130762883" lon="13.864700692316319">
        <ele>424.7922879995466</ele>
      </trkpt>
      <trkpt lat="45.91004408947387" lon="13.864923777171782">
        <ele>417.61366745396117</ele>
      </trkpt>
      <trkpt lat="45.90996647920457" lon="13.864985745187624">
        <ele>415.0538453958744</ele>
      </trkpt>
      <trkpt lat="45.90996647920457" lon="13.864985745187624">
        <ele>415.0538453958744</ele>
      </trkpt>
      <trkpt lat="45.909854375291246" lon="13.865035319599542">
        <ele>411.64024424319746</ele>
      </trkpt>
      <trkpt lat="45.909854375291246" lon="13.865035319599542">
        <ele>411.64024424319746</ele>
      </trkpt>
      <trkpt lat="45.90972502434022" lon="13.865022925996556">
        <ele>408.75495340824904</ele>
      </trkpt>
      <trkpt lat="45.90971" lon="13.865041">
        <ele>411.99</ele>
      </trkpt>
      <trkpt lat="45.909517" lon="13.864724">
        <ele>408.6467726497351</ele>
      </trkpt>
      <trkpt lat="45.9093453714508" lon="13.864925921619317">
        <ele>404.59063524909004</ele>
      </trkpt>
      <trkpt lat="45.90923326622067" lon="13.865173793680782">
        <ele>401.1148620898958</ele>
      </trkpt>
      <trkpt lat="45.90907804322066" lon="13.865347304123674">
        <ele>396.9227780976977</ele>
      </trkpt>
      <trkpt lat="45.909112537257954" lon="13.865570388979222">
        <ele>394.39782438869725</ele>
      </trkpt>
      <trkpt lat="45.909155654774594" lon="13.86585544184993">
        <ele>389.92012628022746</ele>
      </trkpt>
      <trkpt lat="45.90912116076413" lon="13.86609092030892">
        <ele>384.91405267329577</ele>
      </trkpt>
      <trkpt lat="45.90901767860336" lon="13.866301611561084">
        <ele>378.1559110830815</ele>
      </trkpt>
      <trkpt lat="45.908974560979516" lon="13.866586664431793">
        <ele>372.0565700353628</ele>
      </trkpt>
      <trkpt lat="45.908974560979516" lon="13.866784962081482">
        <ele>369.5096307236986</ele>
      </trkpt>
      <trkpt lat="45.909034925643766" lon="13.866995653333646">
        <ele>366.52511708040277</ele>
      </trkpt>
      <trkpt lat="45.90916427827406" lon="13.867392248632143">
        <ele>361.78916440238726</ele>
      </trkpt>
      <trkpt lat="45.90925051319405" lon="13.86761533348772">
        <ele>359.4943015167345</ele>
      </trkpt>
      <trkpt lat="45.909319501034986" lon="13.867826024746165">
        <ele>356.66307427116476</ele>
      </trkpt>
      <trkpt lat="45.9092850071263" lon="13.867937567173897">
        <ele>354.41817228995376</ele>
      </trkpt>
      <trkpt lat="45.9093367479816" lon="13.868173045632858">
        <ele>351.35413058198355</ele>
      </trkpt>
      <trkpt lat="45.90929363060562" lon="13.868358949679191">
        <ele>347.1460603804383</ele>
      </trkpt>
      <trkpt lat="45.909155654776725" lon="13.868569640931383">
        <ele>343.5383400106897</ele>
      </trkpt>
      <trkpt lat="45.90900905508323" lon="13.86875554497766">
        <ele>338.4296615659274</ele>
      </trkpt>
      <trkpt lat="45.908845" lon="13.868893">
        <ele>336.66</ele>
      </trkpt>
      <trkpt lat="45.908846" lon="13.868894">
        <ele>336.69</ele>
      </trkpt>
      <trkpt lat="45.908886" lon="13.868962">
        <ele>336.1</ele>
      </trkpt>
      <trkpt lat="45.908931" lon="13.869019">
        <ele>336.17</ele>
      </trkpt>
      <trkpt lat="45.908978" lon="13.86912">
        <ele>336.43</ele>
      </trkpt>
      <trkpt lat="45.90914" lon="13.86926">
        <ele>336.35</ele>
      </trkpt>
      <trkpt lat="45.909421" lon="13.869292">
        <ele>336.83</ele>
      </trkpt>
      <trkpt lat="45.909448" lon="13.869304">
        <ele>336.91</ele>
      </trkpt>
      <trkpt lat="45.909515" lon="13.869335">
        <ele>337.11</ele>
      </trkpt>
      <trkpt lat="45.909579" lon="13.869424">
        <ele>337.57</ele>
      </trkpt>
      <trkpt lat="45.909649" lon="13.869549">
        <ele>338.09</ele>
      </trkpt>
      <trkpt lat="45.909724" lon="13.86975">
        <ele>338.96</ele>
      </trkpt>
      <trkpt lat="45.909759" lon="13.869896">
        <ele>340.02</ele>
      </trkpt>
      <trkpt lat="45.909777" lon="13.870055">
        <ele>340.48</ele>
      </trkpt>
      <trkpt lat="45.909772" lon="13.87022">
        <ele>340.34</ele>
      </trkpt>
      <trkpt lat="45.909744" lon="13.870401">
        <ele>339.9</ele>
      </trkpt>
      <trkpt lat="45.909678" lon="13.870626">
        <ele>340.1</ele>
      </trkpt>
      <trkpt lat="45.909474" lon="13.871134">
        <ele>339.28</ele>
      </trkpt>
      <trkpt lat="45.909375" lon="13.871356">
        <ele>337.01</ele>
      </trkpt>
      <trkpt lat="45.909347" lon="13.871503">
        <ele>336.18</ele>
      </trkpt>
      <trkpt lat="45.909335" lon="13.871678">
        <ele>334.56</ele>
      </trkpt>
      <trkpt lat="45.90934" lon="13.871879">
        <ele>331.21</ele>
      </trkpt>
      <trkpt lat="45.909319" lon="13.872054">
        <ele>326.93</ele>
      </trkpt>
      <trkpt lat="45.909275" lon="13.872172">
        <ele>324.88</ele>
      </trkpt>
      <trkpt lat="45.909222" lon="13.872225">
        <ele>323.42</ele>
      </trkpt>
      <trkpt lat="45.909167" lon="13.872221">
        <ele>321.91</ele>
      </trkpt>
      <trkpt lat="45.909127" lon="13.87218">
        <ele>320.52</ele>
      </trkpt>
      <trkpt lat="45.909055" lon="13.872005">
        <ele>317.34</ele>
      </trkpt>
      <trkpt lat="45.909012" lon="13.871751">
        <ele>314.29</ele>
      </trkpt>
      <trkpt lat="45.908982" lon="13.871469">
        <ele>310.88</ele>
      </trkpt>
      <trkpt lat="45.908973" lon="13.871255">
        <ele>308.58</ele>
      </trkpt>
      <trkpt lat="45.908952" lon="13.87116">
        <ele>308.88</ele>
      </trkpt>
      <trkpt lat="45.908912" lon="13.871097">
        <ele>307.8</ele>
      </trkpt>
      <trkpt lat="45.908884" lon="13.871083">
        <ele>307.12</ele>
      </trkpt>
      <trkpt lat="45.908857" lon="13.871091">
        <ele>306.5</ele>
      </trkpt>
      <trkpt lat="45.908804" lon="13.871223">
        <ele>305.96</ele>
      </trkpt>
      <trkpt lat="45.908767" lon="13.871402">
        <ele>304.31</ele>
      </trkpt>
      <trkpt lat="45.908707" lon="13.871667">
        <ele>301.11</ele>
      </trkpt>
      <trkpt lat="45.908682" lon="13.871711">
        <ele>299.55</ele>
      </trkpt>
      <trkpt lat="45.90865" lon="13.871742">
        <ele>298.35</ele>
      </trkpt>
      <trkpt lat="45.908615" lon="13.871761">
        <ele>297.43</ele>
      </trkpt>
      <trkpt lat="45.908574" lon="13.871758">
        <ele>296.35</ele>
      </trkpt>
      <trkpt lat="45.908527" lon="13.871733">
        <ele>294.94</ele>
      </trkpt>
      <trkpt lat="45.90848" lon="13.871693">
        <ele>293.4</ele>
      </trkpt>
      <trkpt lat="45.908281" lon="13.871367">
        <ele>288.43</ele>
      </trkpt>
      <trkpt lat="45.908256" lon="13.871326">
        <ele>287.81</ele>
      </trkpt>
      <trkpt lat="45.908218" lon="13.871286">
        <ele>286.6</ele>
      </trkpt>
      <trkpt lat="45.908182" lon="13.87127">
        <ele>285.31</ele>
      </trkpt>
      <trkpt lat="45.90815" lon="13.871273">
        <ele>284.26</ele>
      </trkpt>
      <trkpt lat="45.908103" lon="13.871298">
        <ele>282.7</ele>
      </trkpt>
      <trkpt lat="45.908007" lon="13.871404">
        <ele>280.05</ele>
      </trkpt>
      <trkpt lat="45.907869" lon="13.871526">
        <ele>277.31</ele>
      </trkpt>
      <trkpt lat="45.90779" lon="13.871622">
        <ele>276.14</ele>
      </trkpt>
      <trkpt lat="45.907727" lon="13.871896">
        <ele>272.54</ele>
      </trkpt>
      <trkpt lat="45.907694" lon="13.871979">
        <ele>271.73</ele>
      </trkpt>
      <trkpt lat="45.90765" lon="13.872013">
        <ele>270.97</ele>
      </trkpt>
      <trkpt lat="45.907612" lon="13.872014">
        <ele>270.17</ele>
      </trkpt>
      <trkpt lat="45.907475" lon="13.871959">
        <ele>267.03</ele>
      </trkpt>
      <trkpt lat="45.907289" lon="13.871794">
        <ele>263.59</ele>
      </trkpt>
      <trkpt lat="45.907233" lon="13.871769">
        <ele>262.63</ele>
      </trkpt>
      <trkpt lat="45.907177" lon="13.871783">
        <ele>261.15</ele>
      </trkpt>
      <trkpt lat="45.907126" lon="13.871822">
        <ele>259.62</ele>
      </trkpt>
      <trkpt lat="45.907051" lon="13.871958">
        <ele>257.58</ele>
      </trkpt>
      <trkpt lat="45.907007" lon="13.872084">
        <ele>256.12</ele>
      </trkpt>
      <trkpt lat="45.906949" lon="13.872388">
        <ele>251.91</ele>
      </trkpt>
      <trkpt lat="45.90683" lon="13.872662">
        <ele>247.74</ele>
      </trkpt>
      <trkpt lat="45.90675" lon="13.872793">
        <ele>245.35</ele>
      </trkpt>
      <trkpt lat="45.906567" lon="13.87298">
        <ele>242.09</ele>
      </trkpt>
      <trkpt lat="45.906517" lon="13.873072">
        <ele>241.32</ele>
      </trkpt>
      <trkpt lat="45.906447" lon="13.873414">
        <ele>239.87</ele>
      </trkpt>
      <trkpt lat="45.906379" lon="13.873613">
        <ele>238.82</ele>
      </trkpt>
      <trkpt lat="45.90629" lon="13.873779">
        <ele>237.64</ele>
      </trkpt>
      <trkpt lat="45.906286" lon="13.873788">
        <ele>237.58</ele>
      </trkpt>
      <trkpt lat="45.906216" lon="13.873854">
        <ele>236.12</ele>
      </trkpt>
      <trkpt lat="45.905957" lon="13.874066">
        <ele>232.68</ele>
      </trkpt>
      <trkpt lat="45.905894" lon="13.874161">
        <ele>231.71</ele>
      </trkpt>
      <trkpt lat="45.905833" lon="13.874289">
        <ele>229.62</ele>
      </trkpt>
      <trkpt lat="45.905715" lon="13.874632">
        <ele>224.55</ele>
      </trkpt>
      <trkpt lat="45.90563" lon="13.87478">
        <ele>221.14</ele>
      </trkpt>
      <trkpt lat="45.905411" lon="13.875015">
        <ele>215.96</ele>
      </trkpt>
      <trkpt lat="45.905307" lon="13.875162">
        <ele>213.42</ele>
      </trkpt>
      <trkpt lat="45.905243" lon="13.875298">
        <ele>211.72</ele>
      </trkpt>
      <trkpt lat="45.905108" lon="13.875519">
        <ele>206.35</ele>
      </trkpt>
      <trkpt lat="45.904984" lon="13.875666">
        <ele>203.54</ele>
      </trkpt>
      <trkpt lat="45.904626" lon="13.876022">
        <ele>197.07</ele>
      </trkpt>
      <trkpt lat="45.904333" lon="13.876368">
        <ele>193.26</ele>
      </trkpt>
      <trkpt lat="45.904303" lon="13.876404">
        <ele>192.87</ele>
      </trkpt>
      <trkpt lat="45.904163" lon="13.876511">
        <ele>191.65</ele>
      </trkpt>
      <trkpt lat="45.904013" lon="13.87661">
        <ele>189.22</ele>
      </trkpt>
      <trkpt lat="45.903909" lon="13.876704">
        <ele>188.23</ele>
      </trkpt>
      <trkpt lat="45.903831" lon="13.876822">
        <ele>187.19</ele>
      </trkpt>
      <trkpt lat="45.903788" lon="13.876927">
        <ele>187.12</ele>
      </trkpt>
      <trkpt lat="45.903749" lon="13.877109">
        <ele>186.45</ele>
      </trkpt>
      <trkpt lat="45.903723" lon="13.877096">
        <ele>186.09</ele>
      </trkpt>
      <trkpt lat="45.903638" lon="13.877086">
        <ele>185</ele>
      </trkpt>
      <trkpt lat="45.903588" lon="13.877135">
        <ele>184.88</ele>
      </trkpt>
      <trkpt lat="45.90355" lon="13.877214">
        <ele>184.91</ele>
      </trkpt>
      <trkpt lat="45.903466" lon="13.877511">
        <ele>183.23</ele>
      </trkpt>
      <trkpt lat="45.903371" lon="13.877795">
        <ele>182.05</ele>
      </trkpt>
      <trkpt lat="45.903171" lon="13.878084">
        <ele>180.19</ele>
      </trkpt>
      <trkpt lat="45.903127" lon="13.878185">
        <ele>179.47</ele>
      </trkpt>
      <trkpt lat="45.903092" lon="13.878267">
        <ele>178.88</ele>
      </trkpt>
      <trkpt lat="45.903074" lon="13.878356">
        <ele>178.47</ele>
      </trkpt>
      <trkpt lat="45.903022" lon="13.878526">
        <ele>177.45</ele>
      </trkpt>
      <trkpt lat="45.902982" lon="13.878737">
        <ele>176.41</ele>
      </trkpt>
      <trkpt lat="45.902976" lon="13.878802">
        <ele>176.03</ele>
      </trkpt>
      <trkpt lat="45.902903" lon="13.87885">
        <ele>176.14</ele>
      </trkpt>
      <trkpt lat="45.902764" lon="13.878815">
        <ele>176.09</ele>
      </trkpt>
      <trkpt lat="45.902633" lon="13.878732">
        <ele>176.3</ele>
      </trkpt>
      <trkpt lat="45.90257" lon="13.878709">
        <ele>176.4</ele>
      </trkpt>
      <trkpt lat="45.902485" lon="13.878695">
        <ele>175.85</ele>
      </trkpt>
      <trkpt lat="45.902301" lon="13.878715">
        <ele>174.01</ele>
      </trkpt>
      <trkpt lat="45.902195" lon="13.878697">
        <ele>172.93</ele>
      </trkpt>
      <trkpt lat="45.901909" lon="13.878827">
        <ele>170.54</ele>
      </trkpt>
      <trkpt lat="45.90179" lon="13.878869">
        <ele>170.16</ele>
      </trkpt>
      <trkpt lat="45.901586" lon="13.878998">
        <ele>168.72</ele>
      </trkpt>
      <trkpt lat="45.901385" lon="13.879108">
        <ele>167.04</ele>
      </trkpt>
      <trkpt lat="45.901278" lon="13.879148">
        <ele>166.89</ele>
      </trkpt>
      <trkpt lat="45.901241" lon="13.879161">
        <ele>166.83</ele>
      </trkpt>
      <trkpt lat="45.901195" lon="13.879219">
        <ele>166.45</ele>
      </trkpt>
      <trkpt lat="45.901093" lon="13.879421">
        <ele>165.6</ele>
      </trkpt>
      <trkpt lat="45.901112" lon="13.879516">
        <ele>165.63</ele>
      </trkpt>
      <trkpt lat="45.901127" lon="13.879696">
        <ele>164.57</ele>
      </trkpt>
      <trkpt lat="45.901238" lon="13.879776">
        <ele>165.38</ele>
      </trkpt>
      <trkpt lat="45.901329" lon="13.879852">
        <ele>165.42</ele>
      </trkpt>
      <trkpt lat="45.901405" lon="13.879974">
        <ele>164.52</ele>
      </trkpt>
      <trkpt lat="45.901489" lon="13.880149">
        <ele>163.2</ele>
      </trkpt>
      <trkpt lat="45.901539" lon="13.880424">
        <ele>163.03</ele>
      </trkpt>
    </trkseg>
  </trk>
</gpx>
