<?xml version="1.0" encoding="UTF-8"?>
<gpx creator="https://gpx.studio" version="1.1" xmlns="http://www.topografix.com/GPX/1/1" xmlns:xsi="http://www.w3.org/2001/XMLSchema-instance" xsi:schemaLocation="http://www.topografix.com/GPX/1/1 http://www.topografix.com/GPX/1/1/gpx.xsd http://www.garmin.com/xmlschemas/GpxExtensions/v3 http://www.garmin.com/xmlschemas/GpxExtensionsv3.xsd http://www.garmin.com/xmlschemas/TrackPointExtension/v1 http://www.garmin.com/xmlschemas/TrackPointExtensionv1.xsd http://www.garmin.com/xmlschemas/PowerExtension/v1 http://www.garmin.com/xmlschemas/PowerExtensionv1.xsd http://www.topografix.com/GPX/gpx_style/0/2 http://www.topografix.com/GPX/gpx_style/0/2/gpx_style.xsd" xmlns:gpxtpx="http://www.garmin.com/xmlschemas/TrackPointExtension/v1" xmlns:gpxx="http://www.garmin.com/xmlschemas/GpxExtensions/v3" xmlns:gpxpx="http://www.garmin.com/xmlschemas/PowerExtension/v1" xmlns:gpx_style="http://www.topografix.com/GPX/gpx_style/0/2">
  <metadata>
    <name>New file 1</name>
    <author>
      <name>gpx.studio</name>
      <link href="https://gpx.studio"/>
    </author>
  </metadata>
  <trk>
    <name>New file 1</name>
    <trkseg>
      <trkpt lat="45.901608" lon="13.880502">
        <ele>163.07</ele>
      </trkpt>
      <trkpt lat="45.90163" lon="13.880515">
        <ele>163.09</ele>
      </trkpt>
      <trkpt lat="45.901866" lon="13.880934">
        <ele>163.98</ele>
      </trkpt>
      <trkpt lat="45.902005" lon="13.881143">
        <ele>164.26</ele>
      </trkpt>
      <trkpt lat="45.902351" lon="13.881609">
        <ele>164.7</ele>
      </trkpt>
      <trkpt lat="45.902351" lon="13.881609">
        <ele>164.7</ele>
      </trkpt>
      <trkpt lat="45.902353" lon="13.881611">
        <ele>164.7</ele>
      </trkpt>
      <trkpt lat="45.902783" lon="13.881224">
        <ele>166.72</ele>
      </trkpt>
      <trkpt lat="45.903077" lon="13.881046">
        <ele>168.18</ele>
      </trkpt>
      <trkpt lat="45.903344" lon="13.880874">
        <ele>170.4</ele>
      </trkpt>
      <trkpt lat="45.90351" lon="13.880674">
        <ele>171.8</ele>
      </trkpt>
      <trkpt lat="45.903698" lon="13.880567">
        <ele>172.37</ele>
      </trkpt>
      <trkpt lat="45.903882" lon="13.880458">
        <ele>173.91</ele>
      </trkpt>
      <trkpt lat="45.903972" lon="13.880361">
        <ele>174.63</ele>
      </trkpt>
      <trkpt lat="45.904006" lon="13.880283">
        <ele>174.94</ele>
      </trkpt>
      <trkpt lat="45.904007" lon="13.880141">
        <ele>174.95</ele>
      </trkpt>
      <trkpt lat="45.904027" lon="13.880104">
        <ele>175.12</ele>
      </trkpt>
      <trkpt lat="45.904075" lon="13.880051">
        <ele>175.56</ele>
      </trkpt>
      <trkpt lat="45.904075" lon="13.880051">
        <ele>175.56</ele>
      </trkpt>
      <trkpt lat="45.904126" lon="13.879995">
        <ele>176.03</ele>
      </trkpt>
      <trkpt lat="45.904285" lon="13.880214">
        <ele>178.05</ele>
      </trkpt>
      <trkpt lat="45.904326" lon="13.880257">
        <ele>177.92</ele>
      </trkpt>
      <trkpt lat="45.904365" lon="13.880276">
        <ele>177.89</ele>
      </trkpt>
      <trkpt lat="45.904477" lon="13.880236">
        <ele>178.65</ele>
      </trkpt>
      <trkpt lat="45.904562" lon="13.880231">
        <ele>179.14</ele>
      </trkpt>
      <trkpt lat="45.904612" lon="13.880215">
        <ele>179.63</ele>
      </trkpt>
      <trkpt lat="45.904765" lon="13.880115">
        <ele>181.28</ele>
      </trkpt>
      <trkpt lat="45.904798" lon="13.880119">
        <ele>181.56</ele>
      </trkpt>
      <trkpt lat="45.904832" lon="13.880156">
        <ele>181.84</ele>
      </trkpt>
      <trkpt lat="45.904859" lon="13.880161">
        <ele>182.14</ele>
      </trkpt>
      <trkpt lat="45.904891" lon="13.880143">
        <ele>182.67</ele>
      </trkpt>
      <trkpt lat="45.904908" lon="13.880093">
        <ele>182.95</ele>
      </trkpt>
      <trkpt lat="45.90494" lon="13.880087">
        <ele>183.49</ele>
      </trkpt>
      <trkpt lat="45.904976" lon="13.880098">
        <ele>184.06</ele>
      </trkpt>
      <trkpt lat="45.90502" lon="13.880081">
        <ele>184.73</ele>
      </trkpt>
      <trkpt lat="45.905086" lon="13.880041">
        <ele>186.37</ele>
      </trkpt>
      <trkpt lat="45.905141" lon="13.879973">
        <ele>187.29</ele>
      </trkpt>
      <trkpt lat="45.905449" lon="13.8795">
        <ele>197.8</ele>
      </trkpt>
      <trkpt lat="45.905544" lon="13.879384">
        <ele>199.61</ele>
      </trkpt>
      <trkpt lat="45.905635" lon="13.879311">
        <ele>202.69</ele>
      </trkpt>
      <trkpt lat="45.90586" lon="13.879203">
        <ele>207.85</ele>
      </trkpt>
      <trkpt lat="45.906506" lon="13.87902">
        <ele>223.5</ele>
      </trkpt>
      <trkpt lat="45.906594" lon="13.879028">
        <ele>225.25</ele>
      </trkpt>
      <trkpt lat="45.906674" lon="13.879017">
        <ele>226.97</ele>
      </trkpt>
      <trkpt lat="45.90675" lon="13.878952">
        <ele>229.23</ele>
      </trkpt>
      <trkpt lat="45.906787" lon="13.878879">
        <ele>231.27</ele>
      </trkpt>
      <trkpt lat="45.90687" lon="13.878618">
        <ele>235.29</ele>
      </trkpt>
      <trkpt lat="45.906912" lon="13.878537">
        <ele>237.09</ele>
      </trkpt>
      <trkpt lat="45.906971" lon="13.878478">
        <ele>237.99</ele>
      </trkpt>
      <trkpt lat="45.907047" lon="13.878435">
        <ele>238.51</ele>
      </trkpt>
      <trkpt lat="45.907232" lon="13.878374">
        <ele>239.98</ele>
      </trkpt>
      <trkpt lat="45.907308" lon="13.878334">
        <ele>240.24</ele>
      </trkpt>
      <trkpt lat="45.907407" lon="13.878247">
        <ele>241.36</ele>
      </trkpt>
      <trkpt lat="45.907595" lon="13.878018">
        <ele>245.36</ele>
      </trkpt>
      <trkpt lat="45.907686" lon="13.87795">
        <ele>246.69</ele>
      </trkpt>
      <trkpt lat="45.907904" lon="13.877868">
        <ele>252.2</ele>
      </trkpt>
      <trkpt lat="45.908258" lon="13.877618">
        <ele>260.22</ele>
      </trkpt>
      <trkpt lat="45.908331" lon="13.877528">
        <ele>260.94</ele>
      </trkpt>
      <trkpt lat="45.908376" lon="13.877415">
        <ele>262.68</ele>
      </trkpt>
      <trkpt lat="45.908717" lon="13.876993">
        <ele>274.51</ele>
      </trkpt>
      <trkpt lat="45.908966" lon="13.87656">
        <ele>285.35</ele>
      </trkpt>
      <trkpt lat="45.909333" lon="13.875915">
        <ele>298.16</ele>
      </trkpt>
      <trkpt lat="45.909395" lon="13.875843">
        <ele>300.16</ele>
      </trkpt>
      <trkpt lat="45.909548" lon="13.875801">
        <ele>301.27</ele>
      </trkpt>
      <trkpt lat="45.909677" lon="13.875734">
        <ele>302.83</ele>
      </trkpt>
      <trkpt lat="45.909773" lon="13.875721">
        <ele>303.49</ele>
      </trkpt>
      <trkpt lat="45.909905" lon="13.875705">
        <ele>304.38</ele>
      </trkpt>
      <trkpt lat="45.91004" lon="13.875678">
        <ele>305.49</ele>
      </trkpt>
      <trkpt lat="45.91013" lon="13.875645">
        <ele>306.19</ele>
      </trkpt>
      <trkpt lat="45.91018" lon="13.875642">
        <ele>307.27</ele>
      </trkpt>
      <trkpt lat="45.91024" lon="13.875664">
        <ele>307.79</ele>
      </trkpt>
      <trkpt lat="45.910431" lon="13.875772">
        <ele>312.12</ele>
      </trkpt>
      <trkpt lat="45.91052" lon="13.875789">
        <ele>313.46</ele>
      </trkpt>
      <trkpt lat="45.910587" lon="13.875776">
        <ele>314.85</ele>
      </trkpt>
      <trkpt lat="45.910674" lon="13.875714">
        <ele>318.51</ele>
      </trkpt>
      <trkpt lat="45.910749" lon="13.87569">
        <ele>319.3</ele>
      </trkpt>
      <trkpt lat="45.910825" lon="13.875644">
        <ele>319.67</ele>
      </trkpt>
      <trkpt lat="45.910989" lon="13.875453">
        <ele>322.14</ele>
      </trkpt>
      <trkpt lat="45.911124" lon="13.875462">
        <ele>323.16</ele>
      </trkpt>
      <trkpt lat="45.911209" lon="13.875443">
        <ele>324.87</ele>
      </trkpt>
      <trkpt lat="45.911288" lon="13.875405">
        <ele>326.74</ele>
      </trkpt>
      <trkpt lat="45.911382" lon="13.875306">
        <ele>330.57</ele>
      </trkpt>
      <trkpt lat="45.911534" lon="13.875252">
        <ele>334.31</ele>
      </trkpt>
      <trkpt lat="45.911631" lon="13.875238">
        <ele>335.64</ele>
      </trkpt>
      <trkpt lat="45.911707" lon="13.875171">
        <ele>338.27</ele>
      </trkpt>
      <trkpt lat="45.911837" lon="13.875076">
        <ele>343.09</ele>
      </trkpt>
      <trkpt lat="45.911866" lon="13.875064">
        <ele>343.94</ele>
      </trkpt>
      <trkpt lat="45.911866" lon="13.875064">
        <ele>343.94</ele>
      </trkpt>
      <trkpt lat="45.911973" lon="13.875022">
        <ele>347.04</ele>
      </trkpt>
      <trkpt lat="45.912048" lon="13.875011">
        <ele>348.5</ele>
      </trkpt>
      <trkpt lat="45.912107" lon="13.874855">
        <ele>354.76</ele>
      </trkpt>
      <trkpt lat="45.912178" lon="13.874819">
        <ele>356.56</ele>
      </trkpt>
      <trkpt lat="45.912231" lon="13.874792">
        <ele>357.91</ele>
      </trkpt>
      <trkpt lat="45.912291" lon="13.87472">
        <ele>360.18</ele>
      </trkpt>
      <trkpt lat="45.912366" lon="13.874605">
        <ele>363.08</ele>
      </trkpt>
      <trkpt lat="45.912532" lon="13.874299">
        <ele>369.84</ele>
      </trkpt>
      <trkpt lat="45.912719" lon="13.874077">
        <ele>376.37</ele>
      </trkpt>
      <trkpt lat="45.912687" lon="13.873956">
        <ele>378.61</ele>
      </trkpt>
      <trkpt lat="45.912688" lon="13.873885">
        <ele>379.84</ele>
      </trkpt>
      <trkpt lat="45.912701" lon="13.873803">
        <ele>381.33</ele>
      </trkpt>
      <trkpt lat="45.912764" lon="13.873708">
        <ele>383.86</ele>
      </trkpt>
      <trkpt lat="45.912834" lon="13.873412">
        <ele>389.84</ele>
      </trkpt>
      <trkpt lat="45.91283" lon="13.873203">
        <ele>393.78</ele>
      </trkpt>
      <trkpt lat="45.91283" lon="13.873203">
        <ele>393.78</ele>
      </trkpt>
      <trkpt lat="45.912824" lon="13.872927">
        <ele>398.99</ele>
      </trkpt>
      <trkpt lat="45.912828" lon="13.872843">
        <ele>400</ele>
      </trkpt>
      <trkpt lat="45.91285" lon="13.872737">
        <ele>401.42</ele>
      </trkpt>
      <trkpt lat="45.912918" lon="13.87253">
        <ele>405.29</ele>
      </trkpt>
      <trkpt lat="45.913116" lon="13.872082">
        <ele>415.25</ele>
      </trkpt>
      <trkpt lat="45.913152" lon="13.872015">
        <ele>416.34</ele>
      </trkpt>
      <trkpt lat="45.91319" lon="13.871861">
        <ele>417.94</ele>
      </trkpt>
      <trkpt lat="45.913294" lon="13.871628">
        <ele>421.97</ele>
      </trkpt>
      <trkpt lat="45.913349" lon="13.871402">
        <ele>427.11</ele>
      </trkpt>
      <trkpt lat="45.913537" lon="13.870882">
        <ele>436.31</ele>
      </trkpt>
      <trkpt lat="45.91361" lon="13.870714">
        <ele>439.55</ele>
      </trkpt>
      <trkpt lat="45.913666" lon="13.870542">
        <ele>443.5</ele>
      </trkpt>
      <trkpt lat="45.913704" lon="13.870466">
        <ele>445.9</ele>
      </trkpt>
      <trkpt lat="45.913753" lon="13.870412">
        <ele>448</ele>
      </trkpt>
      <trkpt lat="45.913844" lon="13.870073">
        <ele>454.19</ele>
      </trkpt>
      <trkpt lat="45.913881" lon="13.869906">
        <ele>455.97</ele>
      </trkpt>
      <trkpt lat="45.913922" lon="13.869771">
        <ele>457.76</ele>
      </trkpt>
      <trkpt lat="45.913976" lon="13.869476">
        <ele>462.56</ele>
      </trkpt>
      <trkpt lat="45.914" lon="13.869271">
        <ele>465.53</ele>
      </trkpt>
      <trkpt lat="45.914066" lon="13.869001">
        <ele>470.04</ele>
      </trkpt>
      <trkpt lat="45.914102" lon="13.868903">
        <ele>472.21</ele>
      </trkpt>
      <trkpt lat="45.914125" lon="13.868749">
        <ele>474.94</ele>
      </trkpt>
      <trkpt lat="45.91419" lon="13.86872">
        <ele>476.39</ele>
      </trkpt>
      <trkpt lat="45.914238" lon="13.868677">
        <ele>478.06</ele>
      </trkpt>
      <trkpt lat="45.91442" lon="13.868422">
        <ele>485.04</ele>
      </trkpt>
      <trkpt lat="45.914464" lon="13.868331">
        <ele>487.32</ele>
      </trkpt>
      <trkpt lat="45.914527" lon="13.868107">
        <ele>492.53</ele>
      </trkpt>
      <trkpt lat="45.91455" lon="13.867901">
        <ele>497.34</ele>
      </trkpt>
      <trkpt lat="45.914652" lon="13.867374">
        <ele>510.45</ele>
      </trkpt>
      <trkpt lat="45.91475" lon="13.8672">
        <ele>515.52</ele>
      </trkpt>
      <trkpt lat="45.914784" lon="13.867107">
        <ele>518.08</ele>
      </trkpt>
      <trkpt lat="45.914806" lon="13.86696">
        <ele>520.81</ele>
      </trkpt>
      <trkpt lat="45.914878" lon="13.866797">
        <ele>523.61</ele>
      </trkpt>
      <trkpt lat="45.914892" lon="13.866714">
        <ele>524.59</ele>
      </trkpt>
      <trkpt lat="45.914887" lon="13.86662">
        <ele>525.59</ele>
      </trkpt>
      <trkpt lat="45.914898" lon="13.866462">
        <ele>528.25</ele>
      </trkpt>
      <trkpt lat="45.91476" lon="13.866012">
        <ele>532.78</ele>
      </trkpt>
      <trkpt lat="45.914846" lon="13.865903">
        <ele>535.59</ele>
      </trkpt>
      <trkpt lat="45.914921" lon="13.865829">
        <ele>537.87</ele>
      </trkpt>
      <trkpt lat="45.915027" lon="13.865808">
        <ele>541.24</ele>
      </trkpt>
      <trkpt lat="45.915154" lon="13.865829">
        <ele>544.13</ele>
      </trkpt>
      <trkpt lat="45.915392" lon="13.865851">
        <ele>547.77</ele>
      </trkpt>
      <trkpt lat="45.915558" lon="13.865866">
        <ele>550.28</ele>
      </trkpt>
      <trkpt lat="45.915726" lon="13.865906">
        <ele>553.63</ele>
      </trkpt>
      <trkpt lat="45.915908" lon="13.865894">
        <ele>557.01</ele>
      </trkpt>
      <trkpt lat="45.91601" lon="13.865859">
        <ele>559.32</ele>
      </trkpt>
      <trkpt lat="45.916117" lon="13.865765">
        <ele>562.7</ele>
      </trkpt>
      <trkpt lat="45.916166" lon="13.865596">
        <ele>566.89</ele>
      </trkpt>
      <trkpt lat="45.916234" lon="13.86547">
        <ele>569.85</ele>
      </trkpt>
      <trkpt lat="45.916311" lon="13.865394">
        <ele>572.48</ele>
      </trkpt>
      <trkpt lat="45.916472" lon="13.865318">
        <ele>577.11</ele>
      </trkpt>
      <trkpt lat="45.916707" lon="13.865215">
        <ele>581.3</ele>
      </trkpt>
      <trkpt lat="45.91686" lon="13.865214">
        <ele>584.41</ele>
      </trkpt>
      <trkpt lat="45.916991" lon="13.865234">
        <ele>586.23</ele>
      </trkpt>
      <trkpt lat="45.917017" lon="13.865295">
        <ele>586.54</ele>
      </trkpt>
      <trkpt lat="45.917047" lon="13.865364">
        <ele>586.9</ele>
      </trkpt>
      <trkpt lat="45.91709" lon="13.865519">
        <ele>588.36</ele>
      </trkpt>
      <trkpt lat="45.917147" lon="13.865544">
        <ele>590.75</ele>
      </trkpt>
      <trkpt lat="45.91718" lon="13.865575">
        <ele>592.36</ele>
      </trkpt>
      <trkpt lat="45.91721" lon="13.865655">
        <ele>595.53</ele>
      </trkpt>
      <trkpt lat="45.91724" lon="13.865688">
        <ele>597.86</ele>
      </trkpt>
      <trkpt lat="45.91728" lon="13.865757">
        <ele>601.29</ele>
      </trkpt>
      <trkpt lat="45.917326" lon="13.865793">
        <ele>604.23</ele>
      </trkpt>
      <trkpt lat="45.917367" lon="13.865786">
        <ele>606.36</ele>
      </trkpt>
      <trkpt lat="45.917458" lon="13.865739">
        <ele>610.72</ele>
      </trkpt>
      <trkpt lat="45.9176" lon="13.865612">
        <ele>616.71</ele>
      </trkpt>
      <trkpt lat="45.9177" lon="13.865499">
        <ele>620.85</ele>
      </trkpt>
      <trkpt lat="45.917825" lon="13.86533">
        <ele>626</ele>
      </trkpt>
      <trkpt lat="45.917924" lon="13.865239">
        <ele>629.78</ele>
      </trkpt>
      <trkpt lat="45.918004" lon="13.86519">
        <ele>632.82</ele>
      </trkpt>
      <trkpt lat="45.918067" lon="13.865103">
        <ele>634.84</ele>
      </trkpt>
      <trkpt lat="45.918164" lon="13.864905">
        <ele>639.4</ele>
      </trkpt>
      <trkpt lat="45.918324" lon="13.864675">
        <ele>646</ele>
      </trkpt>
      <trkpt lat="45.918374" lon="13.864644">
        <ele>647.69</ele>
      </trkpt>
      <trkpt lat="45.918453" lon="13.86456">
        <ele>650.75</ele>
      </trkpt>
      <trkpt lat="45.918522" lon="13.864523">
        <ele>653.07</ele>
      </trkpt>
      <trkpt lat="45.918647" lon="13.864481">
        <ele>657.9</ele>
      </trkpt>
      <trkpt lat="45.918807" lon="13.864405">
        <ele>665.28</ele>
      </trkpt>
      <trkpt lat="45.918858" lon="13.864358">
        <ele>668.2</ele>
      </trkpt>
      <trkpt lat="45.918903" lon="13.864354">
        <ele>669.7</ele>
      </trkpt>
      <trkpt lat="45.918972" lon="13.864373">
        <ele>671.84</ele>
      </trkpt>
      <trkpt lat="45.919095" lon="13.864288">
        <ele>676.95</ele>
      </trkpt>
      <trkpt lat="45.919166" lon="13.864262">
        <ele>679.61</ele>
      </trkpt>
      <trkpt lat="45.919243" lon="13.864257">
        <ele>682.5</ele>
      </trkpt>
      <trkpt lat="45.919296" lon="13.864234">
        <ele>684.98</ele>
      </trkpt>
      <trkpt lat="45.919344" lon="13.864199">
        <ele>687.3</ele>
      </trkpt>
      <trkpt lat="45.919405" lon="13.864177">
        <ele>689.58</ele>
      </trkpt>
      <trkpt lat="45.919476" lon="13.864123">
        <ele>692.6</ele>
      </trkpt>
      <trkpt lat="45.919515" lon="13.864127">
        <ele>693.84</ele>
      </trkpt>
      <trkpt lat="45.91972" lon="13.864052">
        <ele>701.53</ele>
      </trkpt>
      <trkpt lat="45.919848" lon="13.864069">
        <ele>705.03</ele>
      </trkpt>
      <trkpt lat="45.919976" lon="13.864013">
        <ele>709.59</ele>
      </trkpt>
      <trkpt lat="45.920178" lon="13.863956">
        <ele>717.41</ele>
      </trkpt>
      <trkpt lat="45.920278" lon="13.863958">
        <ele>721.55</ele>
      </trkpt>
      <trkpt lat="45.920482" lon="13.864061">
        <ele>724.63</ele>
      </trkpt>
      <trkpt lat="45.920676" lon="13.864092">
        <ele>727.46</ele>
      </trkpt>
      <trkpt lat="45.920885" lon="13.864043">
        <ele>731.32</ele>
      </trkpt>
      <trkpt lat="45.921034" lon="13.863928">
        <ele>736.37</ele>
      </trkpt>
      <trkpt lat="45.921094" lon="13.863853">
        <ele>739.18</ele>
      </trkpt>
      <trkpt lat="45.921252" lon="13.863777">
        <ele>745.16</ele>
      </trkpt>
      <trkpt lat="45.9213" lon="13.863744">
        <ele>747.71</ele>
      </trkpt>
      <trkpt lat="45.921335" lon="13.863701">
        <ele>750.13</ele>
      </trkpt>
      <trkpt lat="45.921392" lon="13.863573">
        <ele>755.87</ele>
      </trkpt>
      <trkpt lat="45.92146" lon="13.863562">
        <ele>758.65</ele>
      </trkpt>
      <trkpt lat="45.921489" lon="13.86353">
        <ele>760.55</ele>
      </trkpt>
      <trkpt lat="45.921529" lon="13.86346">
        <ele>765.51</ele>
      </trkpt>
      <trkpt lat="45.921659" lon="13.863425">
        <ele>775.99</ele>
      </trkpt>
      <trkpt lat="45.921702" lon="13.863429">
        <ele>778.89</ele>
      </trkpt>
      <trkpt lat="45.921731" lon="13.863467">
        <ele>779.77</ele>
      </trkpt>
      <trkpt lat="45.921784" lon="13.863481">
        <ele>784.8</ele>
      </trkpt>
      <trkpt lat="45.921826" lon="13.863516">
        <ele>788.04</ele>
      </trkpt>
      <trkpt lat="45.921945" lon="13.863518">
        <ele>796.56</ele>
      </trkpt>
      <trkpt lat="45.921972" lon="13.863501">
        <ele>799.05</ele>
      </trkpt>
      <trkpt lat="45.922086" lon="13.863414">
        <ele>804.05</ele>
      </trkpt>
      <trkpt lat="45.922148" lon="13.863422">
        <ele>805.92</ele>
      </trkpt>
      <trkpt lat="45.922222" lon="13.863344">
        <ele>811.11</ele>
      </trkpt>
      <trkpt lat="45.922237" lon="13.863314">
        <ele>812.23</ele>
      </trkpt>
      <trkpt lat="45.922297" lon="13.863196">
        <ele>816.7</ele>
      </trkpt>
      <trkpt lat="45.922396" lon="13.863114">
        <ele>826.07</ele>
      </trkpt>
      <trkpt lat="45.922498" lon="13.862996">
        <ele>841.88</ele>
      </trkpt>
      <trkpt lat="45.922577" lon="13.862915">
        <ele>848.56</ele>
      </trkpt>
      <trkpt lat="45.922706" lon="13.86274">
        <ele>853.87</ele>
      </trkpt>
      <trkpt lat="45.922781" lon="13.86261">
        <ele>856.65</ele>
      </trkpt>
      <trkpt lat="45.922881" lon="13.862589">
        <ele>865.25</ele>
      </trkpt>
      <trkpt lat="45.92303" lon="13.862419">
        <ele>875.15</ele>
      </trkpt>
      <trkpt lat="45.9231" lon="13.862309">
        <ele>881.38</ele>
      </trkpt>
      <trkpt lat="45.923134" lon="13.862192">
        <ele>885.55</ele>
      </trkpt>
      <trkpt lat="45.923234" lon="13.862178">
        <ele>893.15</ele>
      </trkpt>
      <trkpt lat="45.9233" lon="13.862121">
        <ele>898.43</ele>
      </trkpt>
      <trkpt lat="45.923408" lon="13.86195">
        <ele>907.61</ele>
      </trkpt>
      <trkpt lat="45.92349" lon="13.861898">
        <ele>913.72</ele>
      </trkpt>
      <trkpt lat="45.923603" lon="13.861749">
        <ele>923.03</ele>
      </trkpt>
      <trkpt lat="45.92374" lon="13.861679">
        <ele>933.3</ele>
      </trkpt>
      <trkpt lat="45.923781" lon="13.861607">
        <ele>936.55</ele>
      </trkpt>
      <trkpt lat="45.923894" lon="13.861613">
        <ele>944.2</ele>
      </trkpt>
      <trkpt lat="45.923991" lon="13.861469">
        <ele>951.58</ele>
      </trkpt>
      <trkpt lat="45.924062" lon="13.861389">
        <ele>957.1</ele>
      </trkpt>
      <trkpt lat="45.924165" lon="13.861396">
        <ele>965.13</ele>
      </trkpt>
      <trkpt lat="45.924216" lon="13.861361">
        <ele>969.34</ele>
      </trkpt>
      <trkpt lat="45.924295" lon="13.861238">
        <ele>976.22</ele>
      </trkpt>
      <trkpt lat="45.924335" lon="13.861252">
        <ele>979.34</ele>
      </trkpt>
      <trkpt lat="45.924481" lon="13.861458">
        <ele>989.35</ele>
      </trkpt>
      <trkpt lat="45.924521" lon="13.861493">
        <ele>991.61</ele>
      </trkpt>
      <trkpt lat="45.924585" lon="13.861531">
        <ele>994.8</ele>
      </trkpt>
      <trkpt lat="45.924604" lon="13.861529">
        <ele>995.85</ele>
      </trkpt>
      <trkpt lat="45.924605" lon="13.861501">
        <ele>996.44</ele>
      </trkpt>
      <trkpt lat="45.92465" lon="13.861516">
        <ele>999.01</ele>
      </trkpt>
      <trkpt lat="45.924672" lon="13.861512">
        <ele>1000.5</ele>
      </trkpt>
      <trkpt lat="45.924725" lon="13.861512">
        <ele>1003.45</ele>
      </trkpt>
      <trkpt lat="45.924769" lon="13.861467">
        <ele>1006.08</ele>
      </trkpt>
      <trkpt lat="45.924797" lon="13.861367">
        <ele>1010.7</ele>
      </trkpt>
      <trkpt lat="45.92483" lon="13.861288">
        <ele>1015.63</ele>
      </trkpt>
      <trkpt lat="45.924857" lon="13.861146">
        <ele>1019.35</ele>
      </trkpt>
      <trkpt lat="45.924902" lon="13.861063">
        <ele>1022.56</ele>
      </trkpt>
      <trkpt lat="45.924905" lon="13.861041">
        <ele>1023.42</ele>
      </trkpt>
      <trkpt lat="45.924916" lon="13.860933">
        <ele>1027.66</ele>
      </trkpt>
      <trkpt lat="45.924921" lon="13.860637">
        <ele>1034.68</ele>
      </trkpt>
      <trkpt lat="45.924943" lon="13.860529">
        <ele>1038.71</ele>
      </trkpt>
      <trkpt lat="45.924979" lon="13.860445">
        <ele>1042.99</ele>
      </trkpt>
      <trkpt lat="45.924984" lon="13.860387">
        <ele>1044.37</ele>
      </trkpt>
      <trkpt lat="45.925005" lon="13.860316">
        <ele>1047.43</ele>
      </trkpt>
      <trkpt lat="45.925004" lon="13.860236">
        <ele>1049.24</ele>
      </trkpt>
      <trkpt lat="45.925026" lon="13.860159">
        <ele>1052.23</ele>
      </trkpt>
      <trkpt lat="45.925023" lon="13.860112">
        <ele>1052.95</ele>
      </trkpt>
      <trkpt lat="45.925056" lon="13.85998">
        <ele>1057.43</ele>
      </trkpt>
      <trkpt lat="45.9251" lon="13.859937">
        <ele>1060.69</ele>
      </trkpt>
      <trkpt lat="45.92511" lon="13.859864">
        <ele>1062.87</ele>
      </trkpt>
      <trkpt lat="45.925127" lon="13.859833">
        <ele>1064.74</ele>
      </trkpt>
      <trkpt lat="45.925144" lon="13.859774">
        <ele>1067.16</ele>
      </trkpt>
      <trkpt lat="45.925146" lon="13.859717">
        <ele>1068.75</ele>
      </trkpt>
      <trkpt lat="45.925161" lon="13.859638">
        <ele>1071.23</ele>
      </trkpt>
      <trkpt lat="45.925209" lon="13.85961">
        <ele>1073.04</ele>
      </trkpt>
      <trkpt lat="45.925251" lon="13.859542">
        <ele>1075.45</ele>
      </trkpt>
      <trkpt lat="45.925256" lon="13.859518">
        <ele>1075.86</ele>
      </trkpt>
      <trkpt lat="45.925241" lon="13.859423">
        <ele>1076.58</ele>
      </trkpt>
      <trkpt lat="45.925263" lon="13.859362">
        <ele>1077.85</ele>
      </trkpt>
      <trkpt lat="45.925263" lon="13.859289">
        <ele>1078.75</ele>
      </trkpt>
      <trkpt lat="45.925405" lon="13.859074">
        <ele>1086.72</ele>
      </trkpt>
      <trkpt lat="45.925429" lon="13.859068">
        <ele>1087.85</ele>
      </trkpt>
      <trkpt lat="45.925458" lon="13.859039">
        <ele>1089.35</ele>
      </trkpt>
      <trkpt lat="45.925492" lon="13.859027">
        <ele>1090.48</ele>
      </trkpt>
      <trkpt lat="45.925511" lon="13.859006">
        <ele>1091.23</ele>
      </trkpt>
      <trkpt lat="45.925571" lon="13.858999">
        <ele>1092.34</ele>
      </trkpt>
      <trkpt lat="45.925592" lon="13.85898">
        <ele>1092.5</ele>
      </trkpt>
      <trkpt lat="45.925636" lon="13.858876">
        <ele>1093.94</ele>
      </trkpt>
      <trkpt lat="45.925661" lon="13.858778">
        <ele>1095.22</ele>
      </trkpt>
      <trkpt lat="45.925699" lon="13.858756">
        <ele>1095.89</ele>
      </trkpt>
      <trkpt lat="45.925712" lon="13.858708">
        <ele>1097.09</ele>
      </trkpt>
      <trkpt lat="45.92575" lon="13.858669">
        <ele>1098.38</ele>
      </trkpt>
      <trkpt lat="45.925867" lon="13.858569">
        <ele>1101.57</ele>
      </trkpt>
      <trkpt lat="45.92588" lon="13.85853">
        <ele>1102.74</ele>
      </trkpt>
      <trkpt lat="45.925882" lon="13.858475">
        <ele>1103.3</ele>
      </trkpt>
      <trkpt lat="45.925936" lon="13.858418">
        <ele>1105.39</ele>
      </trkpt>
      <trkpt lat="45.925977" lon="13.858407">
        <ele>1107.01</ele>
      </trkpt>
      <trkpt lat="45.926059" lon="13.85842">
        <ele>1109.36</ele>
      </trkpt>
      <trkpt lat="45.926104" lon="13.858388">
        <ele>1111.68</ele>
      </trkpt>
      <trkpt lat="45.926284" lon="13.858369">
        <ele>1116.26</ele>
      </trkpt>
      <trkpt lat="45.92646" lon="13.858227">
        <ele>1125.25</ele>
      </trkpt>
      <trkpt lat="45.926505" lon="13.858171">
        <ele>1127.8</ele>
      </trkpt>
      <trkpt lat="45.926559" lon="13.858131">
        <ele>1131.37</ele>
      </trkpt>
      <trkpt lat="45.926653" lon="13.858007">
        <ele>1137.23</ele>
      </trkpt>
      <trkpt lat="45.926732" lon="13.85802">
        <ele>1141.6</ele>
      </trkpt>
      <trkpt lat="45.92681" lon="13.858055">
        <ele>1143.68</ele>
      </trkpt>
      <trkpt lat="45.926825" lon="13.858039">
        <ele>1144.31</ele>
      </trkpt>
      <trkpt lat="45.926856" lon="13.857939">
        <ele>1146.63</ele>
      </trkpt>
      <trkpt lat="45.926923" lon="13.857787">
        <ele>1150.78</ele>
      </trkpt>
      <trkpt lat="45.926921" lon="13.857741">
        <ele>1151.28</ele>
      </trkpt>
      <trkpt lat="45.92694" lon="13.857577">
        <ele>1153.66</ele>
      </trkpt>
      <trkpt lat="45.926976" lon="13.857432">
        <ele>1155.97</ele>
      </trkpt>
      <trkpt lat="45.926982" lon="13.857358">
        <ele>1156.54</ele>
      </trkpt>
      <trkpt lat="45.927012" lon="13.857175">
        <ele>1158.52</ele>
      </trkpt>
      <trkpt lat="45.927012" lon="13.856901">
        <ele>1161.39</ele>
      </trkpt>
      <trkpt lat="45.927048" lon="13.856612">
        <ele>1167.1</ele>
      </trkpt>
      <trkpt lat="45.927072" lon="13.856522">
        <ele>1168.93</ele>
      </trkpt>
      <trkpt lat="45.927075" lon="13.856365">
        <ele>1171.75</ele>
      </trkpt>
      <trkpt lat="45.9271" lon="13.856258">
        <ele>1174.22</ele>
      </trkpt>
      <trkpt lat="45.927118" lon="13.856217">
        <ele>1175.54</ele>
      </trkpt>
      <trkpt lat="45.927131" lon="13.85608">
        <ele>1178.22</ele>
      </trkpt>
      <trkpt lat="45.927158" lon="13.855952">
        <ele>1178.78</ele>
      </trkpt>
      <trkpt lat="45.927302" lon="13.855757">
        <ele>1182.64</ele>
      </trkpt>
      <trkpt lat="45.927339" lon="13.855695">
        <ele>1183.6</ele>
      </trkpt>
      <trkpt lat="45.927485" lon="13.855532">
        <ele>1186.27</ele>
      </trkpt>
      <trkpt lat="45.927535" lon="13.855452">
        <ele>1187.86</ele>
      </trkpt>
      <trkpt lat="45.927595" lon="13.855392">
        <ele>1190.02</ele>
      </trkpt>
      <trkpt lat="45.927636" lon="13.855327">
        <ele>1191.15</ele>
      </trkpt>
      <trkpt lat="45.927696" lon="13.855267">
        <ele>1193.71</ele>
      </trkpt>
      <trkpt lat="45.927827" lon="13.854956">
        <ele>1198.72</ele>
      </trkpt>
      <trkpt lat="45.927882" lon="13.854802">
        <ele>1201.32</ele>
      </trkpt>
      <trkpt lat="45.927882" lon="13.854802">
        <ele>1201.32</ele>
      </trkpt>
      <trkpt lat="45.927928" lon="13.854671">
        <ele>1203.51</ele>
      </trkpt>
      <trkpt lat="45.927961" lon="13.854641">
        <ele>1205.28</ele>
      </trkpt>
      <trkpt lat="45.927994" lon="13.85459">
        <ele>1206.64</ele>
      </trkpt>
      <trkpt lat="45.928042" lon="13.854556">
        <ele>1208.84</ele>
      </trkpt>
      <trkpt lat="45.9281" lon="13.854488">
        <ele>1211.38</ele>
      </trkpt>
      <trkpt lat="45.928248" lon="13.854236">
        <ele>1217.13</ele>
      </trkpt>
      <trkpt lat="45.928387" lon="13.854076">
        <ele>1222.02</ele>
      </trkpt>
      <trkpt lat="45.928493" lon="13.853894">
        <ele>1224.63</ele>
      </trkpt>
      <trkpt lat="45.928634" lon="13.853766">
        <ele>1227.5</ele>
      </trkpt>
      <trkpt lat="45.928737" lon="13.853612">
        <ele>1229.55</ele>
      </trkpt>
      <trkpt lat="45.928801" lon="13.853476">
        <ele>1230.74</ele>
      </trkpt>
      <trkpt lat="45.92888" lon="13.853246">
        <ele>1234.19</ele>
      </trkpt>
      <trkpt lat="45.928881" lon="13.85325">
        <ele>1234.21</ele>
      </trkpt>
    </trkseg>
  </trk>
</gpx>
