<?xml version="1.0" encoding="UTF-8"?>
<gpx xmlns:gpxdata="http://www.cluetrust.com/XML/GPXDATA/1/0" xmlns:xsi="http://www.w3.org/2001/XMLSchema-instance" xmlns="http://www.topografix.com/GPX/1/1" version="1.1" creator="http://ridewithgps.com/" xsi:schemaLocation="http://www.topografix.com/GPX/1/1 http://www.topografix.com/GPX/1/1/gpx.xsd http://www.cluetrust.com/XML/GPXDATA/1/0 http://www.cluetrust.com/Schemas/gpxdata10.xsd">
  <metadata>
    <name>JAT 15 km 2026</name>
    <link href="https://ridewithgps.com/routes/55677887">
      <text>JAT 15 km 2026</text>
    </link>
    <time>2026-06-16T11:07:20Z</time>
  </metadata>
  <trk>
    <name>JAT 15 km 2026</name>
    <trkseg>
      <trkpt lat="46.48501" lon="13.78567">
        <ele>808.2</ele>
      </trkpt>
      <trkpt lat="46.48501" lon="13.78567">
        <ele>808.2</ele>
      </trkpt>
      <trkpt lat="46.485025" lon="13.785674">
        <ele>808.1</ele>
      </trkpt>
      <trkpt lat="46.48514" lon="13.78571">
        <ele>807.9</ele>
      </trkpt>
      <trkpt lat="46.48548" lon="13.78582">
        <ele>807.4</ele>
      </trkpt>
      <trkpt lat="46.4857" lon="13.78588">
        <ele>807.2</ele>
      </trkpt>
      <trkpt lat="46.48588" lon="13.7859">
        <ele>807.0</ele>
      </trkpt>
      <trkpt lat="46.48588" lon="13.7859">
        <ele>807.0</ele>
      </trkpt>
      <trkpt lat="46.48607" lon="13.78592">
        <ele>806.7</ele>
      </trkpt>
      <trkpt lat="46.48639" lon="13.78586">
        <ele>806.3</ele>
      </trkpt>
      <trkpt lat="46.486523" lon="13.785831">
        <ele>806.2</ele>
      </trkpt>
      <trkpt lat="46.48653" lon="13.78583">
        <ele>806.2</ele>
      </trkpt>
      <trkpt lat="46.48656" lon="13.78604">
        <ele>805.7</ele>
      </trkpt>
      <trkpt lat="46.48683" lon="13.78679">
        <ele>803.4</ele>
      </trkpt>
      <trkpt lat="46.48689" lon="13.787">
        <ele>803.0</ele>
      </trkpt>
      <trkpt lat="46.48695" lon="13.78723">
        <ele>802.5</ele>
      </trkpt>
      <trkpt lat="46.48701" lon="13.7876">
        <ele>802.0</ele>
      </trkpt>
      <trkpt lat="46.48707" lon="13.78828">
        <ele>802.5</ele>
      </trkpt>
      <trkpt lat="46.48713" lon="13.78896">
        <ele>800.9</ele>
      </trkpt>
      <trkpt lat="46.48702" lon="13.78896">
        <ele>801.1</ele>
      </trkpt>
      <trkpt lat="46.48675" lon="13.78885">
        <ele>802.0</ele>
      </trkpt>
      <trkpt lat="46.48643" lon="13.78872">
        <ele>802.4</ele>
      </trkpt>
      <trkpt lat="46.48637" lon="13.78866">
        <ele>802.5</ele>
      </trkpt>
      <trkpt lat="46.48612" lon="13.78829">
        <ele>802.8</ele>
      </trkpt>
      <trkpt lat="46.486" lon="13.78816">
        <ele>802.9</ele>
      </trkpt>
      <trkpt lat="46.48585" lon="13.78793">
        <ele>803.5</ele>
      </trkpt>
      <trkpt lat="46.48573" lon="13.7879">
        <ele>803.6</ele>
      </trkpt>
      <trkpt lat="46.48558" lon="13.7878">
        <ele>803.9</ele>
      </trkpt>
      <trkpt lat="46.48525" lon="13.78715">
        <ele>806.0</ele>
      </trkpt>
      <trkpt lat="46.48504" lon="13.78702">
        <ele>806.2</ele>
      </trkpt>
      <trkpt lat="46.48499" lon="13.78698">
        <ele>806.2</ele>
      </trkpt>
      <trkpt lat="46.48494" lon="13.78692">
        <ele>806.3</ele>
      </trkpt>
      <trkpt lat="46.48474" lon="13.7865">
        <ele>807.0</ele>
      </trkpt>
      <trkpt lat="46.48456" lon="13.78669">
        <ele>806.4</ele>
      </trkpt>
      <trkpt lat="46.48453" lon="13.7867">
        <ele>806.3</ele>
      </trkpt>
      <trkpt lat="46.48449" lon="13.7867">
        <ele>806.2</ele>
      </trkpt>
      <trkpt lat="46.48409" lon="13.78659">
        <ele>806.3</ele>
      </trkpt>
      <trkpt lat="46.48379" lon="13.78655">
        <ele>806.4</ele>
      </trkpt>
      <trkpt lat="46.48363" lon="13.78656">
        <ele>806.3</ele>
      </trkpt>
      <trkpt lat="46.4835" lon="13.78663">
        <ele>806.1</ele>
      </trkpt>
      <trkpt lat="46.48338" lon="13.78621">
        <ele>807.1</ele>
      </trkpt>
      <trkpt lat="46.48326" lon="13.78584">
        <ele>811.2</ele>
      </trkpt>
      <trkpt lat="46.48318" lon="13.78592">
        <ele>812.6</ele>
      </trkpt>
      <trkpt lat="46.48301" lon="13.78605">
        <ele>815.4</ele>
      </trkpt>
      <trkpt lat="46.48294" lon="13.78612">
        <ele>816.6</ele>
      </trkpt>
      <trkpt lat="46.48284" lon="13.7859">
        <ele>819.3</ele>
      </trkpt>
      <trkpt lat="46.482836" lon="13.785902">
        <ele>819.3</ele>
      </trkpt>
      <trkpt lat="46.48283" lon="13.78589">
        <ele>819.6</ele>
      </trkpt>
      <trkpt lat="46.48269" lon="13.7854">
        <ele>819.8</ele>
      </trkpt>
      <trkpt lat="46.48259" lon="13.78522">
        <ele>819.9</ele>
      </trkpt>
      <trkpt lat="46.482529" lon="13.785">
        <ele>818.6</ele>
      </trkpt>
      <trkpt lat="46.482506" lon="13.785023">
        <ele>819.2</ele>
      </trkpt>
      <trkpt lat="46.482321" lon="13.78458">
        <ele>824.2</ele>
      </trkpt>
      <trkpt lat="46.48209" lon="13.784237">
        <ele>825.6</ele>
      </trkpt>
      <trkpt lat="46.481929" lon="13.783884">
        <ele>825.9</ele>
      </trkpt>
      <trkpt lat="46.481913" lon="13.783765">
        <ele>825.4</ele>
      </trkpt>
      <trkpt lat="46.481568" lon="13.78308">
        <ele>824.3</ele>
      </trkpt>
      <trkpt lat="46.481452" lon="13.782967">
        <ele>823.7</ele>
      </trkpt>
      <trkpt lat="46.481257" lon="13.783006">
        <ele>823.4</ele>
      </trkpt>
      <trkpt lat="46.481056" lon="13.783023">
        <ele>825.5</ele>
      </trkpt>
      <trkpt lat="46.480939" lon="13.782979">
        <ele>827.8</ele>
      </trkpt>
      <trkpt lat="46.480471" lon="13.782921">
        <ele>828.3</ele>
      </trkpt>
      <trkpt lat="46.480368" lon="13.782881">
        <ele>828.0</ele>
      </trkpt>
      <trkpt lat="46.480153" lon="13.782652">
        <ele>827.6</ele>
      </trkpt>
      <trkpt lat="46.48004" lon="13.782581">
        <ele>828.1</ele>
      </trkpt>
      <trkpt lat="46.479878" lon="13.782487">
        <ele>828.4</ele>
      </trkpt>
      <trkpt lat="46.479396" lon="13.78229">
        <ele>828.8</ele>
      </trkpt>
      <trkpt lat="46.47925" lon="13.78216">
        <ele>829.3</ele>
      </trkpt>
      <trkpt lat="46.47904" lon="13.781828">
        <ele>829.6</ele>
      </trkpt>
      <trkpt lat="46.478794" lon="13.781573">
        <ele>827.8</ele>
      </trkpt>
      <trkpt lat="46.478597" lon="13.781253">
        <ele>826.2</ele>
      </trkpt>
      <trkpt lat="46.478399" lon="13.781128">
        <ele>826.1</ele>
      </trkpt>
      <trkpt lat="46.478306" lon="13.781115">
        <ele>826.3</ele>
      </trkpt>
      <trkpt lat="46.478246" lon="13.781193">
        <ele>826.8</ele>
      </trkpt>
      <trkpt lat="46.478169" lon="13.781219">
        <ele>827.7</ele>
      </trkpt>
      <trkpt lat="46.477984" lon="13.781198">
        <ele>828.7</ele>
      </trkpt>
      <trkpt lat="46.477918" lon="13.781276">
        <ele>829.4</ele>
      </trkpt>
      <trkpt lat="46.477853" lon="13.781297">
        <ele>830.1</ele>
      </trkpt>
      <trkpt lat="46.477652" lon="13.781303">
        <ele>831.0</ele>
      </trkpt>
      <trkpt lat="46.477504" lon="13.781343">
        <ele>831.8</ele>
      </trkpt>
      <trkpt lat="46.477379" lon="13.781388">
        <ele>832.5</ele>
      </trkpt>
      <trkpt lat="46.477328" lon="13.781449">
        <ele>832.6</ele>
      </trkpt>
      <trkpt lat="46.477251" lon="13.781457">
        <ele>832.0</ele>
      </trkpt>
      <trkpt lat="46.477143" lon="13.781333">
        <ele>831.2</ele>
      </trkpt>
      <trkpt lat="46.476956" lon="13.78117">
        <ele>830.1</ele>
      </trkpt>
      <trkpt lat="46.476899" lon="13.781171">
        <ele>829.2</ele>
      </trkpt>
      <trkpt lat="46.47681" lon="13.781136">
        <ele>829.1</ele>
      </trkpt>
      <trkpt lat="46.4767" lon="13.781222">
        <ele>829.9</ele>
      </trkpt>
      <trkpt lat="46.476643" lon="13.781321">
        <ele>830.7</ele>
      </trkpt>
      <trkpt lat="46.476514" lon="13.781409">
        <ele>831.3</ele>
      </trkpt>
      <trkpt lat="46.476312" lon="13.78141">
        <ele>831.7</ele>
      </trkpt>
      <trkpt lat="46.476187" lon="13.78131">
        <ele>831.7</ele>
      </trkpt>
      <trkpt lat="46.476168" lon="13.781333">
        <ele>831.4</ele>
      </trkpt>
      <trkpt lat="46.476139" lon="13.781329">
        <ele>831.0</ele>
      </trkpt>
      <trkpt lat="46.476021" lon="13.781281">
        <ele>831.2</ele>
      </trkpt>
      <trkpt lat="46.475899" lon="13.781284">
        <ele>831.5</ele>
      </trkpt>
      <trkpt lat="46.475747" lon="13.781315">
        <ele>831.9</ele>
      </trkpt>
      <trkpt lat="46.47556" lon="13.781397">
        <ele>832.7</ele>
      </trkpt>
      <trkpt lat="46.475471" lon="13.781482">
        <ele>833.7</ele>
      </trkpt>
      <trkpt lat="46.47553" lon="13.78198">
        <ele>834.9</ele>
      </trkpt>
      <trkpt lat="46.47562" lon="13.7821">
        <ele>836.1</ele>
      </trkpt>
      <trkpt lat="46.475704" lon="13.782217">
        <ele>837.9</ele>
      </trkpt>
      <trkpt lat="46.47579" lon="13.78239">
        <ele>839.5</ele>
      </trkpt>
      <trkpt lat="46.476028" lon="13.782638">
        <ele>841.2</ele>
      </trkpt>
      <trkpt lat="46.476085" lon="13.782705">
        <ele>842.9</ele>
      </trkpt>
      <trkpt lat="46.476144" lon="13.782835">
        <ele>844.9</ele>
      </trkpt>
      <trkpt lat="46.476196" lon="13.783025">
        <ele>847.8</ele>
      </trkpt>
      <trkpt lat="46.47621" lon="13.783525">
        <ele>852.2</ele>
      </trkpt>
      <trkpt lat="46.476158" lon="13.784273">
        <ele>858.3</ele>
      </trkpt>
      <trkpt lat="46.476044" lon="13.785046">
        <ele>865.6</ele>
      </trkpt>
      <trkpt lat="46.475916" lon="13.785651">
        <ele>872.8</ele>
      </trkpt>
      <trkpt lat="46.475879" lon="13.786082">
        <ele>879.1</ele>
      </trkpt>
      <trkpt lat="46.475831" lon="13.786299">
        <ele>883.8</ele>
      </trkpt>
      <trkpt lat="46.475768" lon="13.786449">
        <ele>886.6</ele>
      </trkpt>
      <trkpt lat="46.475686" lon="13.786547">
        <ele>888.6</ele>
      </trkpt>
      <trkpt lat="46.475522" lon="13.78662">
        <ele>890.5</ele>
      </trkpt>
      <trkpt lat="46.47515" lon="13.786835">
        <ele>892.7</ele>
      </trkpt>
      <trkpt lat="46.474894" lon="13.787002">
        <ele>894.7</ele>
      </trkpt>
      <trkpt lat="46.47467" lon="13.787199">
        <ele>896.9</ele>
      </trkpt>
      <trkpt lat="46.474553" lon="13.787267">
        <ele>900.8</ele>
      </trkpt>
      <trkpt lat="46.474488" lon="13.787344">
        <ele>905.0</ele>
      </trkpt>
      <trkpt lat="46.474317" lon="13.787833">
        <ele>908.5</ele>
      </trkpt>
      <trkpt lat="46.47423" lon="13.787982">
        <ele>911.6</ele>
      </trkpt>
      <trkpt lat="46.474156" lon="13.788016">
        <ele>913.2</ele>
      </trkpt>
      <trkpt lat="46.474112" lon="13.787975">
        <ele>911.8</ele>
      </trkpt>
      <trkpt lat="46.474052" lon="13.78777">
        <ele>909.6</ele>
      </trkpt>
      <trkpt lat="46.473995" lon="13.78766">
        <ele>907.3</ele>
      </trkpt>
      <trkpt lat="46.473914" lon="13.787634">
        <ele>905.7</ele>
      </trkpt>
      <trkpt lat="46.473852" lon="13.787655">
        <ele>905.7</ele>
      </trkpt>
      <trkpt lat="46.4738" lon="13.787724">
        <ele>906.7</ele>
      </trkpt>
      <trkpt lat="46.473808" lon="13.787801">
        <ele>908.1</ele>
      </trkpt>
      <trkpt lat="46.473839" lon="13.787853">
        <ele>910.0</ele>
      </trkpt>
      <trkpt lat="46.473917" lon="13.787892">
        <ele>913.6</ele>
      </trkpt>
      <trkpt lat="46.474002" lon="13.787978">
        <ele>917.0</ele>
      </trkpt>
      <trkpt lat="46.474111" lon="13.788304">
        <ele>920.2</ele>
      </trkpt>
      <trkpt lat="46.474179" lon="13.788357">
        <ele>922.5</ele>
      </trkpt>
      <trkpt lat="46.474249" lon="13.788341">
        <ele>922.9</ele>
      </trkpt>
      <trkpt lat="46.474386" lon="13.788168">
        <ele>920.9</ele>
      </trkpt>
      <trkpt lat="46.474473" lon="13.787926">
        <ele>918.5</ele>
      </trkpt>
      <trkpt lat="46.47458" lon="13.787801">
        <ele>917.5</ele>
      </trkpt>
      <trkpt lat="46.474711" lon="13.787764">
        <ele>919.0</ele>
      </trkpt>
      <trkpt lat="46.47546" lon="13.787786">
        <ele>922.1</ele>
      </trkpt>
      <trkpt lat="46.476431" lon="13.787964">
        <ele>926.0</ele>
      </trkpt>
      <trkpt lat="46.476583" lon="13.788007">
        <ele>930.0</ele>
      </trkpt>
      <trkpt lat="46.476712" lon="13.788133">
        <ele>933.8</ele>
      </trkpt>
      <trkpt lat="46.476776" lon="13.788311">
        <ele>936.1</ele>
      </trkpt>
      <trkpt lat="46.476873" lon="13.788779">
        <ele>938.7</ele>
      </trkpt>
      <trkpt lat="46.476967" lon="13.789032">
        <ele>942.0</ele>
      </trkpt>
      <trkpt lat="46.476951" lon="13.789183">
        <ele>945.4</ele>
      </trkpt>
      <trkpt lat="46.476831" lon="13.789447">
        <ele>948.1</ele>
      </trkpt>
      <trkpt lat="46.476791" lon="13.789586">
        <ele>950.4</ele>
      </trkpt>
      <trkpt lat="46.476846" lon="13.789779">
        <ele>952.0</ele>
      </trkpt>
      <trkpt lat="46.476902" lon="13.789853">
        <ele>952.6</ele>
      </trkpt>
      <trkpt lat="46.477016" lon="13.789901">
        <ele>952.4</ele>
      </trkpt>
      <trkpt lat="46.477136" lon="13.789893">
        <ele>950.6</ele>
      </trkpt>
      <trkpt lat="46.47728" lon="13.78983">
        <ele>948.6</ele>
      </trkpt>
      <trkpt lat="46.477574" lon="13.789571">
        <ele>946.7</ele>
      </trkpt>
      <trkpt lat="46.47767" lon="13.789516">
        <ele>945.1</ele>
      </trkpt>
      <trkpt lat="46.477911" lon="13.789535">
        <ele>944.0</ele>
      </trkpt>
      <trkpt lat="46.478065" lon="13.78958">
        <ele>944.3</ele>
      </trkpt>
      <trkpt lat="46.478154" lon="13.789636">
        <ele>945.3</ele>
      </trkpt>
      <trkpt lat="46.478274" lon="13.789771">
        <ele>946.1</ele>
      </trkpt>
      <trkpt lat="46.478559" lon="13.790166">
        <ele>946.9</ele>
      </trkpt>
      <trkpt lat="46.479162" lon="13.791272">
        <ele>947.7</ele>
      </trkpt>
      <trkpt lat="46.479254" lon="13.791597">
        <ele>948.3</ele>
      </trkpt>
      <trkpt lat="46.479306" lon="13.79178">
        <ele>948.2</ele>
      </trkpt>
      <trkpt lat="46.479299" lon="13.792249">
        <ele>948.3</ele>
      </trkpt>
      <trkpt lat="46.479342" lon="13.792444">
        <ele>947.4</ele>
      </trkpt>
      <trkpt lat="46.479434" lon="13.792679">
        <ele>944.5</ele>
      </trkpt>
      <trkpt lat="46.479629" lon="13.792938">
        <ele>941.2</ele>
      </trkpt>
      <trkpt lat="46.479933" lon="13.793268">
        <ele>937.7</ele>
      </trkpt>
      <trkpt lat="46.479966" lon="13.793309">
        <ele>933.2</ele>
      </trkpt>
      <trkpt lat="46.480088" lon="13.793301">
        <ele>932.0</ele>
      </trkpt>
      <trkpt lat="46.480377" lon="13.793525">
        <ele>929.9</ele>
      </trkpt>
      <trkpt lat="46.480727" lon="13.79387">
        <ele>923.9</ele>
      </trkpt>
      <trkpt lat="46.48075" lon="13.79408">
        <ele>921.6</ele>
      </trkpt>
      <trkpt lat="46.480783" lon="13.794378">
        <ele>921.1</ele>
      </trkpt>
      <trkpt lat="46.480848" lon="13.794717">
        <ele>920.7</ele>
      </trkpt>
      <trkpt lat="46.480797" lon="13.795205">
        <ele>925.6</ele>
      </trkpt>
      <trkpt lat="46.480839" lon="13.795747">
        <ele>929.9</ele>
      </trkpt>
      <trkpt lat="46.480745" lon="13.795923">
        <ele>933.8</ele>
      </trkpt>
      <trkpt lat="46.480508" lon="13.795971">
        <ele>940.7</ele>
      </trkpt>
      <trkpt lat="46.480186" lon="13.796004">
        <ele>947.9</ele>
      </trkpt>
      <trkpt lat="46.479992" lon="13.79609">
        <ele>952.0</ele>
      </trkpt>
      <trkpt lat="46.479821" lon="13.796246">
        <ele>955.8</ele>
      </trkpt>
      <trkpt lat="46.479683" lon="13.796436">
        <ele>956.8</ele>
      </trkpt>
      <trkpt lat="46.479647" lon="13.796519">
        <ele>957.2</ele>
      </trkpt>
      <trkpt lat="46.479741" lon="13.796833">
        <ele>957.9</ele>
      </trkpt>
      <trkpt lat="46.479695" lon="13.796956">
        <ele>958.3</ele>
      </trkpt>
      <trkpt lat="46.479566" lon="13.797124">
        <ele>958.4</ele>
      </trkpt>
      <trkpt lat="46.47956" lon="13.797199">
        <ele>958.4</ele>
      </trkpt>
      <trkpt lat="46.479605" lon="13.797307">
        <ele>958.7</ele>
      </trkpt>
      <trkpt lat="46.479815" lon="13.797589">
        <ele>959.0</ele>
      </trkpt>
      <trkpt lat="46.479888" lon="13.797813">
        <ele>960.1</ele>
      </trkpt>
      <trkpt lat="46.47989" lon="13.798029">
        <ele>961.4</ele>
      </trkpt>
      <trkpt lat="46.479928" lon="13.798281">
        <ele>964.1</ele>
      </trkpt>
      <trkpt lat="46.480146" lon="13.798741">
        <ele>966.3</ele>
      </trkpt>
      <trkpt lat="46.480238" lon="13.799108">
        <ele>967.9</ele>
      </trkpt>
      <trkpt lat="46.480248" lon="13.799289">
        <ele>968.9</ele>
      </trkpt>
      <trkpt lat="46.4802" lon="13.799448">
        <ele>969.6</ele>
      </trkpt>
      <trkpt lat="46.480158" lon="13.799692">
        <ele>970.0</ele>
      </trkpt>
      <trkpt lat="46.480222" lon="13.800195">
        <ele>971.1</ele>
      </trkpt>
      <trkpt lat="46.480247" lon="13.800735">
        <ele>972.7</ele>
      </trkpt>
      <trkpt lat="46.480193" lon="13.801103">
        <ele>975.1</ele>
      </trkpt>
      <trkpt lat="46.480086" lon="13.801359">
        <ele>977.8</ele>
      </trkpt>
      <trkpt lat="46.479957" lon="13.801779">
        <ele>980.8</ele>
      </trkpt>
      <trkpt lat="46.479964" lon="13.801968">
        <ele>983.8</ele>
      </trkpt>
      <trkpt lat="46.479876" lon="13.802174">
        <ele>986.3</ele>
      </trkpt>
      <trkpt lat="46.479746" lon="13.802325">
        <ele>988.2</ele>
      </trkpt>
      <trkpt lat="46.479672" lon="13.802461">
        <ele>991.1</ele>
      </trkpt>
      <trkpt lat="46.47963" lon="13.80274">
        <ele>994.6</ele>
      </trkpt>
      <trkpt lat="46.479464" lon="13.804342">
        <ele>997.5</ele>
      </trkpt>
      <trkpt lat="46.479346" lon="13.805022">
        <ele>999.9</ele>
      </trkpt>
      <trkpt lat="46.479377" lon="13.805421">
        <ele>1002.8</ele>
      </trkpt>
      <trkpt lat="46.479445" lon="13.805753">
        <ele>1006.7</ele>
      </trkpt>
      <trkpt lat="46.479403" lon="13.806116">
        <ele>1009.7</ele>
      </trkpt>
      <trkpt lat="46.479294" lon="13.806649">
        <ele>1009.2</ele>
      </trkpt>
      <trkpt lat="46.479299" lon="13.806973">
        <ele>1010.7</ele>
      </trkpt>
      <trkpt lat="46.479469" lon="13.808329">
        <ele>1008.8</ele>
      </trkpt>
      <trkpt lat="46.479008" lon="13.808599">
        <ele>1002.5</ele>
      </trkpt>
      <trkpt lat="46.478967" lon="13.809058">
        <ele>993.9</ele>
      </trkpt>
      <trkpt lat="46.479062" lon="13.809431">
        <ele>988.3</ele>
      </trkpt>
      <trkpt lat="46.479246" lon="13.809702">
        <ele>981.4</ele>
      </trkpt>
      <trkpt lat="46.479253" lon="13.80979">
        <ele>978.4</ele>
      </trkpt>
      <trkpt lat="46.47919" lon="13.809887">
        <ele>977.8</ele>
      </trkpt>
      <trkpt lat="46.479048" lon="13.809898">
        <ele>979.5</ele>
      </trkpt>
      <trkpt lat="46.479041" lon="13.810061">
        <ele>981.0</ele>
      </trkpt>
      <trkpt lat="46.479157" lon="13.810351">
        <ele>982.7</ele>
      </trkpt>
      <trkpt lat="46.479456" lon="13.810769">
        <ele>985.9</ele>
      </trkpt>
      <trkpt lat="46.47947" lon="13.811023">
        <ele>988.9</ele>
      </trkpt>
      <trkpt lat="46.479216" lon="13.811549">
        <ele>992.2</ele>
      </trkpt>
      <trkpt lat="46.479252" lon="13.811797">
        <ele>995.0</ele>
      </trkpt>
      <trkpt lat="46.479186" lon="13.812339">
        <ele>996.7</ele>
      </trkpt>
      <trkpt lat="46.479187" lon="13.81307">
        <ele>993.7</ele>
      </trkpt>
      <trkpt lat="46.479207" lon="13.813316">
        <ele>990.5</ele>
      </trkpt>
      <trkpt lat="46.479368" lon="13.813733">
        <ele>987.3</ele>
      </trkpt>
      <trkpt lat="46.479397" lon="13.813916">
        <ele>984.3</ele>
      </trkpt>
      <trkpt lat="46.47932" lon="13.814308">
        <ele>980.3</ele>
      </trkpt>
      <trkpt lat="46.47934" lon="13.814751">
        <ele>977.9</ele>
      </trkpt>
      <trkpt lat="46.479511" lon="13.815164">
        <ele>975.8</ele>
      </trkpt>
      <trkpt lat="46.479525" lon="13.815256">
        <ele>974.1</ele>
      </trkpt>
      <trkpt lat="46.479512" lon="13.815367">
        <ele>972.8</ele>
      </trkpt>
      <trkpt lat="46.47938" lon="13.815626">
        <ele>972.1</ele>
      </trkpt>
      <trkpt lat="46.479189" lon="13.816447">
        <ele>971.3</ele>
      </trkpt>
      <trkpt lat="46.479211" lon="13.816824">
        <ele>970.8</ele>
      </trkpt>
      <trkpt lat="46.479171" lon="13.81699">
        <ele>969.5</ele>
      </trkpt>
      <trkpt lat="46.479051" lon="13.817305">
        <ele>968.3</ele>
      </trkpt>
      <trkpt lat="46.479021" lon="13.817489">
        <ele>968.7</ele>
      </trkpt>
      <trkpt lat="46.478983" lon="13.817592">
        <ele>969.3</ele>
      </trkpt>
      <trkpt lat="46.478831" lon="13.817768">
        <ele>967.7</ele>
      </trkpt>
      <trkpt lat="46.478723" lon="13.817971">
        <ele>965.3</ele>
      </trkpt>
      <trkpt lat="46.478526" lon="13.818879">
        <ele>962.7</ele>
      </trkpt>
      <trkpt lat="46.478546" lon="13.819102">
        <ele>959.0</ele>
      </trkpt>
      <trkpt lat="46.478596" lon="13.819316">
        <ele>955.3</ele>
      </trkpt>
      <trkpt lat="46.478738" lon="13.819736">
        <ele>953.4</ele>
      </trkpt>
      <trkpt lat="46.478806" lon="13.820053">
        <ele>952.1</ele>
      </trkpt>
      <trkpt lat="46.478859" lon="13.820181">
        <ele>950.4</ele>
      </trkpt>
      <trkpt lat="46.478921" lon="13.820275">
        <ele>948.3</ele>
      </trkpt>
      <trkpt lat="46.479021" lon="13.820367">
        <ele>945.4</ele>
      </trkpt>
      <trkpt lat="46.479126" lon="13.820421">
        <ele>941.9</ele>
      </trkpt>
      <trkpt lat="46.479218" lon="13.820521">
        <ele>938.3</ele>
      </trkpt>
      <trkpt lat="46.479318" lon="13.820644">
        <ele>935.5</ele>
      </trkpt>
      <trkpt lat="46.479392" lon="13.820802">
        <ele>934.0</ele>
      </trkpt>
      <trkpt lat="46.479405" lon="13.820947">
        <ele>932.9</ele>
      </trkpt>
      <trkpt lat="46.479379" lon="13.821395">
        <ele>931.6</ele>
      </trkpt>
      <trkpt lat="46.479392" lon="13.8218">
        <ele>924.9</ele>
      </trkpt>
      <trkpt lat="46.479424" lon="13.822052">
        <ele>917.1</ele>
      </trkpt>
      <trkpt lat="46.47965" lon="13.823133">
        <ele>908.6</ele>
      </trkpt>
      <trkpt lat="46.479676" lon="13.823389">
        <ele>900.3</ele>
      </trkpt>
      <trkpt lat="46.47964" lon="13.823526">
        <ele>893.0</ele>
      </trkpt>
      <trkpt lat="46.479591" lon="13.823623">
        <ele>891.9</ele>
      </trkpt>
      <trkpt lat="46.479528" lon="13.823689">
        <ele>893.3</ele>
      </trkpt>
      <trkpt lat="46.479423" lon="13.823692">
        <ele>895.5</ele>
      </trkpt>
      <trkpt lat="46.479255" lon="13.823558">
        <ele>898.1</ele>
      </trkpt>
      <trkpt lat="46.479164" lon="13.823547">
        <ele>900.5</ele>
      </trkpt>
      <trkpt lat="46.47909" lon="13.823579">
        <ele>901.9</ele>
      </trkpt>
      <trkpt lat="46.479021" lon="13.823676">
        <ele>900.5</ele>
      </trkpt>
      <trkpt lat="46.478975" lon="13.823848">
        <ele>898.2</ele>
      </trkpt>
      <trkpt lat="46.478947" lon="13.824159">
        <ele>896.0</ele>
      </trkpt>
      <trkpt lat="46.478858" lon="13.824397">
        <ele>894.4</ele>
      </trkpt>
      <trkpt lat="46.478737" lon="13.824455">
        <ele>893.3</ele>
      </trkpt>
      <trkpt lat="46.478622" lon="13.824535">
        <ele>893.4</ele>
      </trkpt>
      <trkpt lat="46.478577" lon="13.824616">
        <ele>893.5</ele>
      </trkpt>
      <trkpt lat="46.478534" lon="13.824761">
        <ele>892.8</ele>
      </trkpt>
      <trkpt lat="46.47851" lon="13.824924">
        <ele>891.9</ele>
      </trkpt>
      <trkpt lat="46.478476" lon="13.825029">
        <ele>890.4</ele>
      </trkpt>
      <trkpt lat="46.478274" lon="13.825291">
        <ele>888.4</ele>
      </trkpt>
      <trkpt lat="46.47825" lon="13.825446">
        <ele>884.9</ele>
      </trkpt>
      <trkpt lat="46.478274" lon="13.825607">
        <ele>880.9</ele>
      </trkpt>
      <trkpt lat="46.478413" lon="13.8259">
        <ele>876.5</ele>
      </trkpt>
      <trkpt lat="46.478451" lon="13.826023">
        <ele>872.5</ele>
      </trkpt>
      <trkpt lat="46.478436" lon="13.82612">
        <ele>869.3</ele>
      </trkpt>
      <trkpt lat="46.478288" lon="13.826342">
        <ele>868.3</ele>
      </trkpt>
      <trkpt lat="46.478114" lon="13.826505">
        <ele>868.0</ele>
      </trkpt>
      <trkpt lat="46.477994" lon="13.826562">
        <ele>867.7</ele>
      </trkpt>
      <trkpt lat="46.477962" lon="13.8266">
        <ele>867.1</ele>
      </trkpt>
      <trkpt lat="46.477934" lon="13.826696">
        <ele>866.3</ele>
      </trkpt>
      <trkpt lat="46.477934" lon="13.826761">
        <ele>865.3</ele>
      </trkpt>
      <trkpt lat="46.477974" lon="13.82679">
        <ele>864.3</ele>
      </trkpt>
      <trkpt lat="46.478103" lon="13.826678">
        <ele>863.3</ele>
      </trkpt>
      <trkpt lat="46.478201" lon="13.826628">
        <ele>862.4</ele>
      </trkpt>
      <trkpt lat="46.478327" lon="13.826593">
        <ele>861.7</ele>
      </trkpt>
      <trkpt lat="46.478449" lon="13.826506">
        <ele>860.5</ele>
      </trkpt>
      <trkpt lat="46.478556" lon="13.826385">
        <ele>859.1</ele>
      </trkpt>
      <trkpt lat="46.478656" lon="13.826327">
        <ele>857.3</ele>
      </trkpt>
      <trkpt lat="46.478741" lon="13.826297">
        <ele>855.2</ele>
      </trkpt>
      <trkpt lat="46.478886" lon="13.826289">
        <ele>852.9</ele>
      </trkpt>
      <trkpt lat="46.479" lon="13.826264">
        <ele>851.1</ele>
      </trkpt>
      <trkpt lat="46.479094" lon="13.826212">
        <ele>849.6</ele>
      </trkpt>
      <trkpt lat="46.479629" lon="13.825593">
        <ele>848.7</ele>
      </trkpt>
      <trkpt lat="46.47974" lon="13.825487">
        <ele>847.3</ele>
      </trkpt>
      <trkpt lat="46.479835" lon="13.825453">
        <ele>846.0</ele>
      </trkpt>
      <trkpt lat="46.480018" lon="13.825508">
        <ele>844.0</ele>
      </trkpt>
      <trkpt lat="46.480061" lon="13.825525">
        <ele>841.8</ele>
      </trkpt>
      <trkpt lat="46.480174" lon="13.825505">
        <ele>838.9</ele>
      </trkpt>
      <trkpt lat="46.480277" lon="13.825438">
        <ele>836.6</ele>
      </trkpt>
      <trkpt lat="46.480448" lon="13.825405">
        <ele>834.6</ele>
      </trkpt>
      <trkpt lat="46.480576" lon="13.825344">
        <ele>832.2</ele>
      </trkpt>
      <trkpt lat="46.480652" lon="13.825253">
        <ele>829.9</ele>
      </trkpt>
      <trkpt lat="46.480995" lon="13.824946">
        <ele>828.5</ele>
      </trkpt>
      <trkpt lat="46.481077" lon="13.824745">
        <ele>827.3</ele>
      </trkpt>
      <trkpt lat="46.481113" lon="13.824613">
        <ele>825.7</ele>
      </trkpt>
      <trkpt lat="46.481172" lon="13.824501">
        <ele>824.3</ele>
      </trkpt>
      <trkpt lat="46.481243" lon="13.824424">
        <ele>821.1</ele>
      </trkpt>
      <trkpt lat="46.481327" lon="13.824387">
        <ele>817.3</ele>
      </trkpt>
      <trkpt lat="46.48155" lon="13.824329">
        <ele>813.7</ele>
      </trkpt>
      <trkpt lat="46.48162" lon="13.824228">
        <ele>811.8</ele>
      </trkpt>
      <trkpt lat="46.481636" lon="13.824158">
        <ele>811.0</ele>
      </trkpt>
      <trkpt lat="46.481553" lon="13.823931">
        <ele>812.1</ele>
      </trkpt>
      <trkpt lat="46.48154" lon="13.823793">
        <ele>813.2</ele>
      </trkpt>
      <trkpt lat="46.481568" lon="13.823686">
        <ele>814.0</ele>
      </trkpt>
      <trkpt lat="46.481645" lon="13.823618">
        <ele>813.2</ele>
      </trkpt>
      <trkpt lat="46.481732" lon="13.823589">
        <ele>810.4</ele>
      </trkpt>
      <trkpt lat="46.481823" lon="13.823608">
        <ele>805.9</ele>
      </trkpt>
      <trkpt lat="46.482087" lon="13.823729">
        <ele>801.8</ele>
      </trkpt>
      <trkpt lat="46.482306" lon="13.823881">
        <ele>798.2</ele>
      </trkpt>
      <trkpt lat="46.482363" lon="13.823855">
        <ele>794.9</ele>
      </trkpt>
      <trkpt lat="46.482475" lon="13.823708">
        <ele>791.9</ele>
      </trkpt>
      <trkpt lat="46.482546" lon="13.823681">
        <ele>789.9</ele>
      </trkpt>
      <trkpt lat="46.48276" lon="13.823787">
        <ele>787.6</ele>
      </trkpt>
      <trkpt lat="46.482921" lon="13.823817">
        <ele>785.1</ele>
      </trkpt>
      <trkpt lat="46.483037" lon="13.823819">
        <ele>782.6</ele>
      </trkpt>
      <trkpt lat="46.483154" lon="13.823763">
        <ele>781.0</ele>
      </trkpt>
      <trkpt lat="46.483298" lon="13.823653">
        <ele>779.7</ele>
      </trkpt>
      <trkpt lat="46.483441" lon="13.823577">
        <ele>778.1</ele>
      </trkpt>
      <trkpt lat="46.483512" lon="13.823577">
        <ele>776.1</ele>
      </trkpt>
      <trkpt lat="46.483658" lon="13.823656">
        <ele>773.1</ele>
      </trkpt>
      <trkpt lat="46.483826" lon="13.823619">
        <ele>770.1</ele>
      </trkpt>
      <trkpt lat="46.484249" lon="13.823197">
        <ele>767.1</ele>
      </trkpt>
      <trkpt lat="46.484363" lon="13.823206">
        <ele>764.4</ele>
      </trkpt>
      <trkpt lat="46.483671" lon="13.824551">
        <ele>762.3</ele>
      </trkpt>
      <trkpt lat="46.483064" lon="13.825462">
        <ele>762.1</ele>
      </trkpt>
      <trkpt lat="46.482733" lon="13.826123">
        <ele>760.9</ele>
      </trkpt>
      <trkpt lat="46.482242" lon="13.827197">
        <ele>760.3</ele>
      </trkpt>
      <trkpt lat="46.481463" lon="13.829017">
        <ele>759.9</ele>
      </trkpt>
      <trkpt lat="46.481129" lon="13.829688">
        <ele>758.6</ele>
      </trkpt>
      <trkpt lat="46.480967" lon="13.830068">
        <ele>755.2</ele>
      </trkpt>
      <trkpt lat="46.480824" lon="13.830459">
        <ele>752.7</ele>
      </trkpt>
      <trkpt lat="46.480612" lon="13.831188">
        <ele>750.3</ele>
      </trkpt>
      <trkpt lat="46.480494" lon="13.831712">
        <ele>748.8</ele>
      </trkpt>
      <trkpt lat="46.480436" lon="13.832063">
        <ele>748.4</ele>
      </trkpt>
      <trkpt lat="46.480359" lon="13.832809">
        <ele>749.6</ele>
      </trkpt>
      <trkpt lat="46.480357" lon="13.833663">
        <ele>751.0</ele>
      </trkpt>
      <trkpt lat="46.480412" lon="13.834388">
        <ele>752.0</ele>
      </trkpt>
      <trkpt lat="46.480473" lon="13.834798">
        <ele>752.5</ele>
      </trkpt>
      <trkpt lat="46.480568" lon="13.835235">
        <ele>752.2</ele>
      </trkpt>
      <trkpt lat="46.48072" lon="13.835804">
        <ele>750.8</ele>
      </trkpt>
      <trkpt lat="46.480862" lon="13.836254">
        <ele>749.0</ele>
      </trkpt>
      <trkpt lat="46.481148" lon="13.836916">
        <ele>747.1</ele>
      </trkpt>
      <trkpt lat="46.481489" lon="13.837511">
        <ele>745.3</ele>
      </trkpt>
      <trkpt lat="46.481713" lon="13.837802">
        <ele>743.8</ele>
      </trkpt>
      <trkpt lat="46.481909" lon="13.838001">
        <ele>743.1</ele>
      </trkpt>
      <trkpt lat="46.481978" lon="13.838122">
        <ele>742.9</ele>
      </trkpt>
      <trkpt lat="46.482003" lon="13.838207">
        <ele>742.2</ele>
      </trkpt>
      <trkpt lat="46.481996" lon="13.838277">
        <ele>741.7</ele>
      </trkpt>
      <trkpt lat="46.482003" lon="13.838286">
        <ele>742.8</ele>
      </trkpt>
      <trkpt lat="46.48199" lon="13.83833">
        <ele>742.8</ele>
      </trkpt>
      <trkpt lat="46.482" lon="13.83842">
        <ele>742.8</ele>
      </trkpt>
      <trkpt lat="46.48201" lon="13.83851">
        <ele>742.8</ele>
      </trkpt>
      <trkpt lat="46.48205" lon="13.83866">
        <ele>742.7</ele>
      </trkpt>
      <trkpt lat="46.4821" lon="13.83877">
        <ele>742.4</ele>
      </trkpt>
      <trkpt lat="46.48218" lon="13.83894">
        <ele>742.0</ele>
      </trkpt>
      <trkpt lat="46.48235" lon="13.83928">
        <ele>740.8</ele>
      </trkpt>
      <trkpt lat="46.4824" lon="13.83936">
        <ele>740.5</ele>
      </trkpt>
      <trkpt lat="46.48255" lon="13.83964">
        <ele>740.3</ele>
      </trkpt>
      <trkpt lat="46.48261" lon="13.83974">
        <ele>740.2</ele>
      </trkpt>
      <trkpt lat="46.48268" lon="13.8398">
        <ele>740.1</ele>
      </trkpt>
      <trkpt lat="46.48268" lon="13.8398">
        <ele>740.1</ele>
      </trkpt>
      <trkpt lat="46.48269" lon="13.83973">
        <ele>740.1</ele>
      </trkpt>
      <trkpt lat="46.4827" lon="13.83967">
        <ele>740.1</ele>
      </trkpt>
      <trkpt lat="46.48273" lon="13.8396">
        <ele>740.0</ele>
      </trkpt>
      <trkpt lat="46.48277" lon="13.83948">
        <ele>740.0</ele>
      </trkpt>
      <trkpt lat="46.4828" lon="13.83938">
        <ele>740.0</ele>
      </trkpt>
      <trkpt lat="46.48284" lon="13.83929">
        <ele>740.0</ele>
      </trkpt>
      <trkpt lat="46.48286" lon="13.83924">
        <ele>740.0</ele>
      </trkpt>
      <trkpt lat="46.48287" lon="13.83921">
        <ele>740.0</ele>
      </trkpt>
      <trkpt lat="46.482859" lon="13.839187">
        <ele>740.0</ele>
      </trkpt>
      <trkpt lat="46.483108" lon="13.838608">
        <ele>740.2</ele>
      </trkpt>
      <trkpt lat="46.483652" lon="13.837882">
        <ele>743.3</ele>
      </trkpt>
      <trkpt lat="46.483652" lon="13.837882">
        <ele>743.3</ele>
      </trkpt>
      <trkpt lat="46.484323" lon="13.836568">
        <ele>748.2</ele>
      </trkpt>
      <trkpt lat="46.48432" lon="13.83657">
        <ele>748.2</ele>
      </trkpt>
      <trkpt lat="46.48432" lon="13.8366">
        <ele>748.2</ele>
      </trkpt>
      <trkpt lat="46.48443" lon="13.83635">
        <ele>748.0</ele>
      </trkpt>
      <trkpt lat="46.48459" lon="13.83622">
        <ele>748.2</ele>
      </trkpt>
      <trkpt lat="46.48473" lon="13.83622">
        <ele>748.6</ele>
      </trkpt>
      <trkpt lat="46.48487" lon="13.83626">
        <ele>749.1</ele>
      </trkpt>
      <trkpt lat="46.48551" lon="13.8366">
        <ele>750.6</ele>
      </trkpt>
      <trkpt lat="46.48556" lon="13.8366">
        <ele>750.7</ele>
      </trkpt>
      <trkpt lat="46.48561" lon="13.83655">
        <ele>750.8</ele>
      </trkpt>
      <trkpt lat="46.48562" lon="13.83648">
        <ele>750.9</ele>
      </trkpt>
      <trkpt lat="46.48562" lon="13.83648">
        <ele>750.9</ele>
      </trkpt>
      <trkpt lat="46.48565" lon="13.83631">
        <ele>751.0</ele>
      </trkpt>
      <trkpt lat="46.48568" lon="13.83599">
        <ele>751.3</ele>
      </trkpt>
      <trkpt lat="46.48573" lon="13.8348">
        <ele>753.1</ele>
      </trkpt>
      <trkpt lat="46.48575" lon="13.83443">
        <ele>752.8</ele>
      </trkpt>
      <trkpt lat="46.48579" lon="13.83435">
        <ele>753.0</ele>
      </trkpt>
      <trkpt lat="46.485787" lon="13.834348">
        <ele>752.9</ele>
      </trkpt>
      <trkpt lat="46.48585" lon="13.83421">
        <ele>753.4</ele>
      </trkpt>
      <trkpt lat="46.48593" lon="13.83411">
        <ele>755.0</ele>
      </trkpt>
      <trkpt lat="46.48615" lon="13.83391">
        <ele>759.3</ele>
      </trkpt>
      <trkpt lat="46.48639" lon="13.8337">
        <ele>764.0</ele>
      </trkpt>
      <trkpt lat="46.48644" lon="13.83364">
        <ele>764.9</ele>
      </trkpt>
      <trkpt lat="46.48652" lon="13.83339">
        <ele>766.2</ele>
      </trkpt>
      <trkpt lat="46.48663" lon="13.83314">
        <ele>767.1</ele>
      </trkpt>
      <trkpt lat="46.48663" lon="13.83296">
        <ele>766.1</ele>
      </trkpt>
      <trkpt lat="46.48661" lon="13.83282">
        <ele>764.8</ele>
      </trkpt>
      <trkpt lat="46.48649" lon="13.83249">
        <ele>760.6</ele>
      </trkpt>
      <trkpt lat="46.48667" lon="13.83252">
        <ele>764.2</ele>
      </trkpt>
      <trkpt lat="46.48674" lon="13.83249">
        <ele>766.4</ele>
      </trkpt>
      <trkpt lat="46.48681" lon="13.83238">
        <ele>768.9</ele>
      </trkpt>
      <trkpt lat="46.48687" lon="13.83245">
        <ele>771.0</ele>
      </trkpt>
      <trkpt lat="46.48699" lon="13.83271">
        <ele>776.2</ele>
      </trkpt>
      <trkpt lat="46.48725" lon="13.83354">
        <ele>789.4</ele>
      </trkpt>
      <trkpt lat="46.48737" lon="13.83428">
        <ele>793.6</ele>
      </trkpt>
      <trkpt lat="46.48742" lon="13.83465">
        <ele>795.2</ele>
      </trkpt>
      <trkpt lat="46.48766" lon="13.83553">
        <ele>826.0</ele>
      </trkpt>
      <trkpt lat="46.48772" lon="13.83568">
        <ele>834.5</ele>
      </trkpt>
      <trkpt lat="46.48777" lon="13.83574">
        <ele>840.5</ele>
      </trkpt>
      <trkpt lat="46.48777" lon="13.83568">
        <ele>840.1</ele>
      </trkpt>
      <trkpt lat="46.4877" lon="13.83532">
        <ele>828.8</ele>
      </trkpt>
      <trkpt lat="46.48771" lon="13.83506">
        <ele>827.8</ele>
      </trkpt>
      <trkpt lat="46.48782" lon="13.8343">
        <ele>830.3</ele>
      </trkpt>
      <trkpt lat="46.48784" lon="13.83419">
        <ele>830.3</ele>
      </trkpt>
      <trkpt lat="46.48787" lon="13.83418">
        <ele>832.9</ele>
      </trkpt>
      <trkpt lat="46.48793" lon="13.83421">
        <ele>839.3</ele>
      </trkpt>
      <trkpt lat="46.48794" lon="13.83426">
        <ele>841.4</ele>
      </trkpt>
      <trkpt lat="46.48789" lon="13.83446">
        <ele>840.8</ele>
      </trkpt>
      <trkpt lat="46.48786" lon="13.83462">
        <ele>840.6</ele>
      </trkpt>
      <trkpt lat="46.48784" lon="13.83514">
        <ele>845.9</ele>
      </trkpt>
      <trkpt lat="46.48785" lon="13.83528">
        <ele>847.8</ele>
      </trkpt>
      <trkpt lat="46.48789" lon="13.83542">
        <ele>853.2</ele>
      </trkpt>
      <trkpt lat="46.48799" lon="13.83569">
        <ele>865.1</ele>
      </trkpt>
      <trkpt lat="46.488" lon="13.83586">
        <ele>866.5</ele>
      </trkpt>
      <trkpt lat="46.48796" lon="13.83641">
        <ele>870.3</ele>
      </trkpt>
      <trkpt lat="46.48786" lon="13.83688">
        <ele>865.5</ele>
      </trkpt>
      <trkpt lat="46.48791" lon="13.83743">
        <ele>888.7</ele>
      </trkpt>
      <trkpt lat="46.48776" lon="13.83855">
        <ele>863.9</ele>
      </trkpt>
      <trkpt lat="46.48779" lon="13.83867">
        <ele>864.0</ele>
      </trkpt>
      <trkpt lat="46.48794" lon="13.8389">
        <ele>875.5</ele>
      </trkpt>
      <trkpt lat="46.48797" lon="13.83904">
        <ele>875.7</ele>
      </trkpt>
      <trkpt lat="46.48798" lon="13.83912">
        <ele>875.0</ele>
      </trkpt>
      <trkpt lat="46.48792" lon="13.83948">
        <ele>866.8</ele>
      </trkpt>
      <trkpt lat="46.48793" lon="13.83959">
        <ele>867.9</ele>
      </trkpt>
      <trkpt lat="46.48799" lon="13.83975">
        <ele>874.0</ele>
      </trkpt>
      <trkpt lat="46.488" lon="13.8401">
        <ele>873.9</ele>
      </trkpt>
      <trkpt lat="46.48815" lon="13.84056">
        <ele>883.1</ele>
      </trkpt>
      <trkpt lat="46.4882" lon="13.84061">
        <ele>886.5</ele>
      </trkpt>
      <trkpt lat="46.48825" lon="13.84059">
        <ele>890.5</ele>
      </trkpt>
      <trkpt lat="46.48827" lon="13.84055">
        <ele>892.5</ele>
      </trkpt>
      <trkpt lat="46.48828" lon="13.84047">
        <ele>894.1</ele>
      </trkpt>
      <trkpt lat="46.48824" lon="13.84008">
        <ele>894.9</ele>
      </trkpt>
      <trkpt lat="46.48826" lon="13.83975">
        <ele>900.9</ele>
      </trkpt>
      <trkpt lat="46.48826" lon="13.83975">
        <ele>900.9</ele>
      </trkpt>
      <trkpt lat="46.48831" lon="13.83956">
        <ele>908.9</ele>
      </trkpt>
      <trkpt lat="46.48843" lon="13.83935">
        <ele>917.6</ele>
      </trkpt>
      <trkpt lat="46.48858" lon="13.83916">
        <ele>924.0</ele>
      </trkpt>
      <trkpt lat="46.48863" lon="13.83907">
        <ele>926.4</ele>
      </trkpt>
      <trkpt lat="46.488627" lon="13.839066">
        <ele>926.4</ele>
      </trkpt>
      <trkpt lat="46.488642" lon="13.839013">
        <ele>928.4</ele>
      </trkpt>
      <trkpt lat="46.48867" lon="13.838766">
        <ele>931.5</ele>
      </trkpt>
      <trkpt lat="46.488674" lon="13.838545">
        <ele>934.5</ele>
      </trkpt>
      <trkpt lat="46.488425" lon="13.837692">
        <ele>936.6</ele>
      </trkpt>
      <trkpt lat="46.488384" lon="13.837445">
        <ele>937.9</ele>
      </trkpt>
      <trkpt lat="46.4884" lon="13.837218">
        <ele>938.3</ele>
      </trkpt>
      <trkpt lat="46.488644" lon="13.836681">
        <ele>937.9</ele>
      </trkpt>
      <trkpt lat="46.488962" lon="13.836319">
        <ele>937.8</ele>
      </trkpt>
      <trkpt lat="46.489043" lon="13.836248">
        <ele>938.6</ele>
      </trkpt>
      <trkpt lat="46.489129" lon="13.836241">
        <ele>940.2</ele>
      </trkpt>
      <trkpt lat="46.48921" lon="13.836263">
        <ele>943.3</ele>
      </trkpt>
      <trkpt lat="46.489297" lon="13.836392">
        <ele>946.5</ele>
      </trkpt>
      <trkpt lat="46.489373" lon="13.836862">
        <ele>949.4</ele>
      </trkpt>
      <trkpt lat="46.489441" lon="13.837091">
        <ele>952.0</ele>
      </trkpt>
      <trkpt lat="46.489503" lon="13.837202">
        <ele>954.0</ele>
      </trkpt>
      <trkpt lat="46.489628" lon="13.837322">
        <ele>954.9</ele>
      </trkpt>
      <trkpt lat="46.48971" lon="13.837373">
        <ele>956.1</ele>
      </trkpt>
      <trkpt lat="46.489883" lon="13.837563">
        <ele>958.8</ele>
      </trkpt>
      <trkpt lat="46.490087" lon="13.837697">
        <ele>961.6</ele>
      </trkpt>
      <trkpt lat="46.490363" lon="13.837689">
        <ele>964.2</ele>
      </trkpt>
      <trkpt lat="46.490395" lon="13.837577">
        <ele>967.0</ele>
      </trkpt>
      <trkpt lat="46.490385" lon="13.83741">
        <ele>969.8</ele>
      </trkpt>
      <trkpt lat="46.490424" lon="13.836592">
        <ele>969.8</ele>
      </trkpt>
      <trkpt lat="46.49057" lon="13.835389">
        <ele>969.6</ele>
      </trkpt>
      <trkpt lat="46.490362" lon="13.834906">
        <ele>969.6</ele>
      </trkpt>
      <trkpt lat="46.490325" lon="13.834703">
        <ele>969.0</ele>
      </trkpt>
      <trkpt lat="46.490305" lon="13.834311">
        <ele>967.3</ele>
      </trkpt>
      <trkpt lat="46.490191" lon="13.833908">
        <ele>967.0</ele>
      </trkpt>
      <trkpt lat="46.490103" lon="13.833751">
        <ele>967.5</ele>
      </trkpt>
      <trkpt lat="46.490063" lon="13.833413">
        <ele>968.1</ele>
      </trkpt>
      <trkpt lat="46.490086" lon="13.833074">
        <ele>968.9</ele>
      </trkpt>
      <trkpt lat="46.49006" lon="13.832789">
        <ele>970.1</ele>
      </trkpt>
      <trkpt lat="46.490022" lon="13.832565">
        <ele>970.4</ele>
      </trkpt>
      <trkpt lat="46.490021" lon="13.832461">
        <ele>969.2</ele>
      </trkpt>
      <trkpt lat="46.489983" lon="13.832324">
        <ele>967.2</ele>
      </trkpt>
      <trkpt lat="46.489928" lon="13.831995">
        <ele>964.6</ele>
      </trkpt>
      <trkpt lat="46.48988" lon="13.831814">
        <ele>960.4</ele>
      </trkpt>
      <trkpt lat="46.489807" lon="13.831667">
        <ele>956.2</ele>
      </trkpt>
      <trkpt lat="46.489603" lon="13.831363">
        <ele>952.3</ele>
      </trkpt>
      <trkpt lat="46.48954" lon="13.831246">
        <ele>948.2</ele>
      </trkpt>
      <trkpt lat="46.489485" lon="13.831091">
        <ele>944.9</ele>
      </trkpt>
      <trkpt lat="46.48944" lon="13.830343">
        <ele>942.1</ele>
      </trkpt>
      <trkpt lat="46.489435" lon="13.829612">
        <ele>935.4</ele>
      </trkpt>
      <trkpt lat="46.489319" lon="13.828956">
        <ele>928.7</ele>
      </trkpt>
      <trkpt lat="46.489147" lon="13.827692">
        <ele>923.1</ele>
      </trkpt>
      <trkpt lat="46.489349" lon="13.825978">
        <ele>913.8</ele>
      </trkpt>
      <trkpt lat="46.489445" lon="13.825609">
        <ele>904.0</ele>
      </trkpt>
      <trkpt lat="46.489499" lon="13.824421">
        <ele>896.9</ele>
      </trkpt>
      <trkpt lat="46.489471" lon="13.824165">
        <ele>889.2</ele>
      </trkpt>
      <trkpt lat="46.489616" lon="13.823488">
        <ele>879.4</ele>
      </trkpt>
      <trkpt lat="46.489618" lon="13.823315">
        <ele>873.2</ele>
      </trkpt>
      <trkpt lat="46.48957" lon="13.823194">
        <ele>868.5</ele>
      </trkpt>
      <trkpt lat="46.489576" lon="13.823143">
        <ele>868.5</ele>
      </trkpt>
      <trkpt lat="46.489597" lon="13.823097">
        <ele>869.4</ele>
      </trkpt>
      <trkpt lat="46.489801" lon="13.823071">
        <ele>872.7</ele>
      </trkpt>
      <trkpt lat="46.489858" lon="13.822935">
        <ele>876.2</ele>
      </trkpt>
      <trkpt lat="46.489964" lon="13.822814">
        <ele>880.2</ele>
      </trkpt>
      <trkpt lat="46.490022" lon="13.822682">
        <ele>882.6</ele>
      </trkpt>
      <trkpt lat="46.490094" lon="13.822619">
        <ele>885.4</ele>
      </trkpt>
      <trkpt lat="46.490198" lon="13.822622">
        <ele>885.4</ele>
      </trkpt>
      <trkpt lat="46.490246" lon="13.822542">
        <ele>884.1</ele>
      </trkpt>
      <trkpt lat="46.490194" lon="13.822362">
        <ele>881.0</ele>
      </trkpt>
      <trkpt lat="46.490146" lon="13.822263">
        <ele>875.4</ele>
      </trkpt>
      <trkpt lat="46.490125" lon="13.822114">
        <ele>866.5</ele>
      </trkpt>
      <trkpt lat="46.490254" lon="13.821681">
        <ele>859.6</ele>
      </trkpt>
      <trkpt lat="46.490208" lon="13.820963">
        <ele>851.3</ele>
      </trkpt>
      <trkpt lat="46.490234" lon="13.820829">
        <ele>843.0</ele>
      </trkpt>
      <trkpt lat="46.490125" lon="13.820501">
        <ele>834.4</ele>
      </trkpt>
      <trkpt lat="46.490204" lon="13.819606">
        <ele>827.9</ele>
      </trkpt>
      <trkpt lat="46.49011" lon="13.819442">
        <ele>820.5</ele>
      </trkpt>
      <trkpt lat="46.490012" lon="13.81938">
        <ele>815.5</ele>
      </trkpt>
      <trkpt lat="46.489863" lon="13.819365">
        <ele>811.2</ele>
      </trkpt>
      <trkpt lat="46.489798" lon="13.819428">
        <ele>807.8</ele>
      </trkpt>
      <trkpt lat="46.489689" lon="13.819462">
        <ele>805.1</ele>
      </trkpt>
      <trkpt lat="46.48961" lon="13.819435">
        <ele>803.0</ele>
      </trkpt>
      <trkpt lat="46.489525" lon="13.819351">
        <ele>801.0</ele>
      </trkpt>
      <trkpt lat="46.489488" lon="13.819264">
        <ele>799.4</ele>
      </trkpt>
      <trkpt lat="46.48944" lon="13.819029">
        <ele>797.9</ele>
      </trkpt>
      <trkpt lat="46.489404" lon="13.818973">
        <ele>795.5</ele>
      </trkpt>
      <trkpt lat="46.489324" lon="13.818588">
        <ele>792.9</ele>
      </trkpt>
      <trkpt lat="46.489212" lon="13.818045">
        <ele>789.7</ele>
      </trkpt>
      <trkpt lat="46.489224" lon="13.817727">
        <ele>786.5</ele>
      </trkpt>
      <trkpt lat="46.489161" lon="13.817496">
        <ele>783.7</ele>
      </trkpt>
      <trkpt lat="46.488996" lon="13.817224">
        <ele>782.2</ele>
      </trkpt>
      <trkpt lat="46.488965" lon="13.817122">
        <ele>781.1</ele>
      </trkpt>
      <trkpt lat="46.488947" lon="13.81693">
        <ele>781.1</ele>
      </trkpt>
      <trkpt lat="46.488871" lon="13.816716">
        <ele>782.0</ele>
      </trkpt>
      <trkpt lat="46.488878" lon="13.816396">
        <ele>783.1</ele>
      </trkpt>
      <trkpt lat="46.489013" lon="13.815485">
        <ele>784.0</ele>
      </trkpt>
      <trkpt lat="46.489014" lon="13.815222">
        <ele>785.1</ele>
      </trkpt>
      <trkpt lat="46.48898" lon="13.814927">
        <ele>785.8</ele>
      </trkpt>
      <trkpt lat="46.48898" lon="13.814762">
        <ele>785.7</ele>
      </trkpt>
      <trkpt lat="46.488933" lon="13.814394">
        <ele>785.3</ele>
      </trkpt>
      <trkpt lat="46.488899" lon="13.814215">
        <ele>785.2</ele>
      </trkpt>
      <trkpt lat="46.48883" lon="13.814008">
        <ele>785.5</ele>
      </trkpt>
      <trkpt lat="46.48889" lon="13.813924">
        <ele>786.1</ele>
      </trkpt>
      <trkpt lat="46.488945" lon="13.813759">
        <ele>787.0</ele>
      </trkpt>
      <trkpt lat="46.488949" lon="13.813616">
        <ele>788.8</ele>
      </trkpt>
      <trkpt lat="46.488994" lon="13.813564">
        <ele>790.0</ele>
      </trkpt>
      <trkpt lat="46.489087" lon="13.813215">
        <ele>791.1</ele>
      </trkpt>
      <trkpt lat="46.489047" lon="13.812989">
        <ele>791.6</ele>
      </trkpt>
      <trkpt lat="46.489071" lon="13.812723">
        <ele>791.8</ele>
      </trkpt>
      <trkpt lat="46.489018" lon="13.812444">
        <ele>791.2</ele>
      </trkpt>
      <trkpt lat="46.489033" lon="13.812153">
        <ele>790.8</ele>
      </trkpt>
      <trkpt lat="46.489006" lon="13.81203">
        <ele>790.1</ele>
      </trkpt>
      <trkpt lat="46.489115" lon="13.81136">
        <ele>789.7</ele>
      </trkpt>
      <trkpt lat="46.489087" lon="13.811161">
        <ele>790.4</ele>
      </trkpt>
      <trkpt lat="46.489168" lon="13.810838">
        <ele>790.8</ele>
      </trkpt>
      <trkpt lat="46.489285" lon="13.810611">
        <ele>790.8</ele>
      </trkpt>
      <trkpt lat="46.489233" lon="13.810489">
        <ele>791.1</ele>
      </trkpt>
      <trkpt lat="46.489225" lon="13.810349">
        <ele>791.1</ele>
      </trkpt>
      <trkpt lat="46.489238" lon="13.810193">
        <ele>789.9</ele>
      </trkpt>
      <trkpt lat="46.489212" lon="13.810135">
        <ele>789.7</ele>
      </trkpt>
      <trkpt lat="46.489213" lon="13.810068">
        <ele>789.1</ele>
      </trkpt>
      <trkpt lat="46.489248" lon="13.810012">
        <ele>789.5</ele>
      </trkpt>
      <trkpt lat="46.489287" lon="13.809298">
        <ele>790.5</ele>
      </trkpt>
      <trkpt lat="46.489405" lon="13.808789">
        <ele>792.5</ele>
      </trkpt>
      <trkpt lat="46.489416" lon="13.808635">
        <ele>793.8</ele>
      </trkpt>
      <trkpt lat="46.489525" lon="13.808312">
        <ele>796.0</ele>
      </trkpt>
      <trkpt lat="46.489502" lon="13.8081">
        <ele>796.9</ele>
      </trkpt>
      <trkpt lat="46.489538" lon="13.807975">
        <ele>797.0</ele>
      </trkpt>
      <trkpt lat="46.489517" lon="13.807803">
        <ele>795.8</ele>
      </trkpt>
      <trkpt lat="46.489458" lon="13.80768">
        <ele>794.7</ele>
      </trkpt>
      <trkpt lat="46.489424" lon="13.807486">
        <ele>792.1</ele>
      </trkpt>
      <trkpt lat="46.489434" lon="13.807299">
        <ele>789.3</ele>
      </trkpt>
      <trkpt lat="46.489328" lon="13.806631">
        <ele>787.1</ele>
      </trkpt>
      <trkpt lat="46.489238" lon="13.806348">
        <ele>785.5</ele>
      </trkpt>
      <trkpt lat="46.489249" lon="13.805979">
        <ele>784.2</ele>
      </trkpt>
      <trkpt lat="46.489279" lon="13.805836">
        <ele>785.1</ele>
      </trkpt>
      <trkpt lat="46.489336" lon="13.805678">
        <ele>786.5</ele>
      </trkpt>
      <trkpt lat="46.4895" lon="13.805474">
        <ele>787.1</ele>
      </trkpt>
      <trkpt lat="46.489496" lon="13.8054">
        <ele>787.4</ele>
      </trkpt>
      <trkpt lat="46.489396" lon="13.805375">
        <ele>787.5</ele>
      </trkpt>
      <trkpt lat="46.489386" lon="13.8053">
        <ele>787.5</ele>
      </trkpt>
      <trkpt lat="46.489419" lon="13.805085">
        <ele>787.7</ele>
      </trkpt>
      <trkpt lat="46.489515" lon="13.80481">
        <ele>788.4</ele>
      </trkpt>
      <trkpt lat="46.489517" lon="13.804679">
        <ele>788.6</ele>
      </trkpt>
      <trkpt lat="46.489447" lon="13.804194">
        <ele>790.4</ele>
      </trkpt>
      <trkpt lat="46.489285" lon="13.803636">
        <ele>791.4</ele>
      </trkpt>
      <trkpt lat="46.489361" lon="13.802697">
        <ele>792.4</ele>
      </trkpt>
      <trkpt lat="46.489322" lon="13.802431">
        <ele>794.6</ele>
      </trkpt>
      <trkpt lat="46.48932" lon="13.802224">
        <ele>797.4</ele>
      </trkpt>
      <trkpt lat="46.489363" lon="13.801661">
        <ele>800.2</ele>
      </trkpt>
      <trkpt lat="46.489336" lon="13.801414">
        <ele>803.9</ele>
      </trkpt>
      <trkpt lat="46.489422" lon="13.800938">
        <ele>807.6</ele>
      </trkpt>
      <trkpt lat="46.489502" lon="13.800906">
        <ele>810.7</ele>
      </trkpt>
      <trkpt lat="46.489527" lon="13.800558">
        <ele>813.8</ele>
      </trkpt>
      <trkpt lat="46.489599" lon="13.800263">
        <ele>813.4</ele>
      </trkpt>
      <trkpt lat="46.489627" lon="13.79999">
        <ele>812.3</ele>
      </trkpt>
      <trkpt lat="46.489593" lon="13.799311">
        <ele>811.3</ele>
      </trkpt>
      <trkpt lat="46.489682" lon="13.798965">
        <ele>809.7</ele>
      </trkpt>
      <trkpt lat="46.489762" lon="13.79826">
        <ele>807.5</ele>
      </trkpt>
      <trkpt lat="46.48974" lon="13.798089">
        <ele>806.9</ele>
      </trkpt>
      <trkpt lat="46.489663" lon="13.797824">
        <ele>806.0</ele>
      </trkpt>
      <trkpt lat="46.489643" lon="13.797698">
        <ele>804.6</ele>
      </trkpt>
      <trkpt lat="46.489601" lon="13.797703">
        <ele>802.3</ele>
      </trkpt>
      <trkpt lat="46.48955" lon="13.797831">
        <ele>800.3</ele>
      </trkpt>
      <trkpt lat="46.489334" lon="13.797819">
        <ele>798.4</ele>
      </trkpt>
      <trkpt lat="46.489275" lon="13.797672">
        <ele>797.3</ele>
      </trkpt>
      <trkpt lat="46.489241" lon="13.797476">
        <ele>796.6</ele>
      </trkpt>
      <trkpt lat="46.489337" lon="13.797193">
        <ele>797.2</ele>
      </trkpt>
      <trkpt lat="46.489394" lon="13.796943">
        <ele>797.8</ele>
      </trkpt>
      <trkpt lat="46.489422" lon="13.796555">
        <ele>798.3</ele>
      </trkpt>
      <trkpt lat="46.489351" lon="13.79649">
        <ele>798.0</ele>
      </trkpt>
      <trkpt lat="46.489358" lon="13.796293">
        <ele>797.5</ele>
      </trkpt>
      <trkpt lat="46.489426" lon="13.795655">
        <ele>797.5</ele>
      </trkpt>
      <trkpt lat="46.489377" lon="13.795068">
        <ele>798.4</ele>
      </trkpt>
      <trkpt lat="46.48945" lon="13.794588">
        <ele>799.8</ele>
      </trkpt>
      <trkpt lat="46.489631" lon="13.794218">
        <ele>801.1</ele>
      </trkpt>
      <trkpt lat="46.489735" lon="13.794158">
        <ele>801.7</ele>
      </trkpt>
      <trkpt lat="46.489632" lon="13.794037">
        <ele>801.5</ele>
      </trkpt>
      <trkpt lat="46.489353" lon="13.793772">
        <ele>800.5</ele>
      </trkpt>
      <trkpt lat="46.489232" lon="13.793654">
        <ele>799.2</ele>
      </trkpt>
      <trkpt lat="46.489143" lon="13.793511">
        <ele>798.4</ele>
      </trkpt>
      <trkpt lat="46.488755" lon="13.79271">
        <ele>798.4</ele>
      </trkpt>
      <trkpt lat="46.488664" lon="13.792575">
        <ele>798.9</ele>
      </trkpt>
      <trkpt lat="46.488455" lon="13.792357">
        <ele>799.5</ele>
      </trkpt>
      <trkpt lat="46.488368" lon="13.79228">
        <ele>799.3</ele>
      </trkpt>
      <trkpt lat="46.488278" lon="13.792226">
        <ele>799.0</ele>
      </trkpt>
      <trkpt lat="46.48847" lon="13.793184">
        <ele>798.4</ele>
      </trkpt>
      <trkpt lat="46.48847" lon="13.79316">
        <ele>797.6</ele>
      </trkpt>
      <trkpt lat="46.48829" lon="13.79319">
        <ele>796.7</ele>
      </trkpt>
      <trkpt lat="46.48797" lon="13.79319">
        <ele>796.7</ele>
      </trkpt>
      <trkpt lat="46.487789" lon="13.79302">
        <ele>796.3</ele>
      </trkpt>
      <trkpt lat="46.487322" lon="13.792167">
        <ele>796.1</ele>
      </trkpt>
      <trkpt lat="46.486643" lon="13.793183">
        <ele>796.0</ele>
      </trkpt>
      <trkpt lat="46.486412" lon="13.792382">
        <ele>795.7</ele>
      </trkpt>
      <trkpt lat="46.48646" lon="13.79231">
        <ele>795.1</ele>
      </trkpt>
      <trkpt lat="46.48652" lon="13.79234">
        <ele>795.7</ele>
      </trkpt>
      <trkpt lat="46.48654" lon="13.79233">
        <ele>796.4</ele>
      </trkpt>
      <trkpt lat="46.486759" lon="13.79199">
        <ele>797.0</ele>
      </trkpt>
      <trkpt lat="46.48702" lon="13.79154">
        <ele>797.7</ele>
      </trkpt>
      <trkpt lat="46.487027" lon="13.791554">
        <ele>798.4</ele>
      </trkpt>
      <trkpt lat="46.48702" lon="13.79154">
        <ele>798.9</ele>
      </trkpt>
      <trkpt lat="46.48704" lon="13.79151">
        <ele>798.8</ele>
      </trkpt>
      <trkpt lat="46.48691" lon="13.79138">
        <ele>798.9</ele>
      </trkpt>
      <trkpt lat="46.48671" lon="13.79109">
        <ele>799.2</ele>
      </trkpt>
      <trkpt lat="46.4865" lon="13.79071">
        <ele>799.4</ele>
      </trkpt>
      <trkpt lat="46.48624" lon="13.79005">
        <ele>799.8</ele>
      </trkpt>
      <trkpt lat="46.48619" lon="13.78996">
        <ele>800.2</ele>
      </trkpt>
      <trkpt lat="46.48609" lon="13.78989">
        <ele>800.4</ele>
      </trkpt>
      <trkpt lat="46.486043" lon="13.789867">
        <ele>800.3</ele>
      </trkpt>
      <trkpt lat="46.485918" lon="13.789933">
        <ele>800.2</ele>
      </trkpt>
      <trkpt lat="46.48588" lon="13.78993">
        <ele>799.9</ele>
      </trkpt>
      <trkpt lat="46.48587" lon="13.79004">
        <ele>799.5</ele>
      </trkpt>
      <trkpt lat="46.48546" lon="13.79068">
        <ele>799.2</ele>
      </trkpt>
      <trkpt lat="46.48527" lon="13.79093">
        <ele>798.9</ele>
      </trkpt>
      <trkpt lat="46.485253" lon="13.790886">
        <ele>798.9</ele>
      </trkpt>
      <trkpt lat="46.485205" lon="13.790815">
        <ele>799.2</ele>
      </trkpt>
      <trkpt lat="46.484907" lon="13.790368">
        <ele>799.7</ele>
      </trkpt>
      <trkpt lat="46.484717" lon="13.790047">
        <ele>801.5</ele>
      </trkpt>
      <trkpt lat="46.484541" lon="13.789714">
        <ele>803.1</ele>
      </trkpt>
      <trkpt lat="46.483802" lon="13.788424">
        <ele>805.2</ele>
      </trkpt>
      <trkpt lat="46.483401" lon="13.787512">
        <ele>808.3</ele>
      </trkpt>
      <trkpt lat="46.483078" lon="13.786632">
        <ele>809.6</ele>
      </trkpt>
      <trkpt lat="46.48308" lon="13.78663">
        <ele>809.6</ele>
      </trkpt>
      <trkpt lat="46.4829" lon="13.78616">
        <ele>809.5</ele>
      </trkpt>
      <trkpt lat="46.48301" lon="13.78605">
        <ele>809.5</ele>
      </trkpt>
      <trkpt lat="46.48318" lon="13.78592">
        <ele>809.5</ele>
      </trkpt>
      <trkpt lat="46.48326" lon="13.78584">
        <ele>809.5</ele>
      </trkpt>
      <trkpt lat="46.48383" lon="13.78541">
        <ele>809.5</ele>
      </trkpt>
      <trkpt lat="46.484" lon="13.7852">
        <ele>810.6</ele>
      </trkpt>
      <trkpt lat="46.48413" lon="13.78546">
        <ele>810.2</ele>
      </trkpt>
      <trkpt lat="46.48439" lon="13.78585">
        <ele>808.7</ele>
      </trkpt>
      <trkpt lat="46.48448" lon="13.78579">
        <ele>808.7</ele>
      </trkpt>
      <trkpt lat="46.48451" lon="13.78577">
        <ele>808.8</ele>
      </trkpt>
      <trkpt lat="46.48451" lon="13.78577">
        <ele>808.8</ele>
      </trkpt>
      <trkpt lat="46.48452" lon="13.78576">
        <ele>808.8</ele>
      </trkpt>
      <trkpt lat="46.48455" lon="13.78574">
        <ele>808.8</ele>
      </trkpt>
      <trkpt lat="46.4845" lon="13.78566">
        <ele>809.1</ele>
      </trkpt>
      <trkpt lat="46.4844" lon="13.78526">
        <ele>810.4</ele>
      </trkpt>
      <trkpt lat="46.4842" lon="13.78481">
        <ele>812.1</ele>
      </trkpt>
      <trkpt lat="46.48419" lon="13.7846">
        <ele>812.4</ele>
      </trkpt>
    </trkseg>
  </trk>
</gpx>
