<?xml version="1.0" encoding="UTF-8"?>
<gpx xmlns:gpxdata="http://www.cluetrust.com/XML/GPXDATA/1/0" xmlns:xsi="http://www.w3.org/2001/XMLSchema-instance" xmlns="http://www.topografix.com/GPX/1/1" version="1.1" creator="http://ridewithgps.com/" xsi:schemaLocation="http://www.topografix.com/GPX/1/1 http://www.topografix.com/GPX/1/1/gpx.xsd http://www.cluetrust.com/XML/GPXDATA/1/0 http://www.cluetrust.com/Schemas/gpxdata10.xsd">
  <metadata>
    <name>JATral 10 km 2026</name>
    <link href="https://ridewithgps.com/routes/55677873">
      <text>JATral 10 km 2026</text>
    </link>
    <time>2026-06-16T11:04:53Z</time>
  </metadata>
  <trk>
    <name>JATral 10 km 2026</name>
    <trkseg>
      <trkpt lat="46.48501" lon="13.78567">
        <ele>808.2</ele>
      </trkpt>
      <trkpt lat="46.48501" lon="13.78567">
        <ele>808.2</ele>
      </trkpt>
      <trkpt lat="46.48501" lon="13.78567">
        <ele>808.2</ele>
      </trkpt>
      <trkpt lat="46.48501" lon="13.78567">
        <ele>808.2</ele>
      </trkpt>
      <trkpt lat="46.48501" lon="13.78567">
        <ele>808.2</ele>
      </trkpt>
      <trkpt lat="46.48548" lon="13.78582">
        <ele>807.4</ele>
      </trkpt>
      <trkpt lat="46.48607" lon="13.78592">
        <ele>806.7</ele>
      </trkpt>
      <trkpt lat="46.48647" lon="13.78585">
        <ele>806.2</ele>
      </trkpt>
      <trkpt lat="46.48647" lon="13.78584">
        <ele>806.2</ele>
      </trkpt>
      <trkpt lat="46.48653" lon="13.78583">
        <ele>806.2</ele>
      </trkpt>
      <trkpt lat="46.48656" lon="13.78604">
        <ele>805.7</ele>
      </trkpt>
      <trkpt lat="46.48683" lon="13.78679">
        <ele>803.4</ele>
      </trkpt>
      <trkpt lat="46.48689" lon="13.787">
        <ele>803.0</ele>
      </trkpt>
      <trkpt lat="46.48695" lon="13.78723">
        <ele>802.5</ele>
      </trkpt>
      <trkpt lat="46.48701" lon="13.7876">
        <ele>802.0</ele>
      </trkpt>
      <trkpt lat="46.48707" lon="13.78828">
        <ele>802.5</ele>
      </trkpt>
      <trkpt lat="46.48713" lon="13.78896">
        <ele>800.9</ele>
      </trkpt>
      <trkpt lat="46.48702" lon="13.78896">
        <ele>801.1</ele>
      </trkpt>
      <trkpt lat="46.48684" lon="13.78889">
        <ele>801.6</ele>
      </trkpt>
      <trkpt lat="46.48643" lon="13.78872">
        <ele>802.4</ele>
      </trkpt>
      <trkpt lat="46.48637" lon="13.78866">
        <ele>802.5</ele>
      </trkpt>
      <trkpt lat="46.48612" lon="13.78829">
        <ele>802.8</ele>
      </trkpt>
      <trkpt lat="46.486" lon="13.78816">
        <ele>802.9</ele>
      </trkpt>
      <trkpt lat="46.48585" lon="13.78793">
        <ele>803.5</ele>
      </trkpt>
      <trkpt lat="46.48573" lon="13.7879">
        <ele>803.6</ele>
      </trkpt>
      <trkpt lat="46.48558" lon="13.7878">
        <ele>803.9</ele>
      </trkpt>
      <trkpt lat="46.48525" lon="13.78715">
        <ele>806.0</ele>
      </trkpt>
      <trkpt lat="46.48504" lon="13.78702">
        <ele>806.2</ele>
      </trkpt>
      <trkpt lat="46.48499" lon="13.78698">
        <ele>806.2</ele>
      </trkpt>
      <trkpt lat="46.48494" lon="13.78692">
        <ele>806.3</ele>
      </trkpt>
      <trkpt lat="46.48474" lon="13.7865">
        <ele>807.0</ele>
      </trkpt>
      <trkpt lat="46.48456" lon="13.78669">
        <ele>806.4</ele>
      </trkpt>
      <trkpt lat="46.48453" lon="13.7867">
        <ele>806.3</ele>
      </trkpt>
      <trkpt lat="46.48449" lon="13.7867">
        <ele>806.2</ele>
      </trkpt>
      <trkpt lat="46.48409" lon="13.78659">
        <ele>806.3</ele>
      </trkpt>
      <trkpt lat="46.48402" lon="13.78658">
        <ele>806.3</ele>
      </trkpt>
      <trkpt lat="46.48379" lon="13.78655">
        <ele>806.4</ele>
      </trkpt>
      <trkpt lat="46.48363" lon="13.78656">
        <ele>806.3</ele>
      </trkpt>
      <trkpt lat="46.4835" lon="13.78663">
        <ele>806.1</ele>
      </trkpt>
      <trkpt lat="46.48347" lon="13.78651">
        <ele>806.4</ele>
      </trkpt>
      <trkpt lat="46.48326" lon="13.78584">
        <ele>812.7</ele>
      </trkpt>
      <trkpt lat="46.48318" lon="13.78592">
        <ele>813.9</ele>
      </trkpt>
      <trkpt lat="46.48306" lon="13.78601">
        <ele>815.6</ele>
      </trkpt>
      <trkpt lat="46.48306" lon="13.78601">
        <ele>815.6</ele>
      </trkpt>
      <trkpt lat="46.48301" lon="13.78605">
        <ele>816.3</ele>
      </trkpt>
      <trkpt lat="46.48294" lon="13.78612">
        <ele>817.3</ele>
      </trkpt>
      <trkpt lat="46.48282" lon="13.78587">
        <ele>820.0</ele>
      </trkpt>
      <trkpt lat="46.48269" lon="13.7854">
        <ele>819.8</ele>
      </trkpt>
      <trkpt lat="46.48265" lon="13.78534">
        <ele>820.0</ele>
      </trkpt>
      <trkpt lat="46.48259" lon="13.78522">
        <ele>819.9</ele>
      </trkpt>
      <trkpt lat="46.48254" lon="13.78501">
        <ele>818.6</ele>
      </trkpt>
      <trkpt lat="46.48236" lon="13.78455">
        <ele>820.7</ele>
      </trkpt>
      <trkpt lat="46.4823" lon="13.7844">
        <ele>821.6</ele>
      </trkpt>
      <trkpt lat="46.48207" lon="13.78396">
        <ele>825.5</ele>
      </trkpt>
      <trkpt lat="46.48196" lon="13.7839">
        <ele>828.4</ele>
      </trkpt>
      <trkpt lat="46.48193" lon="13.78388">
        <ele>829.1</ele>
      </trkpt>
      <trkpt lat="46.48177" lon="13.78366">
        <ele>829.2</ele>
      </trkpt>
      <trkpt lat="46.48171" lon="13.78348">
        <ele>826.1</ele>
      </trkpt>
      <trkpt lat="46.48162" lon="13.78325">
        <ele>822.7</ele>
      </trkpt>
      <trkpt lat="46.48157" lon="13.78312">
        <ele>821.7</ele>
      </trkpt>
      <trkpt lat="46.4815" lon="13.78304">
        <ele>821.4</ele>
      </trkpt>
      <trkpt lat="46.48143" lon="13.783">
        <ele>821.5</ele>
      </trkpt>
      <trkpt lat="46.48116" lon="13.78302">
        <ele>824.8</ele>
      </trkpt>
      <trkpt lat="46.48106" lon="13.78302">
        <ele>825.9</ele>
      </trkpt>
      <trkpt lat="46.48087" lon="13.78297">
        <ele>826.6</ele>
      </trkpt>
      <trkpt lat="46.48046" lon="13.78292">
        <ele>831.9</ele>
      </trkpt>
      <trkpt lat="46.48037" lon="13.78288">
        <ele>831.9</ele>
      </trkpt>
      <trkpt lat="46.48015" lon="13.78265">
        <ele>826.0</ele>
      </trkpt>
      <trkpt lat="46.48002" lon="13.78257">
        <ele>823.9</ele>
      </trkpt>
      <trkpt lat="46.47979" lon="13.78245">
        <ele>826.6</ele>
      </trkpt>
      <trkpt lat="46.47956" lon="13.78236">
        <ele>831.3</ele>
      </trkpt>
      <trkpt lat="46.4794" lon="13.78229">
        <ele>833.8</ele>
      </trkpt>
      <trkpt lat="46.47916" lon="13.78208">
        <ele>833.0</ele>
      </trkpt>
      <trkpt lat="46.47904" lon="13.78194">
        <ele>831.3</ele>
      </trkpt>
      <trkpt lat="46.47875" lon="13.78149">
        <ele>826.9</ele>
      </trkpt>
      <trkpt lat="46.4786" lon="13.78125">
        <ele>825.6</ele>
      </trkpt>
      <trkpt lat="46.47847" lon="13.78114">
        <ele>824.9</ele>
      </trkpt>
      <trkpt lat="46.47833" lon="13.78119">
        <ele>827.1</ele>
      </trkpt>
      <trkpt lat="46.47825" lon="13.78124">
        <ele>828.4</ele>
      </trkpt>
      <trkpt lat="46.47814" lon="13.78124">
        <ele>828.6</ele>
      </trkpt>
      <trkpt lat="46.47798" lon="13.7812">
        <ele>828.1</ele>
      </trkpt>
      <trkpt lat="46.47795" lon="13.78124">
        <ele>829.0</ele>
      </trkpt>
      <trkpt lat="46.47792" lon="13.78128">
        <ele>829.9</ele>
      </trkpt>
      <trkpt lat="46.47785" lon="13.7813">
        <ele>830.4</ele>
      </trkpt>
      <trkpt lat="46.47764" lon="13.78131">
        <ele>830.9</ele>
      </trkpt>
      <trkpt lat="46.47738" lon="13.78139">
        <ele>832.6</ele>
      </trkpt>
      <trkpt lat="46.47733" lon="13.78145">
        <ele>833.7</ele>
      </trkpt>
      <trkpt lat="46.4773" lon="13.78145">
        <ele>833.7</ele>
      </trkpt>
      <trkpt lat="46.47725" lon="13.78146">
        <ele>833.9</ele>
      </trkpt>
      <trkpt lat="46.47714" lon="13.78133">
        <ele>831.5</ele>
      </trkpt>
      <trkpt lat="46.47696" lon="13.78117">
        <ele>828.6</ele>
      </trkpt>
      <trkpt lat="46.47693" lon="13.78117">
        <ele>828.6</ele>
      </trkpt>
      <trkpt lat="46.47681" lon="13.78114">
        <ele>828.1</ele>
      </trkpt>
      <trkpt lat="46.4767" lon="13.78122">
        <ele>829.5</ele>
      </trkpt>
      <trkpt lat="46.47664" lon="13.78132">
        <ele>831.2</ele>
      </trkpt>
      <trkpt lat="46.47657" lon="13.78137">
        <ele>832.0</ele>
      </trkpt>
      <trkpt lat="46.47651" lon="13.78141">
        <ele>832.6</ele>
      </trkpt>
      <trkpt lat="46.47631" lon="13.78141">
        <ele>832.5</ele>
      </trkpt>
      <trkpt lat="46.47628" lon="13.78138">
        <ele>832.1</ele>
      </trkpt>
      <trkpt lat="46.47619" lon="13.78131">
        <ele>831.1</ele>
      </trkpt>
      <trkpt lat="46.47617" lon="13.78133">
        <ele>831.4</ele>
      </trkpt>
      <trkpt lat="46.47602" lon="13.78128">
        <ele>830.8</ele>
      </trkpt>
      <trkpt lat="46.47598" lon="13.78129">
        <ele>830.9</ele>
      </trkpt>
      <trkpt lat="46.47573" lon="13.78132">
        <ele>831.8</ele>
      </trkpt>
      <trkpt lat="46.47556" lon="13.7814">
        <ele>833.0</ele>
      </trkpt>
      <trkpt lat="46.47547" lon="13.78148">
        <ele>833.3</ele>
      </trkpt>
      <trkpt lat="46.47549" lon="13.78155">
        <ele>833.3</ele>
      </trkpt>
      <trkpt lat="46.47549" lon="13.78175">
        <ele>833.7</ele>
      </trkpt>
      <trkpt lat="46.47553" lon="13.78193">
        <ele>834.7</ele>
      </trkpt>
      <trkpt lat="46.47565" lon="13.78208">
        <ele>836.2</ele>
      </trkpt>
      <trkpt lat="46.47578" lon="13.78245">
        <ele>839.2</ele>
      </trkpt>
      <trkpt lat="46.47592" lon="13.78256">
        <ele>841.0</ele>
      </trkpt>
      <trkpt lat="46.47603" lon="13.78264">
        <ele>842.3</ele>
      </trkpt>
      <trkpt lat="46.47609" lon="13.78271">
        <ele>843.1</ele>
      </trkpt>
      <trkpt lat="46.47614" lon="13.78284">
        <ele>844.3</ele>
      </trkpt>
      <trkpt lat="46.4762" lon="13.78302">
        <ele>845.8</ele>
      </trkpt>
      <trkpt lat="46.4762" lon="13.78326">
        <ele>847.0</ele>
      </trkpt>
      <trkpt lat="46.47621" lon="13.78352">
        <ele>849.3</ele>
      </trkpt>
      <trkpt lat="46.47619" lon="13.78386">
        <ele>852.3</ele>
      </trkpt>
      <trkpt lat="46.47616" lon="13.78427">
        <ele>856.4</ele>
      </trkpt>
      <trkpt lat="46.47612" lon="13.78458">
        <ele>860.1</ele>
      </trkpt>
      <trkpt lat="46.47604" lon="13.78505">
        <ele>865.4</ele>
      </trkpt>
      <trkpt lat="46.47594" lon="13.78554">
        <ele>873.1</ele>
      </trkpt>
      <trkpt lat="46.47592" lon="13.78565">
        <ele>874.9</ele>
      </trkpt>
      <trkpt lat="46.47588" lon="13.78608">
        <ele>882.3</ele>
      </trkpt>
      <trkpt lat="46.47583" lon="13.7863">
        <ele>885.4</ele>
      </trkpt>
      <trkpt lat="46.47576" lon="13.78646">
        <ele>887.8</ele>
      </trkpt>
      <trkpt lat="46.47569" lon="13.78655">
        <ele>888.9</ele>
      </trkpt>
      <trkpt lat="46.47525" lon="13.78678">
        <ele>891.5</ele>
      </trkpt>
      <trkpt lat="46.4749" lon="13.787">
        <ele>894.9</ele>
      </trkpt>
      <trkpt lat="46.4748" lon="13.7871">
        <ele>896.7</ele>
      </trkpt>
      <trkpt lat="46.47469" lon="13.78718">
        <ele>897.9</ele>
      </trkpt>
      <trkpt lat="46.47455" lon="13.78727">
        <ele>899.0</ele>
      </trkpt>
      <trkpt lat="46.47449" lon="13.78734">
        <ele>900.2</ele>
      </trkpt>
      <trkpt lat="46.47432" lon="13.78783">
        <ele>912.0</ele>
      </trkpt>
      <trkpt lat="46.47423" lon="13.78798">
        <ele>915.5</ele>
      </trkpt>
      <trkpt lat="46.47416" lon="13.78802">
        <ele>916.0</ele>
      </trkpt>
      <trkpt lat="46.47411" lon="13.78798">
        <ele>914.6</ele>
      </trkpt>
      <trkpt lat="46.47408" lon="13.78785">
        <ele>910.8</ele>
      </trkpt>
      <trkpt lat="46.474" lon="13.78766">
        <ele>905.1</ele>
      </trkpt>
      <trkpt lat="46.47391" lon="13.78763">
        <ele>904.0</ele>
      </trkpt>
      <trkpt lat="46.47385" lon="13.78766">
        <ele>904.7</ele>
      </trkpt>
      <trkpt lat="46.4738" lon="13.78772">
        <ele>906.2</ele>
      </trkpt>
      <trkpt lat="46.47381" lon="13.7878">
        <ele>908.5</ele>
      </trkpt>
      <trkpt lat="46.47384" lon="13.78785">
        <ele>910.0</ele>
      </trkpt>
      <trkpt lat="46.47392" lon="13.78789">
        <ele>911.4</ele>
      </trkpt>
      <trkpt lat="46.47398" lon="13.78796">
        <ele>913.6</ele>
      </trkpt>
      <trkpt lat="46.474" lon="13.78798">
        <ele>914.2</ele>
      </trkpt>
      <trkpt lat="46.47411" lon="13.7883">
        <ele>923.8</ele>
      </trkpt>
      <trkpt lat="46.47418" lon="13.78836">
        <ele>925.8</ele>
      </trkpt>
      <trkpt lat="46.47425" lon="13.78834">
        <ele>926.2</ele>
      </trkpt>
      <trkpt lat="46.47439" lon="13.78817">
        <ele>922.8</ele>
      </trkpt>
      <trkpt lat="46.4744" lon="13.78813">
        <ele>921.7</ele>
      </trkpt>
      <trkpt lat="46.47447" lon="13.78793">
        <ele>916.5</ele>
      </trkpt>
      <trkpt lat="46.47458" lon="13.7878">
        <ele>913.7</ele>
      </trkpt>
      <trkpt lat="46.47471" lon="13.78776">
        <ele>913.7</ele>
      </trkpt>
      <trkpt lat="46.47478" lon="13.78777">
        <ele>914.6</ele>
      </trkpt>
      <trkpt lat="46.47534" lon="13.78778">
        <ele>919.8</ele>
      </trkpt>
      <trkpt lat="46.47546" lon="13.78779">
        <ele>921.0</ele>
      </trkpt>
      <trkpt lat="46.47578" lon="13.78785">
        <ele>925.0</ele>
      </trkpt>
      <trkpt lat="46.47631" lon="13.78795">
        <ele>929.9</ele>
      </trkpt>
      <trkpt lat="46.47658" lon="13.78801">
        <ele>931.8</ele>
      </trkpt>
      <trkpt lat="46.47671" lon="13.78813">
        <ele>932.9</ele>
      </trkpt>
      <trkpt lat="46.47675" lon="13.78823">
        <ele>933.5</ele>
      </trkpt>
      <trkpt lat="46.47678" lon="13.78831">
        <ele>934.1</ele>
      </trkpt>
      <trkpt lat="46.47687" lon="13.78877">
        <ele>939.6</ele>
      </trkpt>
      <trkpt lat="46.47697" lon="13.78903">
        <ele>942.3</ele>
      </trkpt>
      <trkpt lat="46.47695" lon="13.78918">
        <ele>944.8</ele>
      </trkpt>
      <trkpt lat="46.47686" lon="13.78937">
        <ele>948.1</ele>
      </trkpt>
      <trkpt lat="46.47679" lon="13.78959">
        <ele>951.4</ele>
      </trkpt>
      <trkpt lat="46.47685" lon="13.78978">
        <ele>953.1</ele>
      </trkpt>
      <trkpt lat="46.4769" lon="13.78985">
        <ele>953.5</ele>
      </trkpt>
      <trkpt lat="46.47705" lon="13.7899">
        <ele>952.9</ele>
      </trkpt>
      <trkpt lat="46.47714" lon="13.78989">
        <ele>952.1</ele>
      </trkpt>
      <trkpt lat="46.47728" lon="13.78983">
        <ele>950.1</ele>
      </trkpt>
      <trkpt lat="46.4774" lon="13.78973">
        <ele>947.7</ele>
      </trkpt>
      <trkpt lat="46.47757" lon="13.78957">
        <ele>944.3</ele>
      </trkpt>
      <trkpt lat="46.47767" lon="13.78952">
        <ele>943.5</ele>
      </trkpt>
      <trkpt lat="46.47775" lon="13.78952">
        <ele>943.5</ele>
      </trkpt>
      <trkpt lat="46.47791" lon="13.78954">
        <ele>943.7</ele>
      </trkpt>
      <trkpt lat="46.47812" lon="13.78961">
        <ele>944.4</ele>
      </trkpt>
      <trkpt lat="46.47828" lon="13.78977">
        <ele>945.9</ele>
      </trkpt>
      <trkpt lat="46.47847" lon="13.79005">
        <ele>948.2</ele>
      </trkpt>
      <trkpt lat="46.47856" lon="13.79017">
        <ele>948.7</ele>
      </trkpt>
      <trkpt lat="46.47884" lon="13.79068">
        <ele>948.6</ele>
      </trkpt>
      <trkpt lat="46.47916" lon="13.79127">
        <ele>947.2</ele>
      </trkpt>
      <trkpt lat="46.47918" lon="13.79133">
        <ele>947.4</ele>
      </trkpt>
      <trkpt lat="46.47931" lon="13.79178">
        <ele>948.7</ele>
      </trkpt>
      <trkpt lat="46.4793" lon="13.79202">
        <ele>948.7</ele>
      </trkpt>
      <trkpt lat="46.4793" lon="13.79225">
        <ele>948.7</ele>
      </trkpt>
      <trkpt lat="46.47934" lon="13.79244">
        <ele>948.4</ele>
      </trkpt>
      <trkpt lat="46.47943" lon="13.79268">
        <ele>947.5</ele>
      </trkpt>
      <trkpt lat="46.47953" lon="13.79281">
        <ele>945.9</ele>
      </trkpt>
      <trkpt lat="46.47963" lon="13.79294">
        <ele>943.8</ele>
      </trkpt>
      <trkpt lat="46.47993" lon="13.79327">
        <ele>934.6</ele>
      </trkpt>
      <trkpt lat="46.47999" lon="13.79334">
        <ele>932.3</ele>
      </trkpt>
      <trkpt lat="46.480293" lon="13.793538">
        <ele>930.6</ele>
      </trkpt>
      <trkpt lat="46.480845" lon="13.793856">
        <ele>922.3</ele>
      </trkpt>
      <trkpt lat="46.480918" lon="13.794269">
        <ele>918.4</ele>
      </trkpt>
      <trkpt lat="46.480853" lon="13.794776">
        <ele>920.7</ele>
      </trkpt>
      <trkpt lat="46.480894" lon="13.795342">
        <ele>924.1</ele>
      </trkpt>
      <trkpt lat="46.480878" lon="13.795755">
        <ele>929.1</ele>
      </trkpt>
      <trkpt lat="46.480732" lon="13.795955">
        <ele>934.1</ele>
      </trkpt>
      <trkpt lat="46.48038" lon="13.79598">
        <ele>944.5</ele>
      </trkpt>
      <trkpt lat="46.48019" lon="13.796">
        <ele>949.9</ele>
      </trkpt>
      <trkpt lat="46.47997" lon="13.79611">
        <ele>955.0</ele>
      </trkpt>
      <trkpt lat="46.47982" lon="13.79625">
        <ele>957.1</ele>
      </trkpt>
      <trkpt lat="46.47968" lon="13.79644">
        <ele>958.6</ele>
      </trkpt>
      <trkpt lat="46.47965" lon="13.79652">
        <ele>958.7</ele>
      </trkpt>
      <trkpt lat="46.47967" lon="13.79659">
        <ele>957.6</ele>
      </trkpt>
      <trkpt lat="46.47974" lon="13.79683">
        <ele>955.3</ele>
      </trkpt>
      <trkpt lat="46.4797" lon="13.79696">
        <ele>956.5</ele>
      </trkpt>
      <trkpt lat="46.47957" lon="13.79712">
        <ele>960.2</ele>
      </trkpt>
      <trkpt lat="46.47956" lon="13.7972">
        <ele>960.6</ele>
      </trkpt>
      <trkpt lat="46.47959" lon="13.79727">
        <ele>959.9</ele>
      </trkpt>
      <trkpt lat="46.47982" lon="13.79759">
        <ele>955.2</ele>
      </trkpt>
      <trkpt lat="46.47989" lon="13.79781">
        <ele>957.6</ele>
      </trkpt>
      <trkpt lat="46.47989" lon="13.79786">
        <ele>958.6</ele>
      </trkpt>
      <trkpt lat="46.47989" lon="13.79803">
        <ele>962.1</ele>
      </trkpt>
      <trkpt lat="46.47993" lon="13.79828">
        <ele>966.0</ele>
      </trkpt>
      <trkpt lat="46.48006" lon="13.79856">
        <ele>966.2</ele>
      </trkpt>
      <trkpt lat="46.48015" lon="13.79874">
        <ele>966.0</ele>
      </trkpt>
      <trkpt lat="46.48024" lon="13.79911">
        <ele>968.6</ele>
      </trkpt>
      <trkpt lat="46.48024" lon="13.79921">
        <ele>969.3</ele>
      </trkpt>
      <trkpt lat="46.48025" lon="13.79929">
        <ele>969.0</ele>
      </trkpt>
      <trkpt lat="46.4802" lon="13.79945">
        <ele>970.1</ele>
      </trkpt>
      <trkpt lat="46.48016" lon="13.79969">
        <ele>970.8</ele>
      </trkpt>
      <trkpt lat="46.4802" lon="13.79998">
        <ele>969.5</ele>
      </trkpt>
      <trkpt lat="46.48022" lon="13.80019">
        <ele>969.6</ele>
      </trkpt>
      <trkpt lat="46.48025" lon="13.80074">
        <ele>970.7</ele>
      </trkpt>
      <trkpt lat="46.48023" lon="13.80087">
        <ele>971.7</ele>
      </trkpt>
      <trkpt lat="46.48019" lon="13.8011">
        <ele>974.1</ele>
      </trkpt>
      <trkpt lat="46.48009" lon="13.80136">
        <ele>978.1</ele>
      </trkpt>
      <trkpt lat="46.47998" lon="13.8017">
        <ele>982.6</ele>
      </trkpt>
      <trkpt lat="46.47996" lon="13.80178">
        <ele>983.1</ele>
      </trkpt>
      <trkpt lat="46.47996" lon="13.80197">
        <ele>983.1</ele>
      </trkpt>
      <trkpt lat="46.47988" lon="13.80217">
        <ele>985.4</ele>
      </trkpt>
      <trkpt lat="46.47975" lon="13.80233">
        <ele>989.0</ele>
      </trkpt>
      <trkpt lat="46.47967" lon="13.80246">
        <ele>991.1</ele>
      </trkpt>
      <trkpt lat="46.47966" lon="13.80257">
        <ele>991.5</ele>
      </trkpt>
      <trkpt lat="46.47954" lon="13.80366">
        <ele>995.5</ele>
      </trkpt>
      <trkpt lat="46.47946" lon="13.80434">
        <ele>997.7</ele>
      </trkpt>
      <trkpt lat="46.47936" lon="13.80492">
        <ele>1001.9</ele>
      </trkpt>
      <trkpt lat="46.47935" lon="13.80502">
        <ele>1002.6</ele>
      </trkpt>
      <trkpt lat="46.47938" lon="13.80542">
        <ele>1003.8</ele>
      </trkpt>
      <trkpt lat="46.47944" lon="13.80575">
        <ele>1002.9</ele>
      </trkpt>
      <trkpt lat="46.4794" lon="13.80612">
        <ele>1007.3</ele>
      </trkpt>
      <trkpt lat="46.47937" lon="13.80628">
        <ele>1010.1</ele>
      </trkpt>
      <trkpt lat="46.47929" lon="13.80665">
        <ele>1017.3</ele>
      </trkpt>
      <trkpt lat="46.4793" lon="13.80697">
        <ele>1017.7</ele>
      </trkpt>
      <trkpt lat="46.47938" lon="13.80761">
        <ele>1014.3</ele>
      </trkpt>
      <trkpt lat="46.47947" lon="13.80833">
        <ele>1001.7</ele>
      </trkpt>
      <trkpt lat="46.47934" lon="13.80841">
        <ele>1002.6</ele>
      </trkpt>
      <trkpt lat="46.47901" lon="13.8086">
        <ele>1009.7</ele>
      </trkpt>
      <trkpt lat="46.47897" lon="13.80906">
        <ele>997.4</ele>
      </trkpt>
      <trkpt lat="46.47906" lon="13.80943">
        <ele>986.1</ele>
      </trkpt>
      <trkpt lat="46.47909" lon="13.80946">
        <ele>984.1</ele>
      </trkpt>
      <trkpt lat="46.47925" lon="13.8097">
        <ele>974.7</ele>
      </trkpt>
      <trkpt lat="46.47925" lon="13.80979">
        <ele>973.8</ele>
      </trkpt>
      <trkpt lat="46.47919" lon="13.80989">
        <ele>975.1</ele>
      </trkpt>
      <trkpt lat="46.47905" lon="13.8099">
        <ele>982.4</ele>
      </trkpt>
      <trkpt lat="46.47904" lon="13.81006">
        <ele>983.2</ele>
      </trkpt>
      <trkpt lat="46.47915" lon="13.81034">
        <ele>983.2</ele>
      </trkpt>
      <trkpt lat="46.47946" lon="13.81077">
        <ele>981.0</ele>
      </trkpt>
      <trkpt lat="46.47947" lon="13.81102">
        <ele>983.8</ele>
      </trkpt>
      <trkpt lat="46.47933" lon="13.81132">
        <ele>991.9</ele>
      </trkpt>
      <trkpt lat="46.47922" lon="13.81155">
        <ele>998.6</ele>
      </trkpt>
      <trkpt lat="46.47925" lon="13.8118">
        <ele>998.2</ele>
      </trkpt>
      <trkpt lat="46.47919" lon="13.81235">
        <ele>999.3</ele>
      </trkpt>
      <trkpt lat="46.47919" lon="13.81307">
        <ele>994.8</ele>
      </trkpt>
      <trkpt lat="46.4792" lon="13.81328">
        <ele>992.9</ele>
      </trkpt>
      <trkpt lat="46.47921" lon="13.81332">
        <ele>992.2</ele>
      </trkpt>
      <trkpt lat="46.47937" lon="13.81373">
        <ele>983.8</ele>
      </trkpt>
      <trkpt lat="46.4794" lon="13.81392">
        <ele>981.9</ele>
      </trkpt>
      <trkpt lat="46.47935" lon="13.81419">
        <ele>983.1</ele>
      </trkpt>
      <trkpt lat="46.47932" lon="13.81431">
        <ele>983.6</ele>
      </trkpt>
      <trkpt lat="46.47934" lon="13.81475">
        <ele>980.0</ele>
      </trkpt>
      <trkpt lat="46.47951" lon="13.81516">
        <ele>972.4</ele>
      </trkpt>
      <trkpt lat="46.47953" lon="13.81526">
        <ele>971.4</ele>
      </trkpt>
      <trkpt lat="46.47951" lon="13.81537">
        <ele>971.7</ele>
      </trkpt>
      <trkpt lat="46.47939" lon="13.81561">
        <ele>974.8</ele>
      </trkpt>
      <trkpt lat="46.47923" lon="13.81628">
        <ele>974.3</ele>
      </trkpt>
      <trkpt lat="46.47919" lon="13.81645">
        <ele>973.7</ele>
      </trkpt>
      <trkpt lat="46.47921" lon="13.81682">
        <ele>968.7</ele>
      </trkpt>
      <trkpt lat="46.47916" lon="13.81702">
        <ele>967.7</ele>
      </trkpt>
      <trkpt lat="46.47905" lon="13.81731">
        <ele>969.3</ele>
      </trkpt>
      <trkpt lat="46.47902" lon="13.81749">
        <ele>968.3</ele>
      </trkpt>
      <trkpt lat="46.47898" lon="13.81759">
        <ele>967.9</ele>
      </trkpt>
      <trkpt lat="46.47889" lon="13.8177">
        <ele>969.5</ele>
      </trkpt>
      <trkpt lat="46.47883" lon="13.81777">
        <ele>970.6</ele>
      </trkpt>
      <trkpt lat="46.47872" lon="13.81797">
        <ele>970.8</ele>
      </trkpt>
      <trkpt lat="46.47869" lon="13.8181">
        <ele>968.9</ele>
      </trkpt>
      <trkpt lat="46.47855" lon="13.81878">
        <ele>961.8</ele>
      </trkpt>
      <trkpt lat="46.47853" lon="13.81888">
        <ele>961.0</ele>
      </trkpt>
      <trkpt lat="46.47853" lon="13.81899">
        <ele>959.1</ele>
      </trkpt>
      <trkpt lat="46.4786" lon="13.81932">
        <ele>954.4</ele>
      </trkpt>
      <trkpt lat="46.47868" lon="13.81956">
        <ele>953.1</ele>
      </trkpt>
      <trkpt lat="46.47874" lon="13.81974">
        <ele>952.0</ele>
      </trkpt>
      <trkpt lat="46.47881" lon="13.82005">
        <ele>951.9</ele>
      </trkpt>
      <trkpt lat="46.47886" lon="13.82018">
        <ele>951.7</ele>
      </trkpt>
      <trkpt lat="46.47896" lon="13.82031">
        <ele>948.6</ele>
      </trkpt>
      <trkpt lat="46.47902" lon="13.82037">
        <ele>946.3</ele>
      </trkpt>
      <trkpt lat="46.47913" lon="13.82042">
        <ele>941.1</ele>
      </trkpt>
      <trkpt lat="46.47922" lon="13.82052">
        <ele>937.7</ele>
      </trkpt>
      <trkpt lat="46.47932" lon="13.82064">
        <ele>934.0</ele>
      </trkpt>
      <trkpt lat="46.47939" lon="13.8208">
        <ele>932.3</ele>
      </trkpt>
      <trkpt lat="46.47941" lon="13.82095">
        <ele>931.7</ele>
      </trkpt>
      <trkpt lat="46.47939" lon="13.82126">
        <ele>933.2</ele>
      </trkpt>
      <trkpt lat="46.47938" lon="13.82139">
        <ele>933.9</ele>
      </trkpt>
      <trkpt lat="46.47939" lon="13.8218">
        <ele>932.2</ele>
      </trkpt>
      <trkpt lat="46.47942" lon="13.82205">
        <ele>928.0</ele>
      </trkpt>
      <trkpt lat="46.47952" lon="13.8225">
        <ele>918.2</ele>
      </trkpt>
      <trkpt lat="46.47965" lon="13.82313">
        <ele>898.8</ele>
      </trkpt>
      <trkpt lat="46.47968" lon="13.82339">
        <ele>892.9</ele>
      </trkpt>
      <trkpt lat="46.47964" lon="13.82353">
        <ele>891.5</ele>
      </trkpt>
      <trkpt lat="46.47959" lon="13.82362">
        <ele>891.0</ele>
      </trkpt>
      <trkpt lat="46.47953" lon="13.82369">
        <ele>891.0</ele>
      </trkpt>
      <trkpt lat="46.47942" lon="13.82369">
        <ele>893.3</ele>
      </trkpt>
      <trkpt lat="46.4793" lon="13.8236">
        <ele>897.9</ele>
      </trkpt>
      <trkpt lat="46.47926" lon="13.82356">
        <ele>899.8</ele>
      </trkpt>
      <trkpt lat="46.47916" lon="13.82355">
        <ele>902.5</ele>
      </trkpt>
      <trkpt lat="46.47909" lon="13.82358">
        <ele>903.8</ele>
      </trkpt>
      <trkpt lat="46.47902" lon="13.82368">
        <ele>903.3</ele>
      </trkpt>
      <trkpt lat="46.47898" lon="13.82385">
        <ele>900.0</ele>
      </trkpt>
      <trkpt lat="46.47895" lon="13.82416">
        <ele>892.7</ele>
      </trkpt>
      <trkpt lat="46.47889" lon="13.82433">
        <ele>891.0</ele>
      </trkpt>
      <trkpt lat="46.47886" lon="13.8244">
        <ele>890.5</ele>
      </trkpt>
      <trkpt lat="46.47862" lon="13.82454">
        <ele>895.1</ele>
      </trkpt>
      <trkpt lat="46.47858" lon="13.82462">
        <ele>894.7</ele>
      </trkpt>
      <trkpt lat="46.47853" lon="13.82476">
        <ele>893.5</ele>
      </trkpt>
      <trkpt lat="46.47851" lon="13.8249">
        <ele>891.4</ele>
      </trkpt>
      <trkpt lat="46.47848" lon="13.82503">
        <ele>889.8</ele>
      </trkpt>
      <trkpt lat="46.47827" lon="13.82529">
        <ele>890.5</ele>
      </trkpt>
      <trkpt lat="46.47825" lon="13.82545">
        <ele>887.5</ele>
      </trkpt>
      <trkpt lat="46.47827" lon="13.82561">
        <ele>883.5</ele>
      </trkpt>
      <trkpt lat="46.47831" lon="13.82569">
        <ele>880.7</ele>
      </trkpt>
      <trkpt lat="46.47841" lon="13.8259">
        <ele>873.4</ele>
      </trkpt>
      <trkpt lat="46.47845" lon="13.82602">
        <ele>869.9</ele>
      </trkpt>
      <trkpt lat="46.47844" lon="13.82612">
        <ele>868.2</ele>
      </trkpt>
      <trkpt lat="46.47829" lon="13.82634">
        <ele>867.6</ele>
      </trkpt>
      <trkpt lat="46.47824" lon="13.82639">
        <ele>867.6</ele>
      </trkpt>
      <trkpt lat="46.47811" lon="13.82651">
        <ele>867.6</ele>
      </trkpt>
      <trkpt lat="46.47799" lon="13.82656">
        <ele>868.7</ele>
      </trkpt>
      <trkpt lat="46.47796" lon="13.8266">
        <ele>868.3</ele>
      </trkpt>
      <trkpt lat="46.47793" lon="13.8267">
        <ele>866.4</ele>
      </trkpt>
      <trkpt lat="46.47793" lon="13.82676">
        <ele>864.9</ele>
      </trkpt>
      <trkpt lat="46.47797" lon="13.82679">
        <ele>863.5</ele>
      </trkpt>
      <trkpt lat="46.4781" lon="13.82668">
        <ele>863.9</ele>
      </trkpt>
      <trkpt lat="46.47833" lon="13.82659">
        <ele>861.6</ele>
      </trkpt>
      <trkpt lat="46.47846" lon="13.82649">
        <ele>860.2</ele>
      </trkpt>
      <trkpt lat="46.47856" lon="13.82639">
        <ele>859.5</ele>
      </trkpt>
      <trkpt lat="46.47866" lon="13.82633">
        <ele>857.9</ele>
      </trkpt>
      <trkpt lat="46.47874" lon="13.8263">
        <ele>856.3</ele>
      </trkpt>
      <trkpt lat="46.47895" lon="13.82627">
        <ele>851.1</ele>
      </trkpt>
      <trkpt lat="46.479" lon="13.82626">
        <ele>849.9</ele>
      </trkpt>
      <trkpt lat="46.47909" lon="13.82621">
        <ele>848.3</ele>
      </trkpt>
      <trkpt lat="46.47954" lon="13.82569">
        <ele>848.7</ele>
      </trkpt>
      <trkpt lat="46.47974" lon="13.82549">
        <ele>848.9</ele>
      </trkpt>
      <trkpt lat="46.47984" lon="13.82545">
        <ele>847.8</ele>
      </trkpt>
      <trkpt lat="46.48006" lon="13.82553">
        <ele>841.6</ele>
      </trkpt>
      <trkpt lat="46.48015" lon="13.82551">
        <ele>839.5</ele>
      </trkpt>
      <trkpt lat="46.48028" lon="13.82544">
        <ele>837.4</ele>
      </trkpt>
      <trkpt lat="46.48045" lon="13.82541">
        <ele>833.5</ele>
      </trkpt>
      <trkpt lat="46.48058" lon="13.82534">
        <ele>831.5</ele>
      </trkpt>
      <trkpt lat="46.48078" lon="13.82514">
        <ele>830.4</ele>
      </trkpt>
      <trkpt lat="46.481" lon="13.82495">
        <ele>826.7</ele>
      </trkpt>
      <trkpt lat="46.48108" lon="13.82475">
        <ele>826.2</ele>
      </trkpt>
      <trkpt lat="46.48111" lon="13.82461">
        <ele>826.7</ele>
      </trkpt>
      <trkpt lat="46.48117" lon="13.8245">
        <ele>825.5</ele>
      </trkpt>
      <trkpt lat="46.48126" lon="13.82442">
        <ele>822.5</ele>
      </trkpt>
      <trkpt lat="46.48155" lon="13.82433">
        <ele>810.4</ele>
      </trkpt>
      <trkpt lat="46.48162" lon="13.82423">
        <ele>807.8</ele>
      </trkpt>
      <trkpt lat="46.48164" lon="13.82416">
        <ele>807.3</ele>
      </trkpt>
      <trkpt lat="46.48155" lon="13.82393">
        <ele>813.9</ele>
      </trkpt>
      <trkpt lat="46.48154" lon="13.82379">
        <ele>815.8</ele>
      </trkpt>
      <trkpt lat="46.48156" lon="13.82373">
        <ele>815.6</ele>
      </trkpt>
      <trkpt lat="46.48157" lon="13.82369">
        <ele>815.6</ele>
      </trkpt>
      <trkpt lat="46.48165" lon="13.82362">
        <ele>813.2</ele>
      </trkpt>
      <trkpt lat="46.48173" lon="13.82359">
        <ele>811.6</ele>
      </trkpt>
      <trkpt lat="46.48182" lon="13.82361">
        <ele>809.5</ele>
      </trkpt>
      <trkpt lat="46.48203" lon="13.8237">
        <ele>803.6</ele>
      </trkpt>
      <trkpt lat="46.48231" lon="13.82388">
        <ele>793.6</ele>
      </trkpt>
      <trkpt lat="46.48236" lon="13.82385">
        <ele>793.0</ele>
      </trkpt>
      <trkpt lat="46.48248" lon="13.82371">
        <ele>793.4</ele>
      </trkpt>
      <trkpt lat="46.48255" lon="13.82368">
        <ele>792.8</ele>
      </trkpt>
      <trkpt lat="46.48276" lon="13.82379">
        <ele>786.8</ele>
      </trkpt>
      <trkpt lat="46.48302" lon="13.82382">
        <ele>781.9</ele>
      </trkpt>
      <trkpt lat="46.48344" lon="13.82358">
        <ele>778.8</ele>
      </trkpt>
      <trkpt lat="46.48351" lon="13.82358">
        <ele>777.4</ele>
      </trkpt>
      <trkpt lat="46.48366" lon="13.82366">
        <ele>773.4</ele>
      </trkpt>
      <trkpt lat="46.48372" lon="13.82364">
        <ele>772.6</ele>
      </trkpt>
      <trkpt lat="46.48372" lon="13.82364">
        <ele>772.6</ele>
      </trkpt>
      <trkpt lat="46.48383" lon="13.82362">
        <ele>770.7</ele>
      </trkpt>
      <trkpt lat="46.48425" lon="13.8232">
        <ele>765.3</ele>
      </trkpt>
      <trkpt lat="46.48427" lon="13.8232">
        <ele>765.1</ele>
      </trkpt>
      <trkpt lat="46.48427" lon="13.8232">
        <ele>765.1</ele>
      </trkpt>
      <trkpt lat="46.48436" lon="13.82321">
        <ele>763.9</ele>
      </trkpt>
      <trkpt lat="46.48455" lon="13.82254">
        <ele>762.9</ele>
      </trkpt>
      <trkpt lat="46.48457" lon="13.82236">
        <ele>763.1</ele>
      </trkpt>
      <trkpt lat="46.48457" lon="13.8222">
        <ele>763.5</ele>
      </trkpt>
      <trkpt lat="46.48457" lon="13.8222">
        <ele>763.5</ele>
      </trkpt>
      <trkpt lat="46.48457" lon="13.82181">
        <ele>764.7</ele>
      </trkpt>
      <trkpt lat="46.48459" lon="13.82152">
        <ele>765.8</ele>
      </trkpt>
      <trkpt lat="46.48462" lon="13.82124">
        <ele>767.2</ele>
      </trkpt>
      <trkpt lat="46.48469" lon="13.82093">
        <ele>768.0</ele>
      </trkpt>
      <trkpt lat="46.48474" lon="13.82066">
        <ele>767.3</ele>
      </trkpt>
      <trkpt lat="46.48501" lon="13.81972">
        <ele>761.7</ele>
      </trkpt>
      <trkpt lat="46.48527" lon="13.81884">
        <ele>763.1</ele>
      </trkpt>
      <trkpt lat="46.48548" lon="13.8181">
        <ele>766.3</ele>
      </trkpt>
      <trkpt lat="46.48569" lon="13.81736">
        <ele>770.0</ele>
      </trkpt>
      <trkpt lat="46.48604" lon="13.81616">
        <ele>773.3</ele>
      </trkpt>
      <trkpt lat="46.48616" lon="13.81571">
        <ele>772.7</ele>
      </trkpt>
      <trkpt lat="46.48633" lon="13.81496">
        <ele>771.3</ele>
      </trkpt>
      <trkpt lat="46.48642" lon="13.81447">
        <ele>772.9</ele>
      </trkpt>
      <trkpt lat="46.48649" lon="13.81366">
        <ele>774.7</ele>
      </trkpt>
      <trkpt lat="46.4865" lon="13.81271">
        <ele>775.8</ele>
      </trkpt>
      <trkpt lat="46.48648" lon="13.81231">
        <ele>776.3</ele>
      </trkpt>
      <trkpt lat="46.48646" lon="13.81201">
        <ele>776.7</ele>
      </trkpt>
      <trkpt lat="46.48632" lon="13.81079">
        <ele>776.4</ele>
      </trkpt>
      <trkpt lat="46.48623" lon="13.81012">
        <ele>776.9</ele>
      </trkpt>
      <trkpt lat="46.48615" lon="13.80945">
        <ele>778.0</ele>
      </trkpt>
      <trkpt lat="46.4861" lon="13.80911">
        <ele>778.5</ele>
      </trkpt>
      <trkpt lat="46.48605" lon="13.80846">
        <ele>780.5</ele>
      </trkpt>
      <trkpt lat="46.48605" lon="13.8082">
        <ele>781.1</ele>
      </trkpt>
      <trkpt lat="46.48607" lon="13.8077">
        <ele>781.5</ele>
      </trkpt>
      <trkpt lat="46.48614" lon="13.80704">
        <ele>782.7</ele>
      </trkpt>
      <trkpt lat="46.48624" lon="13.80639">
        <ele>783.0</ele>
      </trkpt>
      <trkpt lat="46.48634" lon="13.80574">
        <ele>782.9</ele>
      </trkpt>
      <trkpt lat="46.48634" lon="13.80574">
        <ele>782.9</ele>
      </trkpt>
      <trkpt lat="46.48642" lon="13.80515">
        <ele>783.7</ele>
      </trkpt>
      <trkpt lat="46.4865" lon="13.80449">
        <ele>784.0</ele>
      </trkpt>
      <trkpt lat="46.4865" lon="13.80449">
        <ele>784.0</ele>
      </trkpt>
      <trkpt lat="46.48654" lon="13.80408">
        <ele>784.0</ele>
      </trkpt>
      <trkpt lat="46.48655" lon="13.80353">
        <ele>784.4</ele>
      </trkpt>
      <trkpt lat="46.48652" lon="13.80292">
        <ele>785.4</ele>
      </trkpt>
      <trkpt lat="46.48652" lon="13.80292">
        <ele>785.4</ele>
      </trkpt>
      <trkpt lat="46.48643" lon="13.80187">
        <ele>787.5</ele>
      </trkpt>
      <trkpt lat="46.48645" lon="13.80148">
        <ele>787.5</ele>
      </trkpt>
      <trkpt lat="46.48647" lon="13.80138">
        <ele>787.3</ele>
      </trkpt>
      <trkpt lat="46.48644" lon="13.80103">
        <ele>788.5</ele>
      </trkpt>
      <trkpt lat="46.48642" lon="13.80089">
        <ele>789.0</ele>
      </trkpt>
      <trkpt lat="46.48632" lon="13.80088">
        <ele>790.8</ele>
      </trkpt>
      <trkpt lat="46.48627" lon="13.80086">
        <ele>791.6</ele>
      </trkpt>
      <trkpt lat="46.48624" lon="13.8008">
        <ele>792.1</ele>
      </trkpt>
      <trkpt lat="46.48624" lon="13.8008">
        <ele>792.1</ele>
      </trkpt>
      <trkpt lat="46.48602" lon="13.79996">
        <ele>791.5</ele>
      </trkpt>
      <trkpt lat="46.48602" lon="13.79996">
        <ele>791.5</ele>
      </trkpt>
      <trkpt lat="46.48586" lon="13.79932">
        <ele>789.7</ele>
      </trkpt>
      <trkpt lat="46.4857" lon="13.79867">
        <ele>791.4</ele>
      </trkpt>
      <trkpt lat="46.4857" lon="13.79867">
        <ele>791.4</ele>
      </trkpt>
      <trkpt lat="46.48559" lon="13.79823">
        <ele>791.8</ele>
      </trkpt>
      <trkpt lat="46.48545" lon="13.79756">
        <ele>793.6</ele>
      </trkpt>
      <trkpt lat="46.48538" lon="13.7971">
        <ele>794.4</ele>
      </trkpt>
      <trkpt lat="46.48537" lon="13.79673">
        <ele>794.4</ele>
      </trkpt>
      <trkpt lat="46.48538" lon="13.79646">
        <ele>794.3</ele>
      </trkpt>
      <trkpt lat="46.48544" lon="13.79598">
        <ele>793.9</ele>
      </trkpt>
      <trkpt lat="46.4855" lon="13.79563">
        <ele>794.0</ele>
      </trkpt>
      <trkpt lat="46.48551" lon="13.79547">
        <ele>794.3</ele>
      </trkpt>
      <trkpt lat="46.48541" lon="13.79522">
        <ele>795.5</ele>
      </trkpt>
      <trkpt lat="46.48513" lon="13.79452">
        <ele>798.5</ele>
      </trkpt>
      <trkpt lat="46.48492" lon="13.79394">
        <ele>803.0</ele>
      </trkpt>
      <trkpt lat="46.48488" lon="13.79374">
        <ele>804.1</ele>
      </trkpt>
      <trkpt lat="46.48488" lon="13.79361">
        <ele>803.7</ele>
      </trkpt>
      <trkpt lat="46.48487" lon="13.79295">
        <ele>802.1</ele>
      </trkpt>
      <trkpt lat="46.48488" lon="13.79279">
        <ele>801.4</ele>
      </trkpt>
      <trkpt lat="46.48494" lon="13.79191">
        <ele>800.1</ele>
      </trkpt>
      <trkpt lat="46.48497" lon="13.79147">
        <ele>799.9</ele>
      </trkpt>
      <trkpt lat="46.48505" lon="13.79122">
        <ele>799.3</ele>
      </trkpt>
      <trkpt lat="46.48515" lon="13.79102">
        <ele>799.0</ele>
      </trkpt>
      <trkpt lat="46.48525" lon="13.79089">
        <ele>798.7</ele>
      </trkpt>
      <trkpt lat="46.48517" lon="13.79076">
        <ele>798.9</ele>
      </trkpt>
      <trkpt lat="46.48479" lon="13.79017">
        <ele>800.0</ele>
      </trkpt>
      <trkpt lat="46.48443" lon="13.78953">
        <ele>801.6</ele>
      </trkpt>
      <trkpt lat="46.48403" lon="13.78882">
        <ele>804.8</ele>
      </trkpt>
      <trkpt lat="46.4838" lon="13.78842">
        <ele>807.9</ele>
      </trkpt>
      <trkpt lat="46.48365" lon="13.78807">
        <ele>808.4</ele>
      </trkpt>
      <trkpt lat="46.4834" lon="13.78751">
        <ele>806.6</ele>
      </trkpt>
      <trkpt lat="46.48333" lon="13.78731">
        <ele>806.8</ele>
      </trkpt>
      <trkpt lat="46.48304" lon="13.78652">
        <ele>810.8</ele>
      </trkpt>
      <trkpt lat="46.48293" lon="13.78626">
        <ele>814.4</ele>
      </trkpt>
      <trkpt lat="46.4829" lon="13.78616">
        <ele>813.8</ele>
      </trkpt>
      <trkpt lat="46.48301" lon="13.78605">
        <ele>812.9</ele>
      </trkpt>
      <trkpt lat="46.48318" lon="13.78592">
        <ele>811.6</ele>
      </trkpt>
      <trkpt lat="46.48326" lon="13.78584">
        <ele>810.9</ele>
      </trkpt>
      <trkpt lat="46.48357" lon="13.7856">
        <ele>808.5</ele>
      </trkpt>
      <trkpt lat="46.48376" lon="13.785461">
        <ele>809.2</ele>
      </trkpt>
      <trkpt lat="46.483761" lon="13.78546">
        <ele>809.2</ele>
      </trkpt>
      <trkpt lat="46.48383" lon="13.78541">
        <ele>809.5</ele>
      </trkpt>
      <trkpt lat="46.48388" lon="13.78535">
        <ele>809.8</ele>
      </trkpt>
      <trkpt lat="46.48388" lon="13.78535">
        <ele>809.8</ele>
      </trkpt>
      <trkpt lat="46.48401" lon="13.7852">
        <ele>810.7</ele>
      </trkpt>
      <trkpt lat="46.48413" lon="13.78546">
        <ele>810.2</ele>
      </trkpt>
      <trkpt lat="46.48439" lon="13.78584">
        <ele>808.7</ele>
      </trkpt>
      <trkpt lat="46.48439" lon="13.78585">
        <ele>808.7</ele>
      </trkpt>
      <trkpt lat="46.48448" lon="13.78579">
        <ele>808.7</ele>
      </trkpt>
      <trkpt lat="46.48452" lon="13.78576">
        <ele>808.8</ele>
      </trkpt>
      <trkpt lat="46.48455" lon="13.78574">
        <ele>808.8</ele>
      </trkpt>
      <trkpt lat="46.48454" lon="13.78573">
        <ele>808.8</ele>
      </trkpt>
      <trkpt lat="46.48454" lon="13.78573">
        <ele>808.8</ele>
      </trkpt>
      <trkpt lat="46.4845" lon="13.78566">
        <ele>809.1</ele>
      </trkpt>
      <trkpt lat="46.4844" lon="13.78526">
        <ele>810.4</ele>
      </trkpt>
      <trkpt lat="46.4842" lon="13.78481">
        <ele>812.1</ele>
      </trkpt>
      <trkpt lat="46.48419" lon="13.78468">
        <ele>812.3</ele>
      </trkpt>
    </trkseg>
  </trk>
</gpx>
