<?xml version="1.0" encoding="UTF-8"?>
<gpx creator="https://gpx.studio" version="1.1" xmlns="http://www.topografix.com/GPX/1/1" xmlns:xsi="http://www.w3.org/2001/XMLSchema-instance" xsi:schemaLocation="http://www.topografix.com/GPX/1/1 http://www.topografix.com/GPX/1/1/gpx.xsd http://www.garmin.com/xmlschemas/GpxExtensions/v3 http://www.garmin.com/xmlschemas/GpxExtensionsv3.xsd http://www.garmin.com/xmlschemas/TrackPointExtension/v1 http://www.garmin.com/xmlschemas/TrackPointExtensionv1.xsd http://www.garmin.com/xmlschemas/PowerExtension/v1 http://www.garmin.com/xmlschemas/PowerExtensionv1.xsd http://www.topografix.com/GPX/gpx_style/0/2 http://www.topografix.com/GPX/gpx_style/0/2/gpx_style.xsd" xmlns:gpxtpx="http://www.garmin.com/xmlschemas/TrackPointExtension/v1" xmlns:gpxx="http://www.garmin.com/xmlschemas/GpxExtensions/v3" xmlns:gpxpx="http://www.garmin.com/xmlschemas/PowerExtension/v1" xmlns:gpx_style="http://www.topografix.com/GPX/gpx_style/0/2">
  <metadata>
    <name>New file 1</name>
    <author>
      <name>gpx.studio</name>
      <link href="https://gpx.studio"/>
    </author>
  </metadata>
  <trk>
    <name>New file 1</name>
    <trkseg>
      <trkpt lat="46.241089" lon="14.009627">
        <ele>1281.66</ele>
      </trkpt>
      <trkpt lat="46.241071" lon="14.009567">
        <ele>1281.81</ele>
      </trkpt>
      <trkpt lat="46.241056" lon="14.009455">
        <ele>1282.41</ele>
      </trkpt>
      <trkpt lat="46.241094" lon="14.009381">
        <ele>1282.84</ele>
      </trkpt>
      <trkpt lat="46.24108" lon="14.009339">
        <ele>1283.01</ele>
      </trkpt>
      <trkpt lat="46.240715" lon="14.008924">
        <ele>1290.72</ele>
      </trkpt>
      <trkpt lat="46.24027" lon="14.008544">
        <ele>1294.7</ele>
      </trkpt>
      <trkpt lat="46.240046" lon="14.008321">
        <ele>1299.68</ele>
      </trkpt>
      <trkpt lat="46.239884" lon="14.008142">
        <ele>1303.52</ele>
      </trkpt>
      <trkpt lat="46.239789" lon="14.008054">
        <ele>1305.2</ele>
      </trkpt>
      <trkpt lat="46.239789" lon="14.008054">
        <ele>1305.19</ele>
      </trkpt>
      <trkpt lat="46.239789" lon="14.008054">
        <ele>1305.2</ele>
      </trkpt>
      <trkpt lat="46.239625" lon="14.007902">
        <ele>1308.09</ele>
      </trkpt>
      <trkpt lat="46.239547" lon="14.007775">
        <ele>1309.22</ele>
      </trkpt>
      <trkpt lat="46.23934" lon="14.007536">
        <ele>1312.9</ele>
      </trkpt>
      <trkpt lat="46.239118" lon="14.007279">
        <ele>1320.59</ele>
      </trkpt>
      <trkpt lat="46.238789" lon="14.006955">
        <ele>1325.35</ele>
      </trkpt>
      <trkpt lat="46.238682" lon="14.006874">
        <ele>1326.72</ele>
      </trkpt>
      <trkpt lat="46.238526" lon="14.006696">
        <ele>1330.13</ele>
      </trkpt>
      <trkpt lat="46.237988" lon="14.006279">
        <ele>1339.58</ele>
      </trkpt>
      <trkpt lat="46.237719" lon="14.006071">
        <ele>1340.73</ele>
      </trkpt>
      <trkpt lat="46.236826" lon="14.005445">
        <ele>1345.5</ele>
      </trkpt>
      <trkpt lat="46.236161" lon="14.004966">
        <ele>1360.27</ele>
      </trkpt>
      <trkpt lat="46.236057" lon="14.004863">
        <ele>1362.61</ele>
      </trkpt>
      <trkpt lat="46.23581" lon="14.004576">
        <ele>1367.45</ele>
      </trkpt>
      <trkpt lat="46.235625" lon="14.004517">
        <ele>1371.26</ele>
      </trkpt>
      <trkpt lat="46.23511" lon="14.004122">
        <ele>1385.5</ele>
      </trkpt>
      <trkpt lat="46.234342" lon="14.003576">
        <ele>1411.54</ele>
      </trkpt>
      <trkpt lat="46.234342" lon="14.003576">
        <ele>1411.54</ele>
      </trkpt>
      <trkpt lat="46.234207" lon="14.003561">
        <ele>1412.35</ele>
      </trkpt>
      <trkpt lat="46.234076" lon="14.003597">
        <ele>1413.41</ele>
      </trkpt>
      <trkpt lat="46.233979" lon="14.00366">
        <ele>1413.06</ele>
      </trkpt>
      <trkpt lat="46.233848" lon="14.003764">
        <ele>1413.44</ele>
      </trkpt>
      <trkpt lat="46.233756" lon="14.003741">
        <ele>1415.77</ele>
      </trkpt>
      <trkpt lat="46.233612" lon="14.003765">
        <ele>1418.79</ele>
      </trkpt>
      <trkpt lat="46.233299" lon="14.003853">
        <ele>1420.63</ele>
      </trkpt>
      <trkpt lat="46.233242" lon="14.003917">
        <ele>1421.32</ele>
      </trkpt>
      <trkpt lat="46.233105" lon="14.003978">
        <ele>1424.07</ele>
      </trkpt>
      <trkpt lat="46.232833" lon="14.003936">
        <ele>1433.12</ele>
      </trkpt>
      <trkpt lat="46.232641" lon="14.003884">
        <ele>1439.3</ele>
      </trkpt>
      <trkpt lat="46.232449" lon="14.003833">
        <ele>1447.73</ele>
      </trkpt>
      <trkpt lat="46.232399" lon="14.003848">
        <ele>1449.62</ele>
      </trkpt>
      <trkpt lat="46.232198" lon="14.003725">
        <ele>1459.83</ele>
      </trkpt>
      <trkpt lat="46.232157" lon="14.003551">
        <ele>1464.02</ele>
      </trkpt>
      <trkpt lat="46.231978" lon="14.003361">
        <ele>1473.69</ele>
      </trkpt>
      <trkpt lat="46.231806" lon="14.003325">
        <ele>1480.5</ele>
      </trkpt>
      <trkpt lat="46.231726" lon="14.003202">
        <ele>1484.03</ele>
      </trkpt>
      <trkpt lat="46.231594" lon="14.003053">
        <ele>1487.73</ele>
      </trkpt>
      <trkpt lat="46.231448" lon="14.00298">
        <ele>1489.8</ele>
      </trkpt>
      <trkpt lat="46.231511" lon="14.002778">
        <ele>1489.73</ele>
      </trkpt>
      <trkpt lat="46.231582" lon="14.002613">
        <ele>1490.7</ele>
      </trkpt>
      <trkpt lat="46.231774" lon="14.00216">
        <ele>1488.88</ele>
      </trkpt>
      <trkpt lat="46.231829" lon="14.00206">
        <ele>1489.38</ele>
      </trkpt>
      <trkpt lat="46.231937" lon="14.001957">
        <ele>1492.97</ele>
      </trkpt>
      <trkpt lat="46.2321" lon="14.001881">
        <ele>1497.41</ele>
      </trkpt>
      <trkpt lat="46.232134" lon="14.001803">
        <ele>1495.77</ele>
      </trkpt>
      <trkpt lat="46.232197" lon="14.001672">
        <ele>1497.04</ele>
      </trkpt>
      <trkpt lat="46.23222" lon="14.001584">
        <ele>1497.06</ele>
      </trkpt>
      <trkpt lat="46.232326" lon="14.001454">
        <ele>1502.06</ele>
      </trkpt>
      <trkpt lat="46.232364" lon="14.001296">
        <ele>1500.74</ele>
      </trkpt>
      <trkpt lat="46.232474" lon="14.001169">
        <ele>1504.12</ele>
      </trkpt>
      <trkpt lat="46.23256" lon="14.001096">
        <ele>1505.99</ele>
      </trkpt>
      <trkpt lat="46.232665" lon="14.000918">
        <ele>1507.94</ele>
      </trkpt>
      <trkpt lat="46.232738" lon="14.00078">
        <ele>1509.2</ele>
      </trkpt>
      <trkpt lat="46.232749" lon="14.000615">
        <ele>1509.09</ele>
      </trkpt>
      <trkpt lat="46.232779" lon="14.000378">
        <ele>1511.05</ele>
      </trkpt>
      <trkpt lat="46.232901" lon="14.000229">
        <ele>1515.46</ele>
      </trkpt>
      <trkpt lat="46.232994" lon="14.00017">
        <ele>1518.64</ele>
      </trkpt>
      <trkpt lat="46.233047" lon="14.000127">
        <ele>1519.2</ele>
      </trkpt>
      <trkpt lat="46.233091" lon="14.000107">
        <ele>1520.34</ele>
      </trkpt>
      <trkpt lat="46.233128" lon="14.000049">
        <ele>1519.49</ele>
      </trkpt>
      <trkpt lat="46.233167" lon="14.000003">
        <ele>1520.98</ele>
      </trkpt>
      <trkpt lat="46.233196" lon="13.999936">
        <ele>1521.14</ele>
      </trkpt>
      <trkpt lat="46.233203" lon="13.999854">
        <ele>1519.64</ele>
      </trkpt>
      <trkpt lat="46.23331" lon="13.999678">
        <ele>1524.98</ele>
      </trkpt>
      <trkpt lat="46.233366" lon="13.999618">
        <ele>1527.48</ele>
      </trkpt>
      <trkpt lat="46.233402" lon="13.999558">
        <ele>1527.82</ele>
      </trkpt>
      <trkpt lat="46.233423" lon="13.999501">
        <ele>1528.34</ele>
      </trkpt>
      <trkpt lat="46.233431" lon="13.999454">
        <ele>1528.39</ele>
      </trkpt>
      <trkpt lat="46.233429" lon="13.999394">
        <ele>1527.57</ele>
      </trkpt>
      <trkpt lat="46.233407" lon="13.999312">
        <ele>1527.41</ele>
      </trkpt>
      <trkpt lat="46.2334" lon="13.999236">
        <ele>1529.1</ele>
      </trkpt>
      <trkpt lat="46.233517" lon="13.999137">
        <ele>1534.44</ele>
      </trkpt>
      <trkpt lat="46.233668" lon="13.999025">
        <ele>1537.94</ele>
      </trkpt>
      <trkpt lat="46.233725" lon="13.998911">
        <ele>1537.74</ele>
      </trkpt>
      <trkpt lat="46.233757" lon="13.998762">
        <ele>1538.29</ele>
      </trkpt>
      <trkpt lat="46.233767" lon="13.998638">
        <ele>1537.78</ele>
      </trkpt>
      <trkpt lat="46.233813" lon="13.998593">
        <ele>1541.26</ele>
      </trkpt>
      <trkpt lat="46.233896" lon="13.998537">
        <ele>1545.03</ele>
      </trkpt>
      <trkpt lat="46.233958" lon="13.998471">
        <ele>1545.76</ele>
      </trkpt>
      <trkpt lat="46.234024" lon="13.998382">
        <ele>1546.83</ele>
      </trkpt>
      <trkpt lat="46.234093" lon="13.998193">
        <ele>1546.84</ele>
      </trkpt>
      <trkpt lat="46.234096" lon="13.998113">
        <ele>1545.88</ele>
      </trkpt>
      <trkpt lat="46.234127" lon="13.998034">
        <ele>1547.84</ele>
      </trkpt>
      <trkpt lat="46.234172" lon="13.997981">
        <ele>1550.91</ele>
      </trkpt>
      <trkpt lat="46.234206" lon="13.997914">
        <ele>1551.55</ele>
      </trkpt>
      <trkpt lat="46.234229" lon="13.99784">
        <ele>1550.71</ele>
      </trkpt>
      <trkpt lat="46.234263" lon="13.997778">
        <ele>1551.25</ele>
      </trkpt>
      <trkpt lat="46.234363" lon="13.997722">
        <ele>1555.03</ele>
      </trkpt>
      <trkpt lat="46.234407" lon="13.997676">
        <ele>1554.77</ele>
      </trkpt>
      <trkpt lat="46.234418" lon="13.997665">
        <ele>1554.7</ele>
      </trkpt>
      <trkpt lat="46.234452" lon="13.99756">
        <ele>1552.98</ele>
      </trkpt>
      <trkpt lat="46.234447" lon="13.997461">
        <ele>1549.55</ele>
      </trkpt>
      <trkpt lat="46.234496" lon="13.997383">
        <ele>1552.16</ele>
      </trkpt>
      <trkpt lat="46.234545" lon="13.997325">
        <ele>1554.61</ele>
      </trkpt>
      <trkpt lat="46.234685" lon="13.997141">
        <ele>1554.98</ele>
      </trkpt>
      <trkpt lat="46.234747" lon="13.997023">
        <ele>1555.23</ele>
      </trkpt>
      <trkpt lat="46.234785" lon="13.996889">
        <ele>1553.41</ele>
      </trkpt>
      <trkpt lat="46.234831" lon="13.996823">
        <ele>1554.66</ele>
      </trkpt>
      <trkpt lat="46.234913" lon="13.99677">
        <ele>1557.33</ele>
      </trkpt>
      <trkpt lat="46.234995" lon="13.996705">
        <ele>1558.73</ele>
      </trkpt>
      <trkpt lat="46.235039" lon="13.996601">
        <ele>1556.21</ele>
      </trkpt>
      <trkpt lat="46.235059" lon="13.996436">
        <ele>1554.19</ele>
      </trkpt>
      <trkpt lat="46.235091" lon="13.996324">
        <ele>1555.94</ele>
      </trkpt>
      <trkpt lat="46.235198" lon="13.996029">
        <ele>1556.53</ele>
      </trkpt>
      <trkpt lat="46.235283" lon="13.995978">
        <ele>1560.41</ele>
      </trkpt>
      <trkpt lat="46.235342" lon="13.995917">
        <ele>1560.3</ele>
      </trkpt>
      <trkpt lat="46.235394" lon="13.995754">
        <ele>1557.24</ele>
      </trkpt>
      <trkpt lat="46.235444" lon="13.995623">
        <ele>1558.51</ele>
      </trkpt>
      <trkpt lat="46.235515" lon="13.995351">
        <ele>1557.11</ele>
      </trkpt>
      <trkpt lat="46.235546" lon="13.995295">
        <ele>1558.08</ele>
      </trkpt>
      <trkpt lat="46.235614" lon="13.995222">
        <ele>1559.85</ele>
      </trkpt>
      <trkpt lat="46.235643" lon="13.995181">
        <ele>1559.32</ele>
      </trkpt>
      <trkpt lat="46.235689" lon="13.995171">
        <ele>1561.16</ele>
      </trkpt>
      <trkpt lat="46.235736" lon="13.995128">
        <ele>1560.86</ele>
      </trkpt>
      <trkpt lat="46.235803" lon="13.994994">
        <ele>1559.25</ele>
      </trkpt>
      <trkpt lat="46.235871" lon="13.994775">
        <ele>1558.52</ele>
      </trkpt>
      <trkpt lat="46.235945" lon="13.994577">
        <ele>1558.31</ele>
      </trkpt>
      <trkpt lat="46.236026" lon="13.994499">
        <ele>1559.1</ele>
      </trkpt>
      <trkpt lat="46.236184" lon="13.994276">
        <ele>1558.72</ele>
      </trkpt>
      <trkpt lat="46.236318" lon="13.994195">
        <ele>1558.25</ele>
      </trkpt>
      <trkpt lat="46.236375" lon="13.994101">
        <ele>1560.56</ele>
      </trkpt>
      <trkpt lat="46.236472" lon="13.99402">
        <ele>1563.14</ele>
      </trkpt>
      <trkpt lat="46.236627" lon="13.993956">
        <ele>1565.91</ele>
      </trkpt>
      <trkpt lat="46.236657" lon="13.993959">
        <ele>1566.33</ele>
      </trkpt>
      <trkpt lat="46.236689" lon="13.993996">
        <ele>1566.4</ele>
      </trkpt>
      <trkpt lat="46.23675" lon="13.994086">
        <ele>1568.21</ele>
      </trkpt>
      <trkpt lat="46.236777" lon="13.994193">
        <ele>1569.71</ele>
      </trkpt>
      <trkpt lat="46.23676" lon="13.994421">
        <ele>1570.85</ele>
      </trkpt>
      <trkpt lat="46.236752" lon="13.994535">
        <ele>1571.42</ele>
      </trkpt>
      <trkpt lat="46.236755" lon="13.994819">
        <ele>1572.65</ele>
      </trkpt>
      <trkpt lat="46.236751" lon="13.994956">
        <ele>1572.23</ele>
      </trkpt>
      <trkpt lat="46.23677" lon="13.995037">
        <ele>1572.52</ele>
      </trkpt>
      <trkpt lat="46.236809" lon="13.995091">
        <ele>1573.18</ele>
      </trkpt>
      <trkpt lat="46.236944" lon="13.995127">
        <ele>1575.86</ele>
      </trkpt>
      <trkpt lat="46.237238" lon="13.995213">
        <ele>1578.01</ele>
      </trkpt>
      <trkpt lat="46.237334" lon="13.995267">
        <ele>1578.79</ele>
      </trkpt>
      <trkpt lat="46.23739" lon="13.995326">
        <ele>1579.3</ele>
      </trkpt>
      <trkpt lat="46.23756" lon="13.995611">
        <ele>1582.31</ele>
      </trkpt>
      <trkpt lat="46.237701" lon="13.995644">
        <ele>1581.94</ele>
      </trkpt>
      <trkpt lat="46.238046" lon="13.995705">
        <ele>1568.91</ele>
      </trkpt>
      <trkpt lat="46.238098" lon="13.995758">
        <ele>1567.2</ele>
      </trkpt>
      <trkpt lat="46.238123" lon="13.995797">
        <ele>1566.79</ele>
      </trkpt>
      <trkpt lat="46.238166" lon="13.995822">
        <ele>1565.67</ele>
      </trkpt>
      <trkpt lat="46.238418" lon="13.99571">
        <ele>1555.64</ele>
      </trkpt>
      <trkpt lat="46.238557" lon="13.995608">
        <ele>1552.35</ele>
      </trkpt>
      <trkpt lat="46.238721" lon="13.995528">
        <ele>1552.06</ele>
      </trkpt>
      <trkpt lat="46.238826" lon="13.995463">
        <ele>1555.38</ele>
      </trkpt>
      <trkpt lat="46.238966" lon="13.995334">
        <ele>1559.06</ele>
      </trkpt>
      <trkpt lat="46.239015" lon="13.995335">
        <ele>1559.48</ele>
      </trkpt>
      <trkpt lat="46.23915" lon="13.995376">
        <ele>1561.88</ele>
      </trkpt>
      <trkpt lat="46.239303" lon="13.995375">
        <ele>1563.94</ele>
      </trkpt>
      <trkpt lat="46.239509" lon="13.995392">
        <ele>1566.25</ele>
      </trkpt>
      <trkpt lat="46.239702" lon="13.995265">
        <ele>1567.35</ele>
      </trkpt>
      <trkpt lat="46.239948" lon="13.994999">
        <ele>1569.78</ele>
      </trkpt>
      <trkpt lat="46.240045" lon="13.99495">
        <ele>1571.32</ele>
      </trkpt>
      <trkpt lat="46.240153" lon="13.994917">
        <ele>1572.79</ele>
      </trkpt>
      <trkpt lat="46.240249" lon="13.994874">
        <ele>1574.2</ele>
      </trkpt>
      <trkpt lat="46.240326" lon="13.994816">
        <ele>1574.43</ele>
      </trkpt>
      <trkpt lat="46.240401" lon="13.994784">
        <ele>1575.67</ele>
      </trkpt>
      <trkpt lat="46.240527" lon="13.994706">
        <ele>1577.04</ele>
      </trkpt>
      <trkpt lat="46.240763" lon="13.994501">
        <ele>1579.98</ele>
      </trkpt>
      <trkpt lat="46.240802" lon="13.994441">
        <ele>1580.11</ele>
      </trkpt>
      <trkpt lat="46.24082" lon="13.994397">
        <ele>1580.11</ele>
      </trkpt>
      <trkpt lat="46.240971" lon="13.994234">
        <ele>1582.97</ele>
      </trkpt>
      <trkpt lat="46.241014" lon="13.994169">
        <ele>1582.93</ele>
      </trkpt>
      <trkpt lat="46.24105" lon="13.994161">
        <ele>1583.86</ele>
      </trkpt>
      <trkpt lat="46.2411" lon="13.99417">
        <ele>1585.44</ele>
      </trkpt>
      <trkpt lat="46.24117" lon="13.994249">
        <ele>1585.02</ele>
      </trkpt>
      <trkpt lat="46.241245" lon="13.994279">
        <ele>1584.08</ele>
      </trkpt>
      <trkpt lat="46.241348" lon="13.994301">
        <ele>1584.64</ele>
      </trkpt>
      <trkpt lat="46.241393" lon="13.994324">
        <ele>1585.4</ele>
      </trkpt>
      <trkpt lat="46.241425" lon="13.994355">
        <ele>1586.15</ele>
      </trkpt>
      <trkpt lat="46.241439" lon="13.994393">
        <ele>1586.75</ele>
      </trkpt>
      <trkpt lat="46.241445" lon="13.994483">
        <ele>1587.18</ele>
      </trkpt>
      <trkpt lat="46.24146" lon="13.994556">
        <ele>1588.01</ele>
      </trkpt>
      <trkpt lat="46.2415" lon="13.99462">
        <ele>1589.02</ele>
      </trkpt>
      <trkpt lat="46.24152" lon="13.994719">
        <ele>1591.05</ele>
      </trkpt>
      <trkpt lat="46.241509" lon="13.994801">
        <ele>1591.31</ele>
      </trkpt>
      <trkpt lat="46.241516" lon="13.994839">
        <ele>1592.01</ele>
      </trkpt>
      <trkpt lat="46.241533" lon="13.994835">
        <ele>1592.93</ele>
      </trkpt>
      <trkpt lat="46.241549" lon="13.994811">
        <ele>1593.57</ele>
      </trkpt>
      <trkpt lat="46.241578" lon="13.994833">
        <ele>1595.33</ele>
      </trkpt>
      <trkpt lat="46.241609" lon="13.994882">
        <ele>1597.45</ele>
      </trkpt>
      <trkpt lat="46.241644" lon="13.994867">
        <ele>1598.86</ele>
      </trkpt>
      <trkpt lat="46.241663" lon="13.994871">
        <ele>1599.8</ele>
      </trkpt>
      <trkpt lat="46.241671" lon="13.994901">
        <ele>1600.79</ele>
      </trkpt>
      <trkpt lat="46.241661" lon="13.994901">
        <ele>1600.32</ele>
      </trkpt>
      <trkpt lat="46.241666" lon="13.994988">
        <ele>1599.05</ele>
      </trkpt>
      <trkpt lat="46.241661" lon="13.995013">
        <ele>1598.38</ele>
      </trkpt>
      <trkpt lat="46.241616" lon="13.995128">
        <ele>1594.68</ele>
      </trkpt>
      <trkpt lat="46.241585" lon="13.995187">
        <ele>1592.59</ele>
      </trkpt>
      <trkpt lat="46.241527" lon="13.995341">
        <ele>1586.98</ele>
      </trkpt>
      <trkpt lat="46.241516" lon="13.995391">
        <ele>1585.64</ele>
      </trkpt>
      <trkpt lat="46.241494" lon="13.995427">
        <ele>1584.5</ele>
      </trkpt>
      <trkpt lat="46.241491" lon="13.995482">
        <ele>1582.87</ele>
      </trkpt>
      <trkpt lat="46.241464" lon="13.99551">
        <ele>1581.97</ele>
      </trkpt>
      <trkpt lat="46.241461" lon="13.99557">
        <ele>1580.51</ele>
      </trkpt>
      <trkpt lat="46.241436" lon="13.995605">
        <ele>1578.81</ele>
      </trkpt>
      <trkpt lat="46.241435" lon="13.995655">
        <ele>1577.78</ele>
      </trkpt>
      <trkpt lat="46.241415" lon="13.995701">
        <ele>1576.3</ele>
      </trkpt>
      <trkpt lat="46.24141" lon="13.995755">
        <ele>1575.39</ele>
      </trkpt>
      <trkpt lat="46.24137" lon="13.995849">
        <ele>1573.31</ele>
      </trkpt>
      <trkpt lat="46.241352" lon="13.995881">
        <ele>1572.74</ele>
      </trkpt>
      <trkpt lat="46.241321" lon="13.995906">
        <ele>1571.84</ele>
      </trkpt>
      <trkpt lat="46.241295" lon="13.995919">
        <ele>1570.96</ele>
      </trkpt>
      <trkpt lat="46.241267" lon="13.995914">
        <ele>1570.06</ele>
      </trkpt>
      <trkpt lat="46.241228" lon="13.995954">
        <ele>1568.88</ele>
      </trkpt>
      <trkpt lat="46.241182" lon="13.996032">
        <ele>1566.78</ele>
      </trkpt>
      <trkpt lat="46.241142" lon="13.996087">
        <ele>1567.3</ele>
      </trkpt>
      <trkpt lat="46.24109" lon="13.99611">
        <ele>1568.7</ele>
      </trkpt>
      <trkpt lat="46.241065" lon="13.996137">
        <ele>1567.23</ele>
      </trkpt>
      <trkpt lat="46.241055" lon="13.996191">
        <ele>1565.69</ele>
      </trkpt>
      <trkpt lat="46.241036" lon="13.996208">
        <ele>1564.95</ele>
      </trkpt>
      <trkpt lat="46.241004" lon="13.996216">
        <ele>1564.2</ele>
      </trkpt>
      <trkpt lat="46.240994" lon="13.996268">
        <ele>1563.31</ele>
      </trkpt>
      <trkpt lat="46.24101" lon="13.996374">
        <ele>1561.21</ele>
      </trkpt>
      <trkpt lat="46.240992" lon="13.996408">
        <ele>1560.66</ele>
      </trkpt>
      <trkpt lat="46.240931" lon="13.996448">
        <ele>1560.01</ele>
      </trkpt>
      <trkpt lat="46.240864" lon="13.996554">
        <ele>1562.81</ele>
      </trkpt>
      <trkpt lat="46.240802" lon="13.996628">
        <ele>1565.54</ele>
      </trkpt>
      <trkpt lat="46.240736" lon="13.996663">
        <ele>1567.09</ele>
      </trkpt>
      <trkpt lat="46.240726" lon="13.996721">
        <ele>1568.89</ele>
      </trkpt>
      <trkpt lat="46.240616" lon="13.996794">
        <ele>1572.91</ele>
      </trkpt>
      <trkpt lat="46.240514" lon="13.996804">
        <ele>1574.15</ele>
      </trkpt>
      <trkpt lat="46.240435" lon="13.996829">
        <ele>1576.05</ele>
      </trkpt>
      <trkpt lat="46.24033" lon="13.996841">
        <ele>1575.98</ele>
      </trkpt>
      <trkpt lat="46.240292" lon="13.996917">
        <ele>1575.29</ele>
      </trkpt>
      <trkpt lat="46.240271" lon="13.997037">
        <ele>1574.27</ele>
      </trkpt>
      <trkpt lat="46.240261" lon="13.997031">
        <ele>1573.73</ele>
      </trkpt>
      <trkpt lat="46.240232" lon="13.996946">
        <ele>1571.98</ele>
      </trkpt>
      <trkpt lat="46.240223" lon="13.996954">
        <ele>1571.27</ele>
      </trkpt>
      <trkpt lat="46.240215" lon="13.997023">
        <ele>1570.86</ele>
      </trkpt>
      <trkpt lat="46.240201" lon="13.997052">
        <ele>1570.18</ele>
      </trkpt>
      <trkpt lat="46.240185" lon="13.997002">
        <ele>1568.86</ele>
      </trkpt>
      <trkpt lat="46.240171" lon="13.996899">
        <ele>1568.73</ele>
      </trkpt>
      <trkpt lat="46.240066" lon="13.996797">
        <ele>1566.3</ele>
      </trkpt>
      <trkpt lat="46.239895" lon="13.996778">
        <ele>1565.28</ele>
      </trkpt>
      <trkpt lat="46.239828" lon="13.996794">
        <ele>1566.15</ele>
      </trkpt>
      <trkpt lat="46.239786" lon="13.996832">
        <ele>1566.01</ele>
      </trkpt>
      <trkpt lat="46.239742" lon="13.99685">
        <ele>1566.08</ele>
      </trkpt>
      <trkpt lat="46.239689" lon="13.996849">
        <ele>1566.77</ele>
      </trkpt>
      <trkpt lat="46.239666" lon="13.996882">
        <ele>1566.89</ele>
      </trkpt>
      <trkpt lat="46.239642" lon="13.99694">
        <ele>1566.44</ele>
      </trkpt>
      <trkpt lat="46.239593" lon="13.997018">
        <ele>1565.01</ele>
      </trkpt>
      <trkpt lat="46.239584" lon="13.997065">
        <ele>1564.38</ele>
      </trkpt>
      <trkpt lat="46.239484" lon="13.997228">
        <ele>1559.78</ele>
      </trkpt>
      <trkpt lat="46.239438" lon="13.997327">
        <ele>1557.86</ele>
      </trkpt>
      <trkpt lat="46.239405" lon="13.997365">
        <ele>1557.28</ele>
      </trkpt>
      <trkpt lat="46.239391" lon="13.997401">
        <ele>1557.17</ele>
      </trkpt>
      <trkpt lat="46.239349" lon="13.997454">
        <ele>1557.84</ele>
      </trkpt>
      <trkpt lat="46.239317" lon="13.997534">
        <ele>1558.89</ele>
      </trkpt>
      <trkpt lat="46.23925" lon="13.997588">
        <ele>1559.75</ele>
      </trkpt>
      <trkpt lat="46.239142" lon="13.997805">
        <ele>1563.08</ele>
      </trkpt>
      <trkpt lat="46.239026" lon="13.9979">
        <ele>1566.19</ele>
      </trkpt>
      <trkpt lat="46.23882" lon="13.998002">
        <ele>1573.46</ele>
      </trkpt>
      <trkpt lat="46.238726" lon="13.9981">
        <ele>1575.27</ele>
      </trkpt>
      <trkpt lat="46.238658" lon="13.998096">
        <ele>1576.99</ele>
      </trkpt>
      <trkpt lat="46.238573" lon="13.998068">
        <ele>1579.02</ele>
      </trkpt>
      <trkpt lat="46.238367" lon="13.998084">
        <ele>1581.88</ele>
      </trkpt>
      <trkpt lat="46.23819" lon="13.998088">
        <ele>1583.03</ele>
      </trkpt>
      <trkpt lat="46.238029" lon="13.998078">
        <ele>1583.57</ele>
      </trkpt>
      <trkpt lat="46.237812" lon="13.998025">
        <ele>1582.88</ele>
      </trkpt>
      <trkpt lat="46.237738" lon="13.998026">
        <ele>1582.36</ele>
      </trkpt>
      <trkpt lat="46.23768" lon="13.997996">
        <ele>1582.26</ele>
      </trkpt>
      <trkpt lat="46.237629" lon="13.998071">
        <ele>1579.06</ele>
      </trkpt>
      <trkpt lat="46.237574" lon="13.998063">
        <ele>1576.66</ele>
      </trkpt>
      <trkpt lat="46.237547" lon="13.998036">
        <ele>1576.07</ele>
      </trkpt>
      <trkpt lat="46.237342" lon="13.997947">
        <ele>1568.03</ele>
      </trkpt>
      <trkpt lat="46.237218" lon="13.997839">
        <ele>1564.69</ele>
      </trkpt>
      <trkpt lat="46.237105" lon="13.997683">
        <ele>1562.19</ele>
      </trkpt>
      <trkpt lat="46.236972" lon="13.997578">
        <ele>1559.04</ele>
      </trkpt>
      <trkpt lat="46.236844" lon="13.997491">
        <ele>1555.32</ele>
      </trkpt>
      <trkpt lat="46.236835" lon="13.997499">
        <ele>1554.73</ele>
      </trkpt>
      <trkpt lat="46.236838" lon="13.997616">
        <ele>1552.56</ele>
      </trkpt>
      <trkpt lat="46.236825" lon="13.997705">
        <ele>1549.65</ele>
      </trkpt>
      <trkpt lat="46.236812" lon="13.997716">
        <ele>1548.79</ele>
      </trkpt>
      <trkpt lat="46.236813" lon="13.997776">
        <ele>1546.72</ele>
      </trkpt>
      <trkpt lat="46.236777" lon="13.997779">
        <ele>1545.02</ele>
      </trkpt>
      <trkpt lat="46.236658" lon="13.997691">
        <ele>1542.19</ele>
      </trkpt>
      <trkpt lat="46.236648" lon="13.997697">
        <ele>1541.56</ele>
      </trkpt>
      <trkpt lat="46.236626" lon="13.997889">
        <ele>1536.1</ele>
      </trkpt>
      <trkpt lat="46.236642" lon="13.998059">
        <ele>1532.75</ele>
      </trkpt>
      <trkpt lat="46.236639" lon="13.998095">
        <ele>1532.16</ele>
      </trkpt>
      <trkpt lat="46.236599" lon="13.99815">
        <ele>1531.21</ele>
      </trkpt>
      <trkpt lat="46.23663" lon="13.998251">
        <ele>1530.91</ele>
      </trkpt>
      <trkpt lat="46.236698" lon="13.998339">
        <ele>1528.08</ele>
      </trkpt>
      <trkpt lat="46.236777" lon="13.998363">
        <ele>1526.23</ele>
      </trkpt>
      <trkpt lat="46.23688" lon="13.998382">
        <ele>1525.34</ele>
      </trkpt>
      <trkpt lat="46.236971" lon="13.998486">
        <ele>1524.07</ele>
      </trkpt>
      <trkpt lat="46.237014" lon="13.998577">
        <ele>1524.34</ele>
      </trkpt>
      <trkpt lat="46.237037" lon="13.998685">
        <ele>1524.21</ele>
      </trkpt>
      <trkpt lat="46.237042" lon="13.998777">
        <ele>1524.85</ele>
      </trkpt>
      <trkpt lat="46.237023" lon="13.998892">
        <ele>1523.86</ele>
      </trkpt>
      <trkpt lat="46.237016" lon="13.99904">
        <ele>1523</ele>
      </trkpt>
      <trkpt lat="46.237056" lon="13.999157">
        <ele>1522.93</ele>
      </trkpt>
      <trkpt lat="46.237138" lon="13.999243">
        <ele>1523.98</ele>
      </trkpt>
      <trkpt lat="46.237214" lon="13.999285">
        <ele>1524</ele>
      </trkpt>
      <trkpt lat="46.237301" lon="13.999271">
        <ele>1524.15</ele>
      </trkpt>
      <trkpt lat="46.237378" lon="13.99923">
        <ele>1524.54</ele>
      </trkpt>
      <trkpt lat="46.237453" lon="13.999205">
        <ele>1525.03</ele>
      </trkpt>
      <trkpt lat="46.237515" lon="13.999226">
        <ele>1524.13</ele>
      </trkpt>
      <trkpt lat="46.237586" lon="13.999286">
        <ele>1524.55</ele>
      </trkpt>
      <trkpt lat="46.237611" lon="13.999363">
        <ele>1523.26</ele>
      </trkpt>
      <trkpt lat="46.237625" lon="13.999467">
        <ele>1523.63</ele>
      </trkpt>
      <trkpt lat="46.237621" lon="13.99971">
        <ele>1519.41</ele>
      </trkpt>
      <trkpt lat="46.237644" lon="13.999835">
        <ele>1517.45</ele>
      </trkpt>
      <trkpt lat="46.237766" lon="13.999815">
        <ele>1518.7</ele>
      </trkpt>
      <trkpt lat="46.237828" lon="13.999851">
        <ele>1520.93</ele>
      </trkpt>
      <trkpt lat="46.237793" lon="14.000158">
        <ele>1516.35</ele>
      </trkpt>
      <trkpt lat="46.237798" lon="14.000369">
        <ele>1516.06</ele>
      </trkpt>
      <trkpt lat="46.237785" lon="14.000482">
        <ele>1513.81</ele>
      </trkpt>
      <trkpt lat="46.237799" lon="14.000552">
        <ele>1512.87</ele>
      </trkpt>
      <trkpt lat="46.23786" lon="14.000609">
        <ele>1511.59</ele>
      </trkpt>
      <trkpt lat="46.237949" lon="14.00067">
        <ele>1513.12</ele>
      </trkpt>
      <trkpt lat="46.23796" lon="14.000791">
        <ele>1510.94</ele>
      </trkpt>
      <trkpt lat="46.237984" lon="14.000911">
        <ele>1510.22</ele>
      </trkpt>
      <trkpt lat="46.238049" lon="14.000979">
        <ele>1510.01</ele>
      </trkpt>
      <trkpt lat="46.238136" lon="14.001045">
        <ele>1510.34</ele>
      </trkpt>
      <trkpt lat="46.238148" lon="14.001113">
        <ele>1509.09</ele>
      </trkpt>
      <trkpt lat="46.238144" lon="14.001301">
        <ele>1507.43</ele>
      </trkpt>
      <trkpt lat="46.238122" lon="14.001427">
        <ele>1505.88</ele>
      </trkpt>
      <trkpt lat="46.238138" lon="14.001519">
        <ele>1503.93</ele>
      </trkpt>
      <trkpt lat="46.238233" lon="14.001567">
        <ele>1503.49</ele>
      </trkpt>
      <trkpt lat="46.238372" lon="14.001669">
        <ele>1501.07</ele>
      </trkpt>
      <trkpt lat="46.238477" lon="14.001715">
        <ele>1499.42</ele>
      </trkpt>
      <trkpt lat="46.23861" lon="14.00182">
        <ele>1497.22</ele>
      </trkpt>
      <trkpt lat="46.23864" lon="14.00191">
        <ele>1495.54</ele>
      </trkpt>
      <trkpt lat="46.238674" lon="14.002058">
        <ele>1493.15</ele>
      </trkpt>
      <trkpt lat="46.238728" lon="14.002182">
        <ele>1492.15</ele>
      </trkpt>
      <trkpt lat="46.238823" lon="14.002222">
        <ele>1490.76</ele>
      </trkpt>
      <trkpt lat="46.23895" lon="14.002225">
        <ele>1489.69</ele>
      </trkpt>
      <trkpt lat="46.239003" lon="14.002251">
        <ele>1488.1</ele>
      </trkpt>
      <trkpt lat="46.238943" lon="14.002344">
        <ele>1485.84</ele>
      </trkpt>
      <trkpt lat="46.238867" lon="14.002428">
        <ele>1483.51</ele>
      </trkpt>
      <trkpt lat="46.238751" lon="14.002461">
        <ele>1481.06</ele>
      </trkpt>
      <trkpt lat="46.238647" lon="14.002411">
        <ele>1478.44</ele>
      </trkpt>
      <trkpt lat="46.238537" lon="14.002244">
        <ele>1478.81</ele>
      </trkpt>
      <trkpt lat="46.238473" lon="14.002192">
        <ele>1478.01</ele>
      </trkpt>
      <trkpt lat="46.238168" lon="14.002224">
        <ele>1472.62</ele>
      </trkpt>
      <trkpt lat="46.238051" lon="14.002214">
        <ele>1471.31</ele>
      </trkpt>
      <trkpt lat="46.23793" lon="14.002178">
        <ele>1470.03</ele>
      </trkpt>
      <trkpt lat="46.237832" lon="14.002109">
        <ele>1467.44</ele>
      </trkpt>
      <trkpt lat="46.237649" lon="14.001742">
        <ele>1464.83</ele>
      </trkpt>
      <trkpt lat="46.237597" lon="14.001606">
        <ele>1464.73</ele>
      </trkpt>
      <trkpt lat="46.237467" lon="14.001545">
        <ele>1461.73</ele>
      </trkpt>
      <trkpt lat="46.237353" lon="14.001464">
        <ele>1461.1</ele>
      </trkpt>
      <trkpt lat="46.237308" lon="14.001334">
        <ele>1461.14</ele>
      </trkpt>
      <trkpt lat="46.237259" lon="14.001254">
        <ele>1460.14</ele>
      </trkpt>
      <trkpt lat="46.237171" lon="14.001196">
        <ele>1458.91</ele>
      </trkpt>
      <trkpt lat="46.237085" lon="14.001166">
        <ele>1457.25</ele>
      </trkpt>
      <trkpt lat="46.237" lon="14.001153">
        <ele>1456.58</ele>
      </trkpt>
      <trkpt lat="46.236918" lon="14.001179">
        <ele>1455.39</ele>
      </trkpt>
      <trkpt lat="46.236822" lon="14.001232">
        <ele>1454.4</ele>
      </trkpt>
      <trkpt lat="46.236748" lon="14.00132">
        <ele>1452.51</ele>
      </trkpt>
      <trkpt lat="46.236664" lon="14.001374">
        <ele>1451.33</ele>
      </trkpt>
      <trkpt lat="46.23642" lon="14.001407">
        <ele>1447.55</ele>
      </trkpt>
      <trkpt lat="46.236252" lon="14.001335">
        <ele>1446.44</ele>
      </trkpt>
      <trkpt lat="46.23618" lon="14.001459">
        <ele>1442.03</ele>
      </trkpt>
      <trkpt lat="46.236089" lon="14.001539">
        <ele>1438.6</ele>
      </trkpt>
      <trkpt lat="46.236039" lon="14.001618">
        <ele>1435.85</ele>
      </trkpt>
      <trkpt lat="46.235961" lon="14.001698">
        <ele>1433.92</ele>
      </trkpt>
      <trkpt lat="46.235924" lon="14.00181">
        <ele>1431.08</ele>
      </trkpt>
      <trkpt lat="46.235902" lon="14.001922">
        <ele>1428.93</ele>
      </trkpt>
      <trkpt lat="46.235881" lon="14.001979">
        <ele>1427.88</ele>
      </trkpt>
      <trkpt lat="46.235877" lon="14.002048">
        <ele>1426.99</ele>
      </trkpt>
      <trkpt lat="46.235851" lon="14.002122">
        <ele>1425.87</ele>
      </trkpt>
      <trkpt lat="46.235798" lon="14.002223">
        <ele>1423.01</ele>
      </trkpt>
      <trkpt lat="46.235767" lon="14.002249">
        <ele>1422.14</ele>
      </trkpt>
      <trkpt lat="46.23574" lon="14.002464">
        <ele>1417.25</ele>
      </trkpt>
      <trkpt lat="46.235746" lon="14.002547">
        <ele>1415.29</ele>
      </trkpt>
      <trkpt lat="46.235737" lon="14.00257">
        <ele>1414.81</ele>
      </trkpt>
      <trkpt lat="46.235713" lon="14.002583">
        <ele>1414.72</ele>
      </trkpt>
      <trkpt lat="46.235687" lon="14.002629">
        <ele>1413.87</ele>
      </trkpt>
      <trkpt lat="46.235662" lon="14.00271">
        <ele>1412.3</ele>
      </trkpt>
      <trkpt lat="46.235658" lon="14.002798">
        <ele>1410.41</ele>
      </trkpt>
      <trkpt lat="46.235629" lon="14.002896">
        <ele>1408.59</ele>
      </trkpt>
      <trkpt lat="46.235631" lon="14.002949">
        <ele>1407.63</ele>
      </trkpt>
      <trkpt lat="46.235614" lon="14.003055">
        <ele>1405.5</ele>
      </trkpt>
      <trkpt lat="46.235642" lon="14.003093">
        <ele>1404.22</ele>
      </trkpt>
      <trkpt lat="46.235634" lon="14.003136">
        <ele>1403.39</ele>
      </trkpt>
      <trkpt lat="46.235821" lon="14.003091">
        <ele>1399.99</ele>
      </trkpt>
      <trkpt lat="46.235893" lon="14.003058">
        <ele>1399.96</ele>
      </trkpt>
      <trkpt lat="46.235921" lon="14.003058">
        <ele>1399.71</ele>
      </trkpt>
      <trkpt lat="46.235968" lon="14.003085">
        <ele>1398.21</ele>
      </trkpt>
      <trkpt lat="46.236067" lon="14.003088">
        <ele>1396.34</ele>
      </trkpt>
      <trkpt lat="46.236116" lon="14.003103">
        <ele>1395.27</ele>
      </trkpt>
      <trkpt lat="46.236177" lon="14.003173">
        <ele>1393</ele>
      </trkpt>
      <trkpt lat="46.236246" lon="14.003207">
        <ele>1391.3</ele>
      </trkpt>
      <trkpt lat="46.236315" lon="14.003256">
        <ele>1389.07</ele>
      </trkpt>
      <trkpt lat="46.236406" lon="14.003272">
        <ele>1388.6</ele>
      </trkpt>
      <trkpt lat="46.236427" lon="14.003345">
        <ele>1386.67</ele>
      </trkpt>
      <trkpt lat="46.236508" lon="14.003487">
        <ele>1383.71</ele>
      </trkpt>
      <trkpt lat="46.23652" lon="14.003662">
        <ele>1380.33</ele>
      </trkpt>
      <trkpt lat="46.23662" lon="14.003738">
        <ele>1379.45</ele>
      </trkpt>
      <trkpt lat="46.236677" lon="14.003827">
        <ele>1376.77</ele>
      </trkpt>
      <trkpt lat="46.236722" lon="14.003875">
        <ele>1375.22</ele>
      </trkpt>
      <trkpt lat="46.23678" lon="14.00396">
        <ele>1373.16</ele>
      </trkpt>
      <trkpt lat="46.236945" lon="14.004086">
        <ele>1368.75</ele>
      </trkpt>
      <trkpt lat="46.236984" lon="14.004137">
        <ele>1368.54</ele>
      </trkpt>
      <trkpt lat="46.236989" lon="14.004175">
        <ele>1367.8</ele>
      </trkpt>
      <trkpt lat="46.237003" lon="14.004197">
        <ele>1367.66</ele>
      </trkpt>
      <trkpt lat="46.237024" lon="14.004277">
        <ele>1366.78</ele>
      </trkpt>
      <trkpt lat="46.237023" lon="14.004311">
        <ele>1366.17</ele>
      </trkpt>
      <trkpt lat="46.237072" lon="14.004435">
        <ele>1364.92</ele>
      </trkpt>
      <trkpt lat="46.237076" lon="14.004476">
        <ele>1364.04</ele>
      </trkpt>
      <trkpt lat="46.23711" lon="14.004547">
        <ele>1363.24</ele>
      </trkpt>
      <trkpt lat="46.237124" lon="14.004627">
        <ele>1362.1</ele>
      </trkpt>
      <trkpt lat="46.237141" lon="14.004665">
        <ele>1361.61</ele>
      </trkpt>
      <trkpt lat="46.237178" lon="14.004699">
        <ele>1361.29</ele>
      </trkpt>
      <trkpt lat="46.237189" lon="14.004737">
        <ele>1360.32</ele>
      </trkpt>
      <trkpt lat="46.237328" lon="14.004866">
        <ele>1357.75</ele>
      </trkpt>
      <trkpt lat="46.237383" lon="14.004932">
        <ele>1357.04</ele>
      </trkpt>
      <trkpt lat="46.237407" lon="14.004976">
        <ele>1356.83</ele>
      </trkpt>
      <trkpt lat="46.23743" lon="14.004998">
        <ele>1356.86</ele>
      </trkpt>
      <trkpt lat="46.237453" lon="14.004999">
        <ele>1357.1</ele>
      </trkpt>
      <trkpt lat="46.237538" lon="14.005067">
        <ele>1356.61</ele>
      </trkpt>
      <trkpt lat="46.237584" lon="14.005046">
        <ele>1356.24</ele>
      </trkpt>
      <trkpt lat="46.237711" lon="14.005023">
        <ele>1355.87</ele>
      </trkpt>
      <trkpt lat="46.237778" lon="14.005068">
        <ele>1354.83</ele>
      </trkpt>
      <trkpt lat="46.237852" lon="14.005082">
        <ele>1355.74</ele>
      </trkpt>
      <trkpt lat="46.237887" lon="14.005137">
        <ele>1355.05</ele>
      </trkpt>
      <trkpt lat="46.23799" lon="14.005256">
        <ele>1354.21</ele>
      </trkpt>
      <trkpt lat="46.238037" lon="14.005283">
        <ele>1353.9</ele>
      </trkpt>
      <trkpt lat="46.238105" lon="14.005358">
        <ele>1352.02</ele>
      </trkpt>
      <trkpt lat="46.238165" lon="14.005395">
        <ele>1350.69</ele>
      </trkpt>
      <trkpt lat="46.238248" lon="14.005392">
        <ele>1350.11</ele>
      </trkpt>
      <trkpt lat="46.238424" lon="14.00551">
        <ele>1347.03</ele>
      </trkpt>
      <trkpt lat="46.238466" lon="14.005576">
        <ele>1345.88</ele>
      </trkpt>
      <trkpt lat="46.238623" lon="14.005714">
        <ele>1343.47</ele>
      </trkpt>
      <trkpt lat="46.23882" lon="14.005991">
        <ele>1338.19</ele>
      </trkpt>
      <trkpt lat="46.238853" lon="14.006072">
        <ele>1336.31</ele>
      </trkpt>
      <trkpt lat="46.238926" lon="14.006206">
        <ele>1334.41</ele>
      </trkpt>
      <trkpt lat="46.238984" lon="14.00627">
        <ele>1333.57</ele>
      </trkpt>
      <trkpt lat="46.239035" lon="14.006356">
        <ele>1332</ele>
      </trkpt>
      <trkpt lat="46.239113" lon="14.006557">
        <ele>1328.14</ele>
      </trkpt>
      <trkpt lat="46.239221" lon="14.006787">
        <ele>1322.33</ele>
      </trkpt>
      <trkpt lat="46.239258" lon="14.006897">
        <ele>1320.15</ele>
      </trkpt>
      <trkpt lat="46.239282" lon="14.007002">
        <ele>1318.7</ele>
      </trkpt>
      <trkpt lat="46.23929" lon="14.00709">
        <ele>1317.68</ele>
      </trkpt>
      <trkpt lat="46.239422" lon="14.007155">
        <ele>1314.76</ele>
      </trkpt>
      <trkpt lat="46.23948" lon="14.007228">
        <ele>1313.18</ele>
      </trkpt>
      <trkpt lat="46.239502" lon="14.00727">
        <ele>1312.57</ele>
      </trkpt>
      <trkpt lat="46.239639" lon="14.007409">
        <ele>1309.65</ele>
      </trkpt>
      <trkpt lat="46.239783" lon="14.007542">
        <ele>1307.67</ele>
      </trkpt>
      <trkpt lat="46.239777" lon="14.007535">
        <ele>1307.77</ele>
      </trkpt>
      <trkpt lat="46.239855" lon="14.007255">
        <ele>1308.65</ele>
      </trkpt>
      <trkpt lat="46.239915" lon="14.007145">
        <ele>1308.73</ele>
      </trkpt>
      <trkpt lat="46.239975" lon="14.007055">
        <ele>1308.24</ele>
      </trkpt>
      <trkpt lat="46.240028" lon="14.007003">
        <ele>1307.66</ele>
      </trkpt>
      <trkpt lat="46.240103" lon="14.006972">
        <ele>1307.1</ele>
      </trkpt>
      <trkpt lat="46.240181" lon="14.007002">
        <ele>1305.75</ele>
      </trkpt>
      <trkpt lat="46.240239" lon="14.007069">
        <ele>1304</ele>
      </trkpt>
      <trkpt lat="46.240298" lon="14.007223">
        <ele>1302.78</ele>
      </trkpt>
      <trkpt lat="46.240303" lon="14.007235">
        <ele>1302.69</ele>
      </trkpt>
      <trkpt lat="46.240687" lon="14.00702">
        <ele>1297.04</ele>
      </trkpt>
      <trkpt lat="46.240892" lon="14.006943">
        <ele>1294.5</ele>
      </trkpt>
      <trkpt lat="46.241112" lon="14.00683">
        <ele>1291.55</ele>
      </trkpt>
      <trkpt lat="46.24144" lon="14.00676">
        <ele>1289.15</ele>
      </trkpt>
      <trkpt lat="46.241497" lon="14.00678">
        <ele>1288.3</ele>
      </trkpt>
      <trkpt lat="46.241549" lon="14.006825">
        <ele>1287.65</ele>
      </trkpt>
      <trkpt lat="46.241672" lon="14.007083">
        <ele>1284.49</ele>
      </trkpt>
      <trkpt lat="46.241689" lon="14.00712">
        <ele>1284.04</ele>
      </trkpt>
      <trkpt lat="46.24179" lon="14.007437">
        <ele>1280.35</ele>
      </trkpt>
      <trkpt lat="46.241779" lon="14.007513">
        <ele>1280.19</ele>
      </trkpt>
      <trkpt lat="46.241735" lon="14.007642">
        <ele>1280.02</ele>
      </trkpt>
      <trkpt lat="46.241686" lon="14.007849">
        <ele>1280.32</ele>
      </trkpt>
      <trkpt lat="46.241696" lon="14.007926">
        <ele>1280.69</ele>
      </trkpt>
      <trkpt lat="46.241777" lon="14.008057">
        <ele>1279.97</ele>
      </trkpt>
      <trkpt lat="46.241911" lon="14.008247">
        <ele>1278.53</ele>
      </trkpt>
      <trkpt lat="46.241792" lon="14.008416">
        <ele>1279.07</ele>
      </trkpt>
      <trkpt lat="46.241681" lon="14.008655">
        <ele>1279.15</ele>
      </trkpt>
      <trkpt lat="46.241681" lon="14.008655">
        <ele>1279.15</ele>
      </trkpt>
      <trkpt lat="46.241613" lon="14.008902">
        <ele>1279</ele>
      </trkpt>
      <trkpt lat="46.241579" lon="14.009226">
        <ele>1279.976915374316</ele>
      </trkpt>
      <trkpt lat="46.241579" lon="14.009226">
        <ele>1279.976915374316</ele>
      </trkpt>
      <trkpt lat="46.24126504827035" lon="14.009621480645222">
        <ele>1281.7924627615946</ele>
      </trkpt>
    </trkseg>
  </trk>
</gpx>
