<?xml version="1.0" encoding="UTF-8"?>
<gpx creator="StravaGPX" xmlns:xsi="http://www.w3.org/2001/XMLSchema-instance" xsi:schemaLocation="http://www.topografix.com/GPX/1/1 http://www.topografix.com/GPX/1/1/gpx.xsd" version="1.1" xmlns="http://www.topografix.com/GPX/1/1">
 <metadata>
  <name>Kalskih 13</name>
  <author>
   <name>Martin Podmenik</name>
   <link href="https://www.strava.com/athletes/71578471"/>
  </author>
  <copyright author="OpenStreetMap contributors">
   <year>2020</year>
   <license>https://www.openstreetmap.org/copyright</license>
  </copyright>
  <link href="https://www.strava.com/routes/2807905258389605394"/>
 </metadata>
 <trk>
  <name>Kalskih 13</name>
  <link href="https://www.strava.com/routes/2807905258389605394"/>
  <type>Run</type>
  <trkseg>
   <trkpt lat="46.172990000000006" lon="15.107890000000001">
    <ele>939.8700000000001</ele>
   </trkpt>
   <trkpt lat="46.17287" lon="15.107730000000002">
    <ele>937.39</ele>
   </trkpt>
   <trkpt lat="46.17259000000001" lon="15.10753">
    <ele>931.54</ele>
   </trkpt>
   <trkpt lat="46.172290000000004" lon="15.107230000000001">
    <ele>926.98</ele>
   </trkpt>
   <trkpt lat="46.171980000000005" lon="15.107280000000001">
    <ele>922.4000000000001</ele>
   </trkpt>
   <trkpt lat="46.17161" lon="15.107380000000001">
    <ele>919.5500000000001</ele>
   </trkpt>
   <trkpt lat="46.17119" lon="15.107420000000001">
    <ele>918.9200000000001</ele>
   </trkpt>
   <trkpt lat="46.17033000000001" lon="15.107660000000001">
    <ele>918.5500000000001</ele>
   </trkpt>
   <trkpt lat="46.17005" lon="15.107690000000002">
    <ele>917.9800000000001</ele>
   </trkpt>
   <trkpt lat="46.16969" lon="15.107680000000002">
    <ele>914.0100000000001</ele>
   </trkpt>
   <trkpt lat="46.1694" lon="15.107630000000002">
    <ele>908.88</ele>
   </trkpt>
   <trkpt lat="46.169200000000004" lon="15.107630000000002">
    <ele>901.19</ele>
   </trkpt>
   <trkpt lat="46.16899" lon="15.10767">
    <ele>892.46</ele>
   </trkpt>
   <trkpt lat="46.16875" lon="15.10767">
    <ele>883.59</ele>
   </trkpt>
   <trkpt lat="46.168530000000004" lon="15.107610000000001">
    <ele>877.6100000000001</ele>
   </trkpt>
   <trkpt lat="46.168350000000004" lon="15.107660000000001">
    <ele>874.7900000000001</ele>
   </trkpt>
   <trkpt lat="46.167950000000005" lon="15.1079">
    <ele>869.4900000000001</ele>
   </trkpt>
   <trkpt lat="46.16774" lon="15.108260000000001">
    <ele>869.23</ele>
   </trkpt>
   <trkpt lat="46.167640000000006" lon="15.108240000000002">
    <ele>869.7600000000001</ele>
   </trkpt>
   <trkpt lat="46.167440000000006" lon="15.108240000000002">
    <ele>871.3400000000001</ele>
   </trkpt>
   <trkpt lat="46.167080000000006" lon="15.10837">
    <ele>877.89</ele>
   </trkpt>
   <trkpt lat="46.16649" lon="15.108690000000001">
    <ele>888.2500000000001</ele>
   </trkpt>
   <trkpt lat="46.16588" lon="15.10927">
    <ele>896.73</ele>
   </trkpt>
   <trkpt lat="46.165690000000005" lon="15.108880000000001">
    <ele>896.23</ele>
   </trkpt>
   <trkpt lat="46.165220000000005" lon="15.10879">
    <ele>907.4700000000001</ele>
   </trkpt>
   <trkpt lat="46.165020000000005" lon="15.10879">
    <ele>914.8600000000001</ele>
   </trkpt>
   <trkpt lat="46.16478" lon="15.108770000000002">
    <ele>916.4200000000001</ele>
   </trkpt>
   <trkpt lat="46.164640000000006" lon="15.108710000000002">
    <ele>918.84</ele>
   </trkpt>
   <trkpt lat="46.164440000000006" lon="15.108530000000002">
    <ele>919.32</ele>
   </trkpt>
   <trkpt lat="46.16431" lon="15.10847">
    <ele>920.9100000000001</ele>
   </trkpt>
   <trkpt lat="46.16423" lon="15.10851">
    <ele>923.2500000000001</ele>
   </trkpt>
   <trkpt lat="46.16382" lon="15.108480000000002">
    <ele>931.51</ele>
   </trkpt>
   <trkpt lat="46.163380000000004" lon="15.108350000000002">
    <ele>924.12</ele>
   </trkpt>
   <trkpt lat="46.16324" lon="15.108290000000002">
    <ele>918.78</ele>
   </trkpt>
   <trkpt lat="46.16313" lon="15.108170000000001">
    <ele>912.3700000000001</ele>
   </trkpt>
   <trkpt lat="46.163030000000006" lon="15.108020000000002">
    <ele>906.6200000000001</ele>
   </trkpt>
   <trkpt lat="46.162800000000004" lon="15.10776">
    <ele>899.3000000000001</ele>
   </trkpt>
   <trkpt lat="46.162690000000005" lon="15.107470000000001">
    <ele>892.0300000000001</ele>
   </trkpt>
   <trkpt lat="46.162440000000004" lon="15.10716">
    <ele>888.57</ele>
   </trkpt>
   <trkpt lat="46.16226" lon="15.107180000000001">
    <ele>880.83</ele>
   </trkpt>
   <trkpt lat="46.16228" lon="15.10753">
    <ele>884.48</ele>
   </trkpt>
   <trkpt lat="46.16221" lon="15.107840000000001">
    <ele>887.47</ele>
   </trkpt>
   <trkpt lat="46.162220000000005" lon="15.1079">
    <ele>887.9200000000001</ele>
   </trkpt>
   <trkpt lat="46.162690000000005" lon="15.10842">
    <ele>892.8900000000001</ele>
   </trkpt>
   <trkpt lat="46.162870000000005" lon="15.10879">
    <ele>896.21</ele>
   </trkpt>
   <trkpt lat="46.163120000000006" lon="15.10922">
    <ele>899.7700000000001</ele>
   </trkpt>
   <trkpt lat="46.16337" lon="15.109560000000002">
    <ele>901.2</ele>
   </trkpt>
   <trkpt lat="46.163410000000006" lon="15.109700000000002">
    <ele>901.48</ele>
   </trkpt>
   <trkpt lat="46.163380000000004" lon="15.109820000000001">
    <ele>901.48</ele>
   </trkpt>
   <trkpt lat="46.163160000000005" lon="15.110240000000001">
    <ele>902.3000000000001</ele>
   </trkpt>
   <trkpt lat="46.16313" lon="15.110360000000002">
    <ele>902.36</ele>
   </trkpt>
   <trkpt lat="46.163140000000006" lon="15.11048">
    <ele>902.4000000000001</ele>
   </trkpt>
   <trkpt lat="46.163180000000004" lon="15.110600000000002">
    <ele>902.4300000000001</ele>
   </trkpt>
   <trkpt lat="46.163230000000006" lon="15.110690000000002">
    <ele>902.5600000000001</ele>
   </trkpt>
   <trkpt lat="46.16339000000001" lon="15.110750000000001">
    <ele>902.8800000000001</ele>
   </trkpt>
   <trkpt lat="46.163610000000006" lon="15.110790000000001">
    <ele>903.32</ele>
   </trkpt>
   <trkpt lat="46.16377000000001" lon="15.11086">
    <ele>903.73</ele>
   </trkpt>
   <trkpt lat="46.16402" lon="15.11105">
    <ele>905.0100000000001</ele>
   </trkpt>
   <trkpt lat="46.16409" lon="15.111150000000002">
    <ele>904.61</ele>
   </trkpt>
   <trkpt lat="46.16415000000001" lon="15.111310000000001">
    <ele>903.33</ele>
   </trkpt>
   <trkpt lat="46.16415000000001" lon="15.11151">
    <ele>902.8000000000001</ele>
   </trkpt>
   <trkpt lat="46.16395000253098" lon="15.112275002859315">
    <ele>899.47</ele>
   </trkpt>
   <trkpt lat="46.16375" lon="15.113040000000002">
    <ele>893.87</ele>
   </trkpt>
   <trkpt lat="46.16364" lon="15.11335">
    <ele>890.7800000000001</ele>
   </trkpt>
   <trkpt lat="46.16337" lon="15.11372">
    <ele>887.0300000000001</ele>
   </trkpt>
   <trkpt lat="46.163250000000005" lon="15.113930000000002">
    <ele>884.2200000000001</ele>
   </trkpt>
   <trkpt lat="46.1632" lon="15.114170000000001">
    <ele>884.0100000000001</ele>
   </trkpt>
   <trkpt lat="46.16335" lon="15.11433">
    <ele>884.0100000000001</ele>
   </trkpt>
   <trkpt lat="46.163720000000005" lon="15.11461">
    <ele>884.0100000000001</ele>
   </trkpt>
   <trkpt lat="46.16386000000001" lon="15.114820000000002">
    <ele>877.7600000000001</ele>
   </trkpt>
   <trkpt lat="46.16402" lon="15.114970000000001">
    <ele>877.7600000000001</ele>
   </trkpt>
   <trkpt lat="46.16414" lon="15.11504">
    <ele>877.7600000000001</ele>
   </trkpt>
   <trkpt lat="46.16431" lon="15.115070000000001">
    <ele>877.7600000000001</ele>
   </trkpt>
   <trkpt lat="46.16433000000001" lon="15.11508">
    <ele>877.7600000000001</ele>
   </trkpt>
   <trkpt lat="46.164530000000006" lon="15.11508">
    <ele>877.7600000000001</ele>
   </trkpt>
   <trkpt lat="46.164910000000006" lon="15.115050000000002">
    <ele>877.7600000000001</ele>
   </trkpt>
   <trkpt lat="46.165310000000005" lon="15.11499">
    <ele>877.7600000000001</ele>
   </trkpt>
   <trkpt lat="46.165490000000005" lon="15.11494">
    <ele>877.7600000000001</ele>
   </trkpt>
   <trkpt lat="46.165690000000005" lon="15.114820000000002">
    <ele>877.7600000000001</ele>
   </trkpt>
   <trkpt lat="46.16583000000001" lon="15.114690000000001">
    <ele>877.7600000000001</ele>
   </trkpt>
   <trkpt lat="46.16599" lon="15.114460000000001">
    <ele>877.7600000000001</ele>
   </trkpt>
   <trkpt lat="46.166470000000004" lon="15.11353">
    <ele>858.1</ele>
   </trkpt>
   <trkpt lat="46.166560000000004" lon="15.113220000000002">
    <ele>858.1</ele>
   </trkpt>
   <trkpt lat="46.16659000000001" lon="15.112950000000001">
    <ele>858.1</ele>
   </trkpt>
   <trkpt lat="46.16659000000001" lon="15.112520000000002">
    <ele>858.1</ele>
   </trkpt>
   <trkpt lat="46.16657000000001" lon="15.112200000000001">
    <ele>858.1</ele>
   </trkpt>
   <trkpt lat="46.166450000000005" lon="15.111620000000002">
    <ele>858.1</ele>
   </trkpt>
   <trkpt lat="46.16644" lon="15.111340000000002">
    <ele>858.1</ele>
   </trkpt>
   <trkpt lat="46.166410000000006" lon="15.111110000000002">
    <ele>858.44</ele>
   </trkpt>
   <trkpt lat="46.16642" lon="15.11086">
    <ele>859.5400000000001</ele>
   </trkpt>
   <trkpt lat="46.166450000000005" lon="15.110730000000002">
    <ele>859.5400000000001</ele>
   </trkpt>
   <trkpt lat="46.166650000000004" lon="15.11025">
    <ele>861.74</ele>
   </trkpt>
   <trkpt lat="46.16698000143097" lon="15.109675003467705">
    <ele>862.9700000000001</ele>
   </trkpt>
   <trkpt lat="46.16731" lon="15.109100000000002">
    <ele>864.19</ele>
   </trkpt>
   <trkpt lat="46.16774" lon="15.108260000000001">
    <ele>869.23</ele>
   </trkpt>
   <trkpt lat="46.16799" lon="15.108540000000001">
    <ele>868.3700000000001</ele>
   </trkpt>
   <trkpt lat="46.1683" lon="15.109020000000001">
    <ele>867.89</ele>
   </trkpt>
   <trkpt lat="46.16856000000001" lon="15.109520000000002">
    <ele>869.1</ele>
   </trkpt>
   <trkpt lat="46.168780000000005" lon="15.11016">
    <ele>872.59</ele>
   </trkpt>
   <trkpt lat="46.16903000000001" lon="15.110740000000002">
    <ele>874.57</ele>
   </trkpt>
   <trkpt lat="46.16917" lon="15.11091">
    <ele>874.7600000000001</ele>
   </trkpt>
   <trkpt lat="46.169230000000006" lon="15.11095">
    <ele>874.84</ele>
   </trkpt>
   <trkpt lat="46.169360000000005" lon="15.11095">
    <ele>874.84</ele>
   </trkpt>
   <trkpt lat="46.16949" lon="15.110890000000001">
    <ele>875.0600000000001</ele>
   </trkpt>
   <trkpt lat="46.16966" lon="15.110780000000002">
    <ele>875.0600000000001</ele>
   </trkpt>
   <trkpt lat="46.170170000000006" lon="15.11021">
    <ele>875.5400000000001</ele>
   </trkpt>
   <trkpt lat="46.170390000000005" lon="15.110000000000001">
    <ele>874.7600000000001</ele>
   </trkpt>
   <trkpt lat="46.17053000000001" lon="15.109910000000001">
    <ele>874.5200000000001</ele>
   </trkpt>
   <trkpt lat="46.170770000000005" lon="15.109820000000001">
    <ele>874.2800000000001</ele>
   </trkpt>
   <trkpt lat="46.170950000000005" lon="15.109790000000002">
    <ele>873.96</ele>
   </trkpt>
   <trkpt lat="46.17105" lon="15.109810000000001">
    <ele>873.96</ele>
   </trkpt>
   <trkpt lat="46.17119" lon="15.109930000000002">
    <ele>873.5400000000001</ele>
   </trkpt>
   <trkpt lat="46.17123" lon="15.11002">
    <ele>873.24</ele>
   </trkpt>
   <trkpt lat="46.17146" lon="15.110790000000001">
    <ele>871.2200000000001</ele>
   </trkpt>
   <trkpt lat="46.171690000000005" lon="15.111480000000002">
    <ele>870.6400000000001</ele>
   </trkpt>
   <trkpt lat="46.17192000000001" lon="15.1125">
    <ele>876.5400000000001</ele>
   </trkpt>
   <trkpt lat="46.171960000000006" lon="15.11288">
    <ele>879.75</ele>
   </trkpt>
   <trkpt lat="46.17206" lon="15.112800000000002">
    <ele>880.68</ele>
   </trkpt>
   <trkpt lat="46.17211" lon="15.112440000000001">
    <ele>883.6600000000001</ele>
   </trkpt>
   <trkpt lat="46.17217" lon="15.112420000000002">
    <ele>883.6600000000001</ele>
   </trkpt>
   <trkpt lat="46.1724" lon="15.112610000000002">
    <ele>884.1700000000001</ele>
   </trkpt>
   <trkpt lat="46.17258" lon="15.112720000000001">
    <ele>884.36</ele>
   </trkpt>
   <trkpt lat="46.17324000000001" lon="15.112900000000002">
    <ele>881.8100000000001</ele>
   </trkpt>
   <trkpt lat="46.17403" lon="15.113230000000001">
    <ele>879.1200000000001</ele>
   </trkpt>
   <trkpt lat="46.174290000000006" lon="15.113360000000002">
    <ele>876.83</ele>
   </trkpt>
   <trkpt lat="46.17439" lon="15.113380000000001">
    <ele>875.7300000000001</ele>
   </trkpt>
   <trkpt lat="46.17446" lon="15.113360000000002">
    <ele>874.4600000000002</ele>
   </trkpt>
   <trkpt lat="46.17457" lon="15.11325">
    <ele>873.07</ele>
   </trkpt>
   <trkpt lat="46.17481" lon="15.112820000000001">
    <ele>864.6800000000001</ele>
   </trkpt>
   <trkpt lat="46.174910000000004" lon="15.112720000000001">
    <ele>863.1500000000001</ele>
   </trkpt>
   <trkpt lat="46.174960000000006" lon="15.112700000000002">
    <ele>863.1500000000001</ele>
   </trkpt>
   <trkpt lat="46.17517" lon="15.112960000000001">
    <ele>859.5800000000002</ele>
   </trkpt>
   <trkpt lat="46.175450000000005" lon="15.113190000000001">
    <ele>856.2700000000001</ele>
   </trkpt>
   <trkpt lat="46.17573" lon="15.11353">
    <ele>854.59</ele>
   </trkpt>
   <trkpt lat="46.17591" lon="15.113610000000001">
    <ele>854.5300000000001</ele>
   </trkpt>
   <trkpt lat="46.17615000000001" lon="15.113610000000001">
    <ele>854.7600000000001</ele>
   </trkpt>
   <trkpt lat="46.176680000000005" lon="15.11334">
    <ele>854.95</ele>
   </trkpt>
   <trkpt lat="46.176930000000006" lon="15.113170000000002">
    <ele>854.1200000000001</ele>
   </trkpt>
   <trkpt lat="46.177130000000005" lon="15.112990000000002">
    <ele>853.33</ele>
   </trkpt>
   <trkpt lat="46.177710000000005" lon="15.112900000000002">
    <ele>849.43</ele>
   </trkpt>
   <trkpt lat="46.17806" lon="15.11265">
    <ele>846.33</ele>
   </trkpt>
   <trkpt lat="46.17819" lon="15.11259">
    <ele>845.38</ele>
   </trkpt>
   <trkpt lat="46.178380000000004" lon="15.112610000000002">
    <ele>844.33</ele>
   </trkpt>
   <trkpt lat="46.17866" lon="15.112710000000002">
    <ele>840.47</ele>
   </trkpt>
   <trkpt lat="46.17888000000001" lon="15.112860000000001">
    <ele>838.94</ele>
   </trkpt>
   <trkpt lat="46.17918" lon="15.112900000000002">
    <ele>839.49</ele>
   </trkpt>
   <trkpt lat="46.179680000000005" lon="15.112100000000002">
    <ele>859.65</ele>
   </trkpt>
   <trkpt lat="46.17918" lon="15.112900000000002">
    <ele>861.21</ele>
   </trkpt>
   <trkpt lat="46.17922" lon="15.112960000000001">
    <ele>857.38</ele>
   </trkpt>
   <trkpt lat="46.179230000000004" lon="15.1132">
    <ele>855.21</ele>
   </trkpt>
   <trkpt lat="46.1792" lon="15.11349">
    <ele>850.49</ele>
   </trkpt>
   <trkpt lat="46.178920000000005" lon="15.11447">
    <ele>842.6300000000001</ele>
   </trkpt>
   <trkpt lat="46.17893" lon="15.115010000000002">
    <ele>846.6300000000001</ele>
   </trkpt>
   <trkpt lat="46.17897000000001" lon="15.11508">
    <ele>846.6300000000001</ele>
   </trkpt>
   <trkpt lat="46.17906000000001" lon="15.115150000000002">
    <ele>846.6300000000001</ele>
   </trkpt>
   <trkpt lat="46.17916" lon="15.115190000000002">
    <ele>847.9100000000001</ele>
   </trkpt>
   <trkpt lat="46.179300000000005" lon="15.115210000000001">
    <ele>848.89</ele>
   </trkpt>
   <trkpt lat="46.17943" lon="15.115200000000002">
    <ele>848.83</ele>
   </trkpt>
   <trkpt lat="46.18007" lon="15.115630000000001">
    <ele>839.85</ele>
   </trkpt>
   <trkpt lat="46.180460000000004" lon="15.115820000000001">
    <ele>834.2100000000002</ele>
   </trkpt>
   <trkpt lat="46.180640000000004" lon="15.115950000000002">
    <ele>833.1600000000001</ele>
   </trkpt>
   <trkpt lat="46.18081" lon="15.11611">
    <ele>832.52</ele>
   </trkpt>
   <trkpt lat="46.18097" lon="15.116140000000001">
    <ele>832.3800000000001</ele>
   </trkpt>
   <trkpt lat="46.180980000000005" lon="15.116150000000001">
    <ele>836.9300000000001</ele>
   </trkpt>
   <trkpt lat="46.181070000000005" lon="15.116130000000002">
    <ele>838.82</ele>
   </trkpt>
   <trkpt lat="46.181430000000006" lon="15.11578">
    <ele>842.13</ele>
   </trkpt>
   <trkpt lat="46.18166" lon="15.11518">
    <ele>842.77</ele>
   </trkpt>
   <trkpt lat="46.18209" lon="15.11466">
    <ele>839.0900000000001</ele>
   </trkpt>
   <trkpt lat="46.18225" lon="15.114400000000002">
    <ele>835.98</ele>
   </trkpt>
   <trkpt lat="46.18253000000001" lon="15.114270000000001">
    <ele>830.3000000000001</ele>
   </trkpt>
   <trkpt lat="46.182790000000004" lon="15.113940000000001">
    <ele>823.2700000000001</ele>
   </trkpt>
   <trkpt lat="46.18303" lon="15.113690000000002">
    <ele>817.23</ele>
   </trkpt>
   <trkpt lat="46.18336" lon="15.11339">
    <ele>806.7</ele>
   </trkpt>
   <trkpt lat="46.18345" lon="15.11339">
    <ele>806.7</ele>
   </trkpt>
   <trkpt lat="46.183550000000004" lon="15.113480000000001">
    <ele>803.13</ele>
   </trkpt>
   <trkpt lat="46.18365000000001" lon="15.113610000000001">
    <ele>801.5300000000001</ele>
   </trkpt>
   <trkpt lat="46.18397" lon="15.11443">
    <ele>792.7900000000001</ele>
   </trkpt>
   <trkpt lat="46.184200000000004" lon="15.114720000000002">
    <ele>791.87</ele>
   </trkpt>
   <trkpt lat="46.18437" lon="15.114970000000001">
    <ele>790.76</ele>
   </trkpt>
   <trkpt lat="46.18450000000001" lon="15.11508">
    <ele>789.3800000000001</ele>
   </trkpt>
   <trkpt lat="46.18455" lon="15.115150000000002">
    <ele>789.3800000000001</ele>
   </trkpt>
   <trkpt lat="46.18469" lon="15.115070000000001">
    <ele>801.42</ele>
   </trkpt>
   <trkpt lat="46.184830000000005" lon="15.114920000000001">
    <ele>805.6600000000001</ele>
   </trkpt>
   <trkpt lat="46.18484" lon="15.114920000000001">
    <ele>805.6600000000001</ele>
   </trkpt>
   <trkpt lat="46.18498" lon="15.114590000000002">
    <ele>811.0200000000001</ele>
   </trkpt>
   <trkpt lat="46.18498" lon="15.114510000000001">
    <ele>817.7</ele>
   </trkpt>
   <trkpt lat="46.184760000000004" lon="15.114120000000002">
    <ele>825.3800000000001</ele>
   </trkpt>
   <trkpt lat="46.184610000000006" lon="15.113970000000002">
    <ele>831.1800000000001</ele>
   </trkpt>
   <trkpt lat="46.184560000000005" lon="15.11387">
    <ele>833.67</ele>
   </trkpt>
   <trkpt lat="46.18448" lon="15.113510000000002">
    <ele>839.64</ele>
   </trkpt>
   <trkpt lat="46.18442" lon="15.112940000000002">
    <ele>854.1</ele>
   </trkpt>
   <trkpt lat="46.184360000000005" lon="15.11269">
    <ele>857.71</ele>
   </trkpt>
   <trkpt lat="46.184340000000006" lon="15.111950000000002">
    <ele>882.59</ele>
   </trkpt>
   <trkpt lat="46.184400000000004" lon="15.111680000000002">
    <ele>895.94</ele>
   </trkpt>
   <trkpt lat="46.184540000000005" lon="15.111290000000002">
    <ele>917.3700000000001</ele>
   </trkpt>
   <trkpt lat="46.184540000000005" lon="15.111300000000002">
    <ele>917.3700000000001</ele>
   </trkpt>
   <trkpt lat="46.184630000000006" lon="15.11119">
    <ele>925.58</ele>
   </trkpt>
   <trkpt lat="46.18471" lon="15.111250000000002">
    <ele>925.58</ele>
   </trkpt>
   <trkpt lat="46.184830000000005" lon="15.11152">
    <ele>925.58</ele>
   </trkpt>
   <trkpt lat="46.185280000000006" lon="15.11222">
    <ele>970.1</ele>
   </trkpt>
   <trkpt lat="46.1854" lon="15.112480000000001">
    <ele>970.1</ele>
   </trkpt>
   <trkpt lat="46.185570000000006" lon="15.11264">
    <ele>970.1</ele>
   </trkpt>
   <trkpt lat="46.18571" lon="15.11269">
    <ele>970.1</ele>
   </trkpt>
   <trkpt lat="46.185840000000006" lon="15.112710000000002">
    <ele>970.1</ele>
   </trkpt>
   <trkpt lat="46.185950000000005" lon="15.112670000000001">
    <ele>970.1</ele>
   </trkpt>
   <trkpt lat="46.18596" lon="15.112670000000001">
    <ele>970.1</ele>
   </trkpt>
   <trkpt lat="46.18603" lon="15.112530000000001">
    <ele>970.1</ele>
   </trkpt>
   <trkpt lat="46.186040000000006" lon="15.11236">
    <ele>970.1</ele>
   </trkpt>
   <trkpt lat="46.185860000000005" lon="15.111950000000002">
    <ele>970.1</ele>
   </trkpt>
   <trkpt lat="46.18583" lon="15.111790000000001">
    <ele>970.1</ele>
   </trkpt>
   <trkpt lat="46.185900000000004" lon="15.111590000000001">
    <ele>970.1</ele>
   </trkpt>
   <trkpt lat="46.185900000000004" lon="15.11133">
    <ele>970.1</ele>
   </trkpt>
   <trkpt lat="46.185970000000005" lon="15.111110000000002">
    <ele>1027.42</ele>
   </trkpt>
   <trkpt lat="46.18607" lon="15.11095">
    <ele>1027.42</ele>
   </trkpt>
   <trkpt lat="46.186150000000005" lon="15.110710000000001">
    <ele>1027.42</ele>
   </trkpt>
   <trkpt lat="46.186490000000006" lon="15.11034">
    <ele>1027.42</ele>
   </trkpt>
   <trkpt lat="46.186640000000004" lon="15.110280000000001">
    <ele>1027.42</ele>
   </trkpt>
   <trkpt lat="46.1867" lon="15.110030000000002">
    <ele>1027.42</ele>
   </trkpt>
   <trkpt lat="46.186710000000005" lon="15.110030000000002">
    <ele>1027.42</ele>
   </trkpt>
   <trkpt lat="46.18683" lon="15.110140000000001">
    <ele>1027.42</ele>
   </trkpt>
   <trkpt lat="46.18683" lon="15.110310000000002">
    <ele>1027.42</ele>
   </trkpt>
   <trkpt lat="46.18688" lon="15.11062">
    <ele>1027.42</ele>
   </trkpt>
   <trkpt lat="46.186960000000006" lon="15.110930000000002">
    <ele>1027.42</ele>
   </trkpt>
   <trkpt lat="46.18704" lon="15.111070000000002">
    <ele>1027.42</ele>
   </trkpt>
   <trkpt lat="46.18713" lon="15.111170000000001">
    <ele>1027.42</ele>
   </trkpt>
   <trkpt lat="46.18723000000001" lon="15.111210000000002">
    <ele>1027.42</ele>
   </trkpt>
   <trkpt lat="46.18735" lon="15.11096">
    <ele>1087.75</ele>
   </trkpt>
   <trkpt lat="46.187360000000005" lon="15.110870000000002">
    <ele>1087.75</ele>
   </trkpt>
   <trkpt lat="46.187490000000004" lon="15.110700000000001">
    <ele>1087.75</ele>
   </trkpt>
   <trkpt lat="46.18773" lon="15.11016">
    <ele>1087.75</ele>
   </trkpt>
   <trkpt lat="46.18791" lon="15.109630000000001">
    <ele>1087.75</ele>
   </trkpt>
   <trkpt lat="46.187960000000004" lon="15.109620000000001">
    <ele>1087.75</ele>
   </trkpt>
   <trkpt lat="46.18795" lon="15.109710000000002">
    <ele>1087.75</ele>
   </trkpt>
   <trkpt lat="46.187900000000006" lon="15.11034">
    <ele>1087.42</ele>
   </trkpt>
   <trkpt lat="46.18791" lon="15.110460000000002">
    <ele>1086.89</ele>
   </trkpt>
   <trkpt lat="46.18797000000001" lon="15.110660000000001">
    <ele>1085.45</ele>
   </trkpt>
   <trkpt lat="46.18816" lon="15.111060000000002">
    <ele>1084.0800000000002</ele>
   </trkpt>
   <trkpt lat="46.188280000000006" lon="15.111210000000002">
    <ele>1084.41</ele>
   </trkpt>
   <trkpt lat="46.18849" lon="15.11138">
    <ele>1085.29</ele>
   </trkpt>
   <trkpt lat="46.18883" lon="15.111540000000002">
    <ele>1086.23</ele>
   </trkpt>
   <trkpt lat="46.188970000000005" lon="15.111550000000001">
    <ele>1086.47</ele>
   </trkpt>
   <trkpt lat="46.189350000000005" lon="15.111500000000001">
    <ele>1086.3400000000001</ele>
   </trkpt>
   <trkpt lat="46.18961" lon="15.11142">
    <ele>1086.16</ele>
   </trkpt>
   <trkpt lat="46.189750000000004" lon="15.111350000000002">
    <ele>1086.09</ele>
   </trkpt>
   <trkpt lat="46.189840000000004" lon="15.111260000000001">
    <ele>1085.9</ele>
   </trkpt>
   <trkpt lat="46.18985000000001" lon="15.111200000000002">
    <ele>1085.69</ele>
   </trkpt>
   <trkpt lat="46.18986" lon="15.11119">
    <ele>1085.6000000000001</ele>
   </trkpt>
   <trkpt lat="46.18986" lon="15.111110000000002">
    <ele>1084.98</ele>
   </trkpt>
   <trkpt lat="46.18952" lon="15.11002">
    <ele>1071.3400000000001</ele>
   </trkpt>
   <trkpt lat="46.189490000000006" lon="15.10987">
    <ele>1071.3400000000001</ele>
   </trkpt>
   <trkpt lat="46.18948" lon="15.109570000000001">
    <ele>1067.29</ele>
   </trkpt>
   <trkpt lat="46.189440000000005" lon="15.109390000000001">
    <ele>1067.29</ele>
   </trkpt>
   <trkpt lat="46.189120001924564" lon="15.108719996031441">
    <ele>1056.65</ele>
   </trkpt>
   <trkpt lat="46.1888" lon="15.10805">
    <ele>1044.1200000000001</ele>
   </trkpt>
   <trkpt lat="46.18869" lon="15.10777">
    <ele>1042.51</ele>
   </trkpt>
   <trkpt lat="46.18845" lon="15.106900000000001">
    <ele>1031.8899999999999</ele>
   </trkpt>
   <trkpt lat="46.18844000000001" lon="15.106580000000001">
    <ele>1025.8</ele>
   </trkpt>
   <trkpt lat="46.18849" lon="15.10626">
    <ele>1022.1200000000001</ele>
   </trkpt>
   <trkpt lat="46.18851" lon="15.105960000000001">
    <ele>1022.1200000000001</ele>
   </trkpt>
   <trkpt lat="46.18847" lon="15.10527">
    <ele>1010.32</ele>
   </trkpt>
   <trkpt lat="46.18851" lon="15.10476">
    <ele>1006.85</ele>
   </trkpt>
   <trkpt lat="46.18811" lon="15.105830000000001">
    <ele>1003.3000000000001</ele>
   </trkpt>
   <trkpt lat="46.18804" lon="15.105910000000002">
    <ele>1006.85</ele>
   </trkpt>
   <trkpt lat="46.18726" lon="15.10621">
    <ele>1006.85</ele>
   </trkpt>
   <trkpt lat="46.187020000000004" lon="15.106280000000002">
    <ele>1010.75</ele>
   </trkpt>
   <trkpt lat="46.18686" lon="15.10626">
    <ele>1017.1700000000001</ele>
   </trkpt>
   <trkpt lat="46.186780000000006" lon="15.106410000000002">
    <ele>1020.88</ele>
   </trkpt>
   <trkpt lat="46.18681" lon="15.106560000000002">
    <ele>1078.3100000000002</ele>
   </trkpt>
   <trkpt lat="46.186800000000005" lon="15.106710000000001">
    <ele>1081.46</ele>
   </trkpt>
   <trkpt lat="46.18695" lon="15.107000000000001">
    <ele>1088.7</ele>
   </trkpt>
   <trkpt lat="46.187160000000006" lon="15.107240000000001">
    <ele>1102.0100000000002</ele>
   </trkpt>
   <trkpt lat="46.18737" lon="15.107280000000001">
    <ele>1110.22</ele>
   </trkpt>
   <trkpt lat="46.18746" lon="15.107360000000002">
    <ele>1113.85</ele>
   </trkpt>
   <trkpt lat="46.18751" lon="15.107460000000001">
    <ele>1113.75</ele>
   </trkpt>
   <trkpt lat="46.187540000000006" lon="15.107610000000001">
    <ele>1111.91</ele>
   </trkpt>
   <trkpt lat="46.18764" lon="15.107800000000001">
    <ele>1108.3100000000002</ele>
   </trkpt>
   <trkpt lat="46.18775" lon="15.107890000000001">
    <ele>1103.97</ele>
   </trkpt>
   <trkpt lat="46.187870000000004" lon="15.108260000000001">
    <ele>1093.5300000000002</ele>
   </trkpt>
   <trkpt lat="46.18816" lon="15.108450000000001">
    <ele>1087.5400000000002</ele>
   </trkpt>
   <trkpt lat="46.187990000000006" lon="15.108620000000002">
    <ele>1084.02</ele>
   </trkpt>
   <trkpt lat="46.187990000000006" lon="15.108630000000002">
    <ele>1084.02</ele>
   </trkpt>
   <trkpt lat="46.187830000000005" lon="15.108690000000001">
    <ele>1082.06</ele>
   </trkpt>
   <trkpt lat="46.187650000000005" lon="15.108640000000001">
    <ele>1076.06</ele>
   </trkpt>
   <trkpt lat="46.18748" lon="15.10866">
    <ele>1073.52</ele>
   </trkpt>
   <trkpt lat="46.187340000000006" lon="15.10875">
    <ele>1070.75</ele>
   </trkpt>
   <trkpt lat="46.18724" lon="15.108780000000001">
    <ele>1069.47</ele>
   </trkpt>
   <trkpt lat="46.18717" lon="15.108720000000002">
    <ele>1067.59</ele>
   </trkpt>
   <trkpt lat="46.18681" lon="15.10832">
    <ele>1061.97</ele>
   </trkpt>
   <trkpt lat="46.186440000000005" lon="15.108020000000002">
    <ele>1054.3</ele>
   </trkpt>
   <trkpt lat="46.18620000000001" lon="15.107880000000002">
    <ele>1051.49</ele>
   </trkpt>
   <trkpt lat="46.18598" lon="15.107830000000002">
    <ele>1049.18</ele>
   </trkpt>
   <trkpt lat="46.18573000000001" lon="15.107890000000001">
    <ele>1048.21</ele>
   </trkpt>
   <trkpt lat="46.185520000000004" lon="15.10804">
    <ele>1046.9700000000003</ele>
   </trkpt>
   <trkpt lat="46.185320000000004" lon="15.108030000000001">
    <ele>1045.8700000000001</ele>
   </trkpt>
   <trkpt lat="46.1852" lon="15.107960000000002">
    <ele>1044.71</ele>
   </trkpt>
   <trkpt lat="46.185030000000005" lon="15.10772">
    <ele>1042.41</ele>
   </trkpt>
   <trkpt lat="46.184760000000004" lon="15.10748">
    <ele>1039.79</ele>
   </trkpt>
   <trkpt lat="46.18462" lon="15.10743">
    <ele>1036.6699999999998</ele>
   </trkpt>
   <trkpt lat="46.18459000000001" lon="15.107660000000001">
    <ele>1039.5400000000002</ele>
   </trkpt>
   <trkpt lat="46.18446" lon="15.108130000000001">
    <ele>1033.1200000000001</ele>
   </trkpt>
   <trkpt lat="46.18439" lon="15.10828">
    <ele>1029.3400000000001</ele>
   </trkpt>
   <trkpt lat="46.18424" lon="15.108500000000001">
    <ele>1024.15</ele>
   </trkpt>
   <trkpt lat="46.184180000000005" lon="15.10861">
    <ele>1020.7300000000001</ele>
   </trkpt>
   <trkpt lat="46.1841" lon="15.108690000000001">
    <ele>1017.0100000000002</ele>
   </trkpt>
   <trkpt lat="46.183980000000005" lon="15.108720000000002">
    <ele>1013.2800000000002</ele>
   </trkpt>
   <trkpt lat="46.183780000000006" lon="15.108740000000001">
    <ele>1008.0100000000001</ele>
   </trkpt>
   <trkpt lat="46.183670000000006" lon="15.108690000000001">
    <ele>1005.56</ele>
   </trkpt>
   <trkpt lat="46.18348" lon="15.108500000000001">
    <ele>1001.3800000000001</ele>
   </trkpt>
   <trkpt lat="46.183420000000005" lon="15.108620000000002">
    <ele>1000.62</ele>
   </trkpt>
   <trkpt lat="46.183400000000006" lon="15.10875">
    <ele>994.3000000000001</ele>
   </trkpt>
   <trkpt lat="46.183310000000006" lon="15.108710000000002">
    <ele>991.6600000000001</ele>
   </trkpt>
   <trkpt lat="46.18323" lon="15.108630000000002">
    <ele>988.3000000000001</ele>
   </trkpt>
   <trkpt lat="46.18314" lon="15.10866">
    <ele>985.6400000000001</ele>
   </trkpt>
   <trkpt lat="46.18307" lon="15.10894">
    <ele>980.6700000000001</ele>
   </trkpt>
   <trkpt lat="46.18312" lon="15.10941">
    <ele>968.0900000000001</ele>
   </trkpt>
   <trkpt lat="46.18309000000001" lon="15.109620000000001">
    <ele>964.1200000000001</ele>
   </trkpt>
   <trkpt lat="46.183110000000006" lon="15.109910000000001">
    <ele>952.37</ele>
   </trkpt>
   <trkpt lat="46.183040000000005" lon="15.110000000000001">
    <ele>947.6200000000001</ele>
   </trkpt>
   <trkpt lat="46.182930000000006" lon="15.110040000000001">
    <ele>943.09</ele>
   </trkpt>
   <trkpt lat="46.18283" lon="15.11006">
    <ele>943.09</ele>
   </trkpt>
   <trkpt lat="46.182610000000004" lon="15.110030000000002">
    <ele>935.07</ele>
   </trkpt>
   <trkpt lat="46.18251" lon="15.110050000000001">
    <ele>932.7</ele>
   </trkpt>
   <trkpt lat="46.18224000000001" lon="15.110280000000001">
    <ele>926.09</ele>
   </trkpt>
   <trkpt lat="46.182190000000006" lon="15.110380000000001">
    <ele>924.21</ele>
   </trkpt>
   <trkpt lat="46.18202" lon="15.110560000000001">
    <ele>920.6700000000001</ele>
   </trkpt>
   <trkpt lat="46.18186" lon="15.110730000000002">
    <ele>916.78</ele>
   </trkpt>
   <trkpt lat="46.181740000000005" lon="15.11081">
    <ele>914.82</ele>
   </trkpt>
   <trkpt lat="46.18171" lon="15.110970000000002">
    <ele>911.69</ele>
   </trkpt>
   <trkpt lat="46.181700000000006" lon="15.111270000000001">
    <ele>907.44</ele>
   </trkpt>
   <trkpt lat="46.181610000000006" lon="15.111270000000001">
    <ele>905.1000000000001</ele>
   </trkpt>
   <trkpt lat="46.18151" lon="15.11124">
    <ele>903.58</ele>
   </trkpt>
   <trkpt lat="46.18144" lon="15.111120000000001">
    <ele>902.84</ele>
   </trkpt>
   <trkpt lat="46.18141000000001" lon="15.110970000000002">
    <ele>903.17</ele>
   </trkpt>
   <trkpt lat="46.18122" lon="15.110520000000001">
    <ele>900.0300000000001</ele>
   </trkpt>
   <trkpt lat="46.18108" lon="15.110260000000002">
    <ele>896.75</ele>
   </trkpt>
   <trkpt lat="46.180780000000006" lon="15.10945">
    <ele>894.32</ele>
   </trkpt>
   <trkpt lat="46.18077" lon="15.109300000000001">
    <ele>895.09</ele>
   </trkpt>
   <trkpt lat="46.18084" lon="15.10875">
    <ele>903.1000000000001</ele>
   </trkpt>
   <trkpt lat="46.18076000000001" lon="15.108500000000001">
    <ele>904.1600000000001</ele>
   </trkpt>
   <trkpt lat="46.18074000000001" lon="15.108200000000002">
    <ele>907.1600000000001</ele>
   </trkpt>
   <trkpt lat="46.18077" lon="15.108060000000002">
    <ele>908.82</ele>
   </trkpt>
   <trkpt lat="46.180780000000006" lon="15.107700000000001">
    <ele>911.6</ele>
   </trkpt>
   <trkpt lat="46.180820000000004" lon="15.107400000000002">
    <ele>913.48</ele>
   </trkpt>
   <trkpt lat="46.180930000000004" lon="15.107310000000002">
    <ele>916.0400000000001</ele>
   </trkpt>
   <trkpt lat="46.180800000000005" lon="15.106930000000002">
    <ele>915.71</ele>
   </trkpt>
   <trkpt lat="46.18077" lon="15.106330000000002">
    <ele>916.07</ele>
   </trkpt>
   <trkpt lat="46.18081" lon="15.106160000000001">
    <ele>913.3800000000001</ele>
   </trkpt>
   <trkpt lat="46.18074000000001" lon="15.106040000000002">
    <ele>909.82</ele>
   </trkpt>
   <trkpt lat="46.18059" lon="15.106000000000002">
    <ele>904.75</ele>
   </trkpt>
   <trkpt lat="46.18034" lon="15.105850000000002">
    <ele>898.9800000000001</ele>
   </trkpt>
   <trkpt lat="46.180350000000004" lon="15.105710000000002">
    <ele>896.1300000000001</ele>
   </trkpt>
   <trkpt lat="46.18043" lon="15.105630000000001">
    <ele>891.62</ele>
   </trkpt>
   <trkpt lat="46.180510000000005" lon="15.105580000000002">
    <ele>891.62</ele>
   </trkpt>
   <trkpt lat="46.18047000000001" lon="15.105450000000001">
    <ele>887.47</ele>
   </trkpt>
   <trkpt lat="46.180400000000006" lon="15.105380000000002">
    <ele>885.9800000000001</ele>
   </trkpt>
   <trkpt lat="46.18037" lon="15.10523">
    <ele>880.1600000000001</ele>
   </trkpt>
   <trkpt lat="46.180460000000004" lon="15.10514">
    <ele>876.62</ele>
   </trkpt>
   <trkpt lat="46.180710000000005" lon="15.105100000000002">
    <ele>871.4600000000002</ele>
   </trkpt>
   <trkpt lat="46.18104" lon="15.105160000000001">
    <ele>865.4100000000001</ele>
   </trkpt>
   <trkpt lat="46.18121000000001" lon="15.10504">
    <ele>861.87</ele>
   </trkpt>
   <trkpt lat="46.181180000000005" lon="15.104870000000002">
    <ele>859.5500000000001</ele>
   </trkpt>
   <trkpt lat="46.18117" lon="15.104680000000002">
    <ele>853.09</ele>
   </trkpt>
   <trkpt lat="46.181250000000006" lon="15.104550000000001">
    <ele>853.09</ele>
   </trkpt>
   <trkpt lat="46.18146" lon="15.104490000000002">
    <ele>844.67</ele>
   </trkpt>
   <trkpt lat="46.18157" lon="15.104350000000002">
    <ele>840.47</ele>
   </trkpt>
   <trkpt lat="46.18164" lon="15.104210000000002">
    <ele>839.3600000000001</ele>
   </trkpt>
   <trkpt lat="46.18164" lon="15.103980000000002">
    <ele>834.86</ele>
   </trkpt>
   <trkpt lat="46.1816" lon="15.103800000000001">
    <ele>831.98</ele>
   </trkpt>
   <trkpt lat="46.18162" lon="15.103670000000001">
    <ele>828.47</ele>
   </trkpt>
   <trkpt lat="46.18169" lon="15.10363">
    <ele>828.47</ele>
   </trkpt>
   <trkpt lat="46.181810000000006" lon="15.103600000000002">
    <ele>825.06</ele>
   </trkpt>
   <trkpt lat="46.18197000000001" lon="15.103410000000002">
    <ele>822.12</ele>
   </trkpt>
   <trkpt lat="46.18238" lon="15.102580000000001">
    <ele>813.1100000000001</ele>
   </trkpt>
   <trkpt lat="46.18287" lon="15.102070000000001">
    <ele>802.32</ele>
   </trkpt>
   <trkpt lat="46.18325" lon="15.101590000000002">
    <ele>796.7400000000001</ele>
   </trkpt>
   <trkpt lat="46.1835" lon="15.101130000000001">
    <ele>794.1800000000001</ele>
   </trkpt>
   <trkpt lat="46.18359" lon="15.10101">
    <ele>791.44</ele>
   </trkpt>
   <trkpt lat="46.18372" lon="15.100920000000002">
    <ele>790.1800000000001</ele>
   </trkpt>
   <trkpt lat="46.18394000000001" lon="15.10082">
    <ele>783.99</ele>
   </trkpt>
   <trkpt lat="46.18403000000001" lon="15.100700000000002">
    <ele>783.99</ele>
   </trkpt>
   <trkpt lat="46.18374" lon="15.10068">
    <ele>778.58</ele>
   </trkpt>
   <trkpt lat="46.183620000000005" lon="15.100620000000001">
    <ele>777.5900000000001</ele>
   </trkpt>
   <trkpt lat="46.183490000000006" lon="15.100510000000002">
    <ele>772.2</ele>
   </trkpt>
   <trkpt lat="46.183310000000006" lon="15.100290000000001">
    <ele>766.53</ele>
   </trkpt>
   <trkpt lat="46.18327" lon="15.100270000000002">
    <ele>766.53</ele>
   </trkpt>
   <trkpt lat="46.182970000000005" lon="15.10039">
    <ele>761.38</ele>
   </trkpt>
   <trkpt lat="46.18276" lon="15.1004">
    <ele>758.94</ele>
   </trkpt>
   <trkpt lat="46.182570000000005" lon="15.100370000000002">
    <ele>757.34</ele>
   </trkpt>
   <trkpt lat="46.18198" lon="15.100230000000002">
    <ele>754.87</ele>
   </trkpt>
   <trkpt lat="46.181670000000004" lon="15.10021">
    <ele>753.9300000000001</ele>
   </trkpt>
   <trkpt lat="46.181540000000005" lon="15.100220000000002">
    <ele>753.02</ele>
   </trkpt>
   <trkpt lat="46.18101" lon="15.100530000000001">
    <ele>745.33</ele>
   </trkpt>
   <trkpt lat="46.180730000000004" lon="15.10077">
    <ele>743.35</ele>
   </trkpt>
   <trkpt lat="46.18057" lon="15.100940000000001">
    <ele>743.5500000000001</ele>
   </trkpt>
   <trkpt lat="46.18045" lon="15.100980000000002">
    <ele>744.77</ele>
   </trkpt>
   <trkpt lat="46.18038000000001" lon="15.10096">
    <ele>746.77</ele>
   </trkpt>
   <trkpt lat="46.18038000000001" lon="15.101070000000002">
    <ele>748.35</ele>
   </trkpt>
   <trkpt lat="46.180330000000005" lon="15.101410000000001">
    <ele>750.9</ele>
   </trkpt>
   <trkpt lat="46.180260000000004" lon="15.101690000000001">
    <ele>754.41</ele>
   </trkpt>
   <trkpt lat="46.18019" lon="15.10255">
    <ele>759.0500000000001</ele>
   </trkpt>
   <trkpt lat="46.18014" lon="15.102780000000001">
    <ele>759.63</ele>
   </trkpt>
   <trkpt lat="46.180080000000004" lon="15.10284">
    <ele>759.85</ele>
   </trkpt>
   <trkpt lat="46.180020000000006" lon="15.102850000000002">
    <ele>759.9200000000001</ele>
   </trkpt>
   <trkpt lat="46.1796" lon="15.10284">
    <ele>760.72</ele>
   </trkpt>
   <trkpt lat="46.179280000000006" lon="15.102940000000002">
    <ele>761.0400000000001</ele>
   </trkpt>
   <trkpt lat="46.178940000000004" lon="15.10317">
    <ele>761.21</ele>
   </trkpt>
   <trkpt lat="46.178810000000006" lon="15.103220000000002">
    <ele>761.21</ele>
   </trkpt>
   <trkpt lat="46.178520000000006" lon="15.103230000000002">
    <ele>762.1000000000001</ele>
   </trkpt>
   <trkpt lat="46.17839" lon="15.103250000000001">
    <ele>763.17</ele>
   </trkpt>
   <trkpt lat="46.178250000000006" lon="15.103320000000002">
    <ele>764.0500000000001</ele>
   </trkpt>
   <trkpt lat="46.17808" lon="15.103470000000002">
    <ele>765.41</ele>
   </trkpt>
   <trkpt lat="46.177640000000004" lon="15.103930000000002">
    <ele>769.1500000000001</ele>
   </trkpt>
   <trkpt lat="46.177400000000006" lon="15.104320000000001">
    <ele>771.1800000000001</ele>
   </trkpt>
   <trkpt lat="46.1771" lon="15.104640000000002">
    <ele>773.6400000000001</ele>
   </trkpt>
   <trkpt lat="46.176820000000006" lon="15.10514">
    <ele>777.12</ele>
   </trkpt>
   <trkpt lat="46.17676" lon="15.10518">
    <ele>777.12</ele>
   </trkpt>
   <trkpt lat="46.17676" lon="15.105190000000002">
    <ele>777.12</ele>
   </trkpt>
   <trkpt lat="46.17671000000001" lon="15.105200000000002">
    <ele>778.23</ele>
   </trkpt>
   <trkpt lat="46.176520000000004" lon="15.104980000000001">
    <ele>780.1300000000001</ele>
   </trkpt>
   <trkpt lat="46.175940000000004" lon="15.104120000000002">
    <ele>791.5600000000001</ele>
   </trkpt>
   <trkpt lat="46.175740000000005" lon="15.103940000000001">
    <ele>792.8900000000001</ele>
   </trkpt>
   <trkpt lat="46.175670000000004" lon="15.103930000000002">
    <ele>794.98</ele>
   </trkpt>
   <trkpt lat="46.17557" lon="15.10396">
    <ele>796.32</ele>
   </trkpt>
   <trkpt lat="46.175090000000004" lon="15.104220000000002">
    <ele>804.6500000000001</ele>
   </trkpt>
   <trkpt lat="46.174980000000005" lon="15.10425">
    <ele>804.6500000000001</ele>
   </trkpt>
   <trkpt lat="46.17483000000001" lon="15.10425">
    <ele>816.01</ele>
   </trkpt>
   <trkpt lat="46.174710000000005" lon="15.104230000000001">
    <ele>816.01</ele>
   </trkpt>
   <trkpt lat="46.17445000000001" lon="15.104130000000001">
    <ele>821.5500000000001</ele>
   </trkpt>
   <trkpt lat="46.174080000000004" lon="15.104120000000002">
    <ele>827.1500000000001</ele>
   </trkpt>
   <trkpt lat="46.173930000000006" lon="15.104070000000002">
    <ele>830.4300000000001</ele>
   </trkpt>
   <trkpt lat="46.17336" lon="15.103720000000001">
    <ele>847.5400000000001</ele>
   </trkpt>
   <trkpt lat="46.172760000000004" lon="15.103430000000001">
    <ele>859.4300000000001</ele>
   </trkpt>
   <trkpt lat="46.17269" lon="15.10344">
    <ele>862.45</ele>
   </trkpt>
   <trkpt lat="46.17257" lon="15.103520000000001">
    <ele>864.32</ele>
   </trkpt>
   <trkpt lat="46.17255" lon="15.10368">
    <ele>865.96</ele>
   </trkpt>
   <trkpt lat="46.17255" lon="15.10405">
    <ele>870.65</ele>
   </trkpt>
   <trkpt lat="46.17248000000001" lon="15.104180000000001">
    <ele>872.4600000000002</ele>
   </trkpt>
   <trkpt lat="46.172320000000006" lon="15.104330000000001">
    <ele>874.32</ele>
   </trkpt>
   <trkpt lat="46.17203000000001" lon="15.104490000000002">
    <ele>879.35</ele>
   </trkpt>
   <trkpt lat="46.17174000000001" lon="15.10457">
    <ele>882.2800000000001</ele>
   </trkpt>
   <trkpt lat="46.17147000000001" lon="15.10472">
    <ele>884.7300000000001</ele>
   </trkpt>
   <trkpt lat="46.171060000000004" lon="15.104800000000001">
    <ele>886.57</ele>
   </trkpt>
   <trkpt lat="46.17061" lon="15.10504">
    <ele>887.7400000000001</ele>
   </trkpt>
   <trkpt lat="46.17025" lon="15.105260000000001">
    <ele>889.6600000000001</ele>
   </trkpt>
   <trkpt lat="46.170170000000006" lon="15.105340000000002">
    <ele>890.5200000000001</ele>
   </trkpt>
   <trkpt lat="46.17011" lon="15.105480000000002">
    <ele>891.0500000000001</ele>
   </trkpt>
   <trkpt lat="46.170210000000004" lon="15.10556">
    <ele>891.5</ele>
   </trkpt>
   <trkpt lat="46.170350000000006" lon="15.105580000000002">
    <ele>892.23</ele>
   </trkpt>
   <trkpt lat="46.170500000000004" lon="15.105540000000001">
    <ele>893.33</ele>
   </trkpt>
   <trkpt lat="46.17078" lon="15.105380000000002">
    <ele>894.58</ele>
   </trkpt>
   <trkpt lat="46.17096" lon="15.105350000000001">
    <ele>895.97</ele>
   </trkpt>
   <trkpt lat="46.17121" lon="15.105340000000002">
    <ele>896.39</ele>
   </trkpt>
   <trkpt lat="46.171510000000005" lon="15.105410000000001">
    <ele>898.8100000000001</ele>
   </trkpt>
   <trkpt lat="46.171640000000004" lon="15.105480000000002">
    <ele>899.34</ele>
   </trkpt>
   <trkpt lat="46.17174000000001" lon="15.105570000000002">
    <ele>899.9</ele>
   </trkpt>
   <trkpt lat="46.17181" lon="15.105660000000002">
    <ele>901.2700000000001</ele>
   </trkpt>
   <trkpt lat="46.17183000000001" lon="15.105760000000002">
    <ele>901.8100000000001</ele>
   </trkpt>
   <trkpt lat="46.17181" lon="15.10584">
    <ele>903.0100000000001</ele>
   </trkpt>
   <trkpt lat="46.17204" lon="15.106060000000001">
    <ele>908.1300000000001</ele>
   </trkpt>
   <trkpt lat="46.1721" lon="15.106270000000002">
    <ele>910.95</ele>
   </trkpt>
   <trkpt lat="46.172430000000006" lon="15.10659">
    <ele>921.78</ele>
   </trkpt>
   <trkpt lat="46.1726" lon="15.10668">
    <ele>925.1100000000001</ele>
   </trkpt>
   <trkpt lat="46.172790000000006" lon="15.10692">
    <ele>930.8000000000001</ele>
   </trkpt>
   <trkpt lat="46.17304" lon="15.10729">
    <ele>934.59</ele>
   </trkpt>
   <trkpt lat="46.17318" lon="15.107600000000001">
    <ele>939.1400000000001</ele>
   </trkpt>
  </trkseg>
 </trk>
</gpx>
