<?xml version="1.0"?>
<gpx xmlns="http://www.topografix.com/GPX/1/1" xmlns:xsi="http://www.w3.org/2001/XMLSchema-instance" version="1.1" creator="AllTrails.com" xsi:schemaLocation="http://www.topografix.com/GPX/1/1 http://www.topografix.com/GPX/1/1/gpx.xsd">
  <metadata>
    <name><![CDATA[RIBN`CA TRAIL - RIBEŽ`N 2022]]></name>
    <desc><![CDATA[]]></desc>
    <link href="http://www.alltrails.com">
      <text>AllTrails, LLC</text>
    </link>
    <bounds minlat="45.73701" minlon="14.69224" maxlat="45.81473" maxlon="14.7698"/>
  </metadata>
  <wpt lat="45.76921" lon="14.74416">
    <name><![CDATA[AID STATION]]></name>
    <desc><![CDATA[AID STATION]]></desc>
  </wpt>
  <wpt lat="45.81465" lon="14.69562">
    <name><![CDATA[AID STATION]]></name>
    <desc><![CDATA[AID STATION]]></desc>
  </wpt>
  <wpt lat="45.76183" lon="14.73482">
    <name><![CDATA[AID STATION]]></name>
    <desc><![CDATA[AID STATION]]></desc>
  </wpt>
  <wpt lat="45.78407" lon="14.72983">
    <name><![CDATA[AID STATION]]></name>
    <desc><![CDATA[AID STATION]]></desc>
  </wpt>
  <wpt lat="45.73804" lon="14.72627">
    <name><![CDATA[START]]></name>
    <desc><![CDATA[START]]></desc>
  </wpt>
  <wpt lat="45.73873" lon="14.72732">
    <name><![CDATA[FINISH]]></name>
    <desc><![CDATA[]]></desc>
  </wpt>
  <trk>
    <name><![CDATA[RIBN`CA TRAIL - RIBEŽ`N 2022]]></name>
    <src>AllTrails</src>
    <trkseg>
      <trkpt lat="45.73806" lon="14.72628">
        <ele>482.56</ele>
      </trkpt>
      <trkpt lat="45.73802" lon="14.72649">
        <ele>484.18</ele>
      </trkpt>
      <trkpt lat="45.73835" lon="14.7267">
        <ele>482.55</ele>
      </trkpt>
      <trkpt lat="45.7384" lon="14.72678">
        <ele>481.69</ele>
      </trkpt>
      <trkpt lat="45.73844" lon="14.72681">
        <ele>481.48</ele>
      </trkpt>
      <trkpt lat="45.73855" lon="14.72691">
        <ele>481.55</ele>
      </trkpt>
      <trkpt lat="45.7386" lon="14.72685">
        <ele>481.63</ele>
      </trkpt>
      <trkpt lat="45.73882" lon="14.72717">
        <ele>488.41</ele>
      </trkpt>
      <trkpt lat="45.73866" lon="14.72738">
        <ele>489.89</ele>
      </trkpt>
      <trkpt lat="45.73854" lon="14.72754">
        <ele>492.59</ele>
      </trkpt>
      <trkpt lat="45.73828" lon="14.72796">
        <ele>499.71</ele>
      </trkpt>
      <trkpt lat="45.73819" lon="14.72811">
        <ele>499.45</ele>
      </trkpt>
      <trkpt lat="45.73808" lon="14.72831">
        <ele>494.06</ele>
      </trkpt>
      <trkpt lat="45.7377" lon="14.72895">
        <ele>483.0</ele>
      </trkpt>
      <trkpt lat="45.73759" lon="14.72913">
        <ele>482.47</ele>
      </trkpt>
      <trkpt lat="45.73749" lon="14.72927">
        <ele>482.59</ele>
      </trkpt>
      <trkpt lat="45.73727" lon="14.72955">
        <ele>480.55</ele>
      </trkpt>
      <trkpt lat="45.73732" lon="14.72963">
        <ele>481.86</ele>
      </trkpt>
      <trkpt lat="45.7374" lon="14.72979">
        <ele>484.07</ele>
      </trkpt>
      <trkpt lat="45.73745" lon="14.72986">
        <ele>485.04</ele>
      </trkpt>
      <trkpt lat="45.73748" lon="14.72991">
        <ele>485.53</ele>
      </trkpt>
      <trkpt lat="45.73751" lon="14.73078">
        <ele>487.55</ele>
      </trkpt>
      <trkpt lat="45.73751" lon="14.73089">
        <ele>488.52</ele>
      </trkpt>
      <trkpt lat="45.73752" lon="14.73108">
        <ele>490.33</ele>
      </trkpt>
      <trkpt lat="45.73752" lon="14.73123">
        <ele>492.66</ele>
      </trkpt>
      <trkpt lat="45.73752" lon="14.73136">
        <ele>494.86</ele>
      </trkpt>
      <trkpt lat="45.73754" lon="14.73157">
        <ele>497.12</ele>
      </trkpt>
      <trkpt lat="45.73755" lon="14.73213">
        <ele>499.07</ele>
      </trkpt>
      <trkpt lat="45.73752" lon="14.73344">
        <ele>480.51</ele>
      </trkpt>
      <trkpt lat="45.7375" lon="14.7338">
        <ele>482.32</ele>
      </trkpt>
      <trkpt lat="45.73746" lon="14.73416">
        <ele>481.46</ele>
      </trkpt>
      <trkpt lat="45.73742" lon="14.73466">
        <ele>485.6</ele>
      </trkpt>
      <trkpt lat="45.73734" lon="14.73483">
        <ele>485.35</ele>
      </trkpt>
      <trkpt lat="45.73708" lon="14.73542">
        <ele>474.99</ele>
      </trkpt>
      <trkpt lat="45.73701" lon="14.73573">
        <ele>476.92</ele>
      </trkpt>
      <trkpt lat="45.73701" lon="14.73585">
        <ele>478.39</ele>
      </trkpt>
      <trkpt lat="45.73701" lon="14.73601">
        <ele>479.84</ele>
      </trkpt>
      <trkpt lat="45.73704" lon="14.73617">
        <ele>481.58</ele>
      </trkpt>
      <trkpt lat="45.7371" lon="14.73646">
        <ele>485.06</ele>
      </trkpt>
      <trkpt lat="45.73711" lon="14.73669">
        <ele>485.42</ele>
      </trkpt>
      <trkpt lat="45.73712" lon="14.73681">
        <ele>485.8</ele>
      </trkpt>
      <trkpt lat="45.73724" lon="14.73685">
        <ele>487.9</ele>
      </trkpt>
      <trkpt lat="45.7375" lon="14.73698">
        <ele>481.51</ele>
      </trkpt>
      <trkpt lat="45.73763" lon="14.73705">
        <ele>480.76</ele>
      </trkpt>
      <trkpt lat="45.73771" lon="14.73704">
        <ele>479.59</ele>
      </trkpt>
      <trkpt lat="45.73799" lon="14.73687">
        <ele>476.66</ele>
      </trkpt>
      <trkpt lat="45.73817" lon="14.73706">
        <ele>479.09</ele>
      </trkpt>
      <trkpt lat="45.73836" lon="14.7373">
        <ele>485.0</ele>
      </trkpt>
      <trkpt lat="45.73864" lon="14.73764">
        <ele>490.72</ele>
      </trkpt>
      <trkpt lat="45.73907" lon="14.73811">
        <ele>480.65</ele>
      </trkpt>
      <trkpt lat="45.73936" lon="14.73841">
        <ele>478.89</ele>
      </trkpt>
      <trkpt lat="45.73944" lon="14.7385">
        <ele>477.48</ele>
      </trkpt>
      <trkpt lat="45.73948" lon="14.73858">
        <ele>476.33</ele>
      </trkpt>
      <trkpt lat="45.73956" lon="14.73868">
        <ele>474.75</ele>
      </trkpt>
      <trkpt lat="45.73982" lon="14.73886">
        <ele>472.95</ele>
      </trkpt>
      <trkpt lat="45.74054" lon="14.73909">
        <ele>478.2</ele>
      </trkpt>
      <trkpt lat="45.74077" lon="14.73926">
        <ele>476.89</ele>
      </trkpt>
      <trkpt lat="45.74099" lon="14.73953">
        <ele>476.12</ele>
      </trkpt>
      <trkpt lat="45.74117" lon="14.73986">
        <ele>476.14</ele>
      </trkpt>
      <trkpt lat="45.74182" lon="14.74191">
        <ele>480.2</ele>
      </trkpt>
      <trkpt lat="45.74226" lon="14.74294">
        <ele>480.65</ele>
      </trkpt>
      <trkpt lat="45.74238" lon="14.74321">
        <ele>478.18</ele>
      </trkpt>
      <trkpt lat="45.74243" lon="14.74342">
        <ele>476.52</ele>
      </trkpt>
      <trkpt lat="45.74252" lon="14.7444">
        <ele>472.46</ele>
      </trkpt>
      <trkpt lat="45.74297" lon="14.74586">
        <ele>478.86</ele>
      </trkpt>
      <trkpt lat="45.74366" lon="14.74748">
        <ele>476.23</ele>
      </trkpt>
      <trkpt lat="45.74376" lon="14.74799">
        <ele>477.19</ele>
      </trkpt>
      <trkpt lat="45.74433" lon="14.74963">
        <ele>481.28</ele>
      </trkpt>
      <trkpt lat="45.74445" lon="14.75015">
        <ele>481.94</ele>
      </trkpt>
      <trkpt lat="45.74473" lon="14.7507">
        <ele>481.66</ele>
      </trkpt>
      <trkpt lat="45.74497" lon="14.75134">
        <ele>481.95</ele>
      </trkpt>
      <trkpt lat="45.74522" lon="14.75264">
        <ele>485.8</ele>
      </trkpt>
      <trkpt lat="45.74529" lon="14.75327">
        <ele>489.75</ele>
      </trkpt>
      <trkpt lat="45.74547" lon="14.75393">
        <ele>501.31</ele>
      </trkpt>
      <trkpt lat="45.74558" lon="14.75396">
        <ele>502.8</ele>
      </trkpt>
      <trkpt lat="45.7461" lon="14.75374">
        <ele>506.56</ele>
      </trkpt>
      <trkpt lat="45.74632" lon="14.75374">
        <ele>515.29</ele>
      </trkpt>
      <trkpt lat="45.74638" lon="14.75379">
        <ele>517.39</ele>
      </trkpt>
      <trkpt lat="45.74644" lon="14.75408">
        <ele>519.64</ele>
      </trkpt>
      <trkpt lat="45.74635" lon="14.75496">
        <ele>506.59</ele>
      </trkpt>
      <trkpt lat="45.74639" lon="14.7551">
        <ele>506.4</ele>
      </trkpt>
      <trkpt lat="45.74691" lon="14.75527">
        <ele>526.69</ele>
      </trkpt>
      <trkpt lat="45.74707" lon="14.75517">
        <ele>526.71</ele>
      </trkpt>
      <trkpt lat="45.74716" lon="14.75519">
        <ele>528.08</ele>
      </trkpt>
      <trkpt lat="45.74722" lon="14.75529">
        <ele>530.2</ele>
      </trkpt>
      <trkpt lat="45.74725" lon="14.75549">
        <ele>534.73</ele>
      </trkpt>
      <trkpt lat="45.74717" lon="14.75622">
        <ele>545.37</ele>
      </trkpt>
      <trkpt lat="45.74729" lon="14.75644">
        <ele>546.35</ele>
      </trkpt>
      <trkpt lat="45.74756" lon="14.75666">
        <ele>545.68</ele>
      </trkpt>
      <trkpt lat="45.7477" lon="14.7567">
        <ele>547.39</ele>
      </trkpt>
      <trkpt lat="45.74813" lon="14.75661">
        <ele>553.53</ele>
      </trkpt>
      <trkpt lat="45.74817" lon="14.7566">
        <ele>554.98</ele>
      </trkpt>
      <trkpt lat="45.74861" lon="14.75701">
        <ele>570.85</ele>
      </trkpt>
      <trkpt lat="45.74864" lon="14.75727">
        <ele>579.38</ele>
      </trkpt>
      <trkpt lat="45.74851" lon="14.75796">
        <ele>588.08</ele>
      </trkpt>
      <trkpt lat="45.74864" lon="14.75857">
        <ele>589.76</ele>
      </trkpt>
      <trkpt lat="45.74904" lon="14.75912">
        <ele>595.16</ele>
      </trkpt>
      <trkpt lat="45.74959" lon="14.7595">
        <ele>603.23</ele>
      </trkpt>
      <trkpt lat="45.74979" lon="14.75997">
        <ele>591.8</ele>
      </trkpt>
      <trkpt lat="45.74995" lon="14.76021">
        <ele>587.26</ele>
      </trkpt>
      <trkpt lat="45.75024" lon="14.76017">
        <ele>591.91</ele>
      </trkpt>
      <trkpt lat="45.75064" lon="14.75986">
        <ele>597.22</ele>
      </trkpt>
      <trkpt lat="45.75083" lon="14.75965">
        <ele>602.35</ele>
      </trkpt>
      <trkpt lat="45.75115" lon="14.75912">
        <ele>600.48</ele>
      </trkpt>
      <trkpt lat="45.75118" lon="14.75916">
        <ele>601.43</ele>
      </trkpt>
      <trkpt lat="45.75133" lon="14.75909">
        <ele>603.96</ele>
      </trkpt>
      <trkpt lat="45.75142" lon="14.75892">
        <ele>604.22</ele>
      </trkpt>
      <trkpt lat="45.75162" lon="14.75876">
        <ele>609.19</ele>
      </trkpt>
      <trkpt lat="45.75209" lon="14.75858">
        <ele>619.4</ele>
      </trkpt>
      <trkpt lat="45.75247" lon="14.7582">
        <ele>623.57</ele>
      </trkpt>
      <trkpt lat="45.75257" lon="14.75821">
        <ele>624.0</ele>
      </trkpt>
      <trkpt lat="45.75265" lon="14.75815">
        <ele>624.0</ele>
      </trkpt>
      <trkpt lat="45.75307" lon="14.7585">
        <ele>621.81</ele>
      </trkpt>
      <trkpt lat="45.75333" lon="14.75847">
        <ele>622.0</ele>
      </trkpt>
      <trkpt lat="45.75405" lon="14.7586">
        <ele>625.04</ele>
      </trkpt>
      <trkpt lat="45.75425" lon="14.75857">
        <ele>627.14</ele>
      </trkpt>
      <trkpt lat="45.75463" lon="14.75833">
        <ele>631.34</ele>
      </trkpt>
      <trkpt lat="45.75497" lon="14.75852">
        <ele>632.82</ele>
      </trkpt>
      <trkpt lat="45.75521" lon="14.75853">
        <ele>628.68</ele>
      </trkpt>
      <trkpt lat="45.75548" lon="14.75837">
        <ele>625.15</ele>
      </trkpt>
      <trkpt lat="45.75578" lon="14.75839">
        <ele>625.84</ele>
      </trkpt>
      <trkpt lat="45.75606" lon="14.75825">
        <ele>630.39</ele>
      </trkpt>
      <trkpt lat="45.75619" lon="14.75829">
        <ele>632.69</ele>
      </trkpt>
      <trkpt lat="45.75645" lon="14.7586">
        <ele>637.18</ele>
      </trkpt>
      <trkpt lat="45.7567" lon="14.75862">
        <ele>638.55</ele>
      </trkpt>
      <trkpt lat="45.75708" lon="14.75855">
        <ele>643.34</ele>
      </trkpt>
      <trkpt lat="45.75739" lon="14.7591">
        <ele>657.34</ele>
      </trkpt>
      <trkpt lat="45.75749" lon="14.75951">
        <ele>662.96</ele>
      </trkpt>
      <trkpt lat="45.75796" lon="14.76005">
        <ele>669.01</ele>
      </trkpt>
      <trkpt lat="45.75828" lon="14.76031">
        <ele>669.53</ele>
      </trkpt>
      <trkpt lat="45.75842" lon="14.76065">
        <ele>679.68</ele>
      </trkpt>
      <trkpt lat="45.75869" lon="14.76101">
        <ele>686.8</ele>
      </trkpt>
      <trkpt lat="45.75907" lon="14.76124">
        <ele>697.48</ele>
      </trkpt>
      <trkpt lat="45.75918" lon="14.76153">
        <ele>706.45</ele>
      </trkpt>
      <trkpt lat="45.75958" lon="14.7616">
        <ele>700.6</ele>
      </trkpt>
      <trkpt lat="45.75971" lon="14.76179">
        <ele>695.12</ele>
      </trkpt>
      <trkpt lat="45.76003" lon="14.762">
        <ele>688.82</ele>
      </trkpt>
      <trkpt lat="45.76033" lon="14.76264">
        <ele>696.49</ele>
      </trkpt>
      <trkpt lat="45.76038" lon="14.76302">
        <ele>698.14</ele>
      </trkpt>
      <trkpt lat="45.76049" lon="14.76329">
        <ele>701.71</ele>
      </trkpt>
      <trkpt lat="45.76061" lon="14.76333">
        <ele>706.14</ele>
      </trkpt>
      <trkpt lat="45.76083" lon="14.76329">
        <ele>717.58</ele>
      </trkpt>
      <trkpt lat="45.76086" lon="14.76375">
        <ele>721.04</ele>
      </trkpt>
      <trkpt lat="45.7609" lon="14.76375">
        <ele>723.34</ele>
      </trkpt>
      <trkpt lat="45.76122" lon="14.76384">
        <ele>737.21</ele>
      </trkpt>
      <trkpt lat="45.7614" lon="14.76392">
        <ele>739.08</ele>
      </trkpt>
      <trkpt lat="45.76162" lon="14.76407">
        <ele>735.1</ele>
      </trkpt>
      <trkpt lat="45.76188" lon="14.76417">
        <ele>726.84</ele>
      </trkpt>
      <trkpt lat="45.76213" lon="14.76416">
        <ele>720.56</ele>
      </trkpt>
      <trkpt lat="45.76217" lon="14.76414">
        <ele>720.36</ele>
      </trkpt>
      <trkpt lat="45.7622" lon="14.76422">
        <ele>719.07</ele>
      </trkpt>
      <trkpt lat="45.76236" lon="14.76439">
        <ele>719.8</ele>
      </trkpt>
      <trkpt lat="45.76275" lon="14.76461">
        <ele>717.65</ele>
      </trkpt>
      <trkpt lat="45.76295" lon="14.76458">
        <ele>716.13</ele>
      </trkpt>
      <trkpt lat="45.76335" lon="14.76435">
        <ele>724.26</ele>
      </trkpt>
      <trkpt lat="45.76348" lon="14.76439">
        <ele>720.7</ele>
      </trkpt>
      <trkpt lat="45.76373" lon="14.76471">
        <ele>715.54</ele>
      </trkpt>
      <trkpt lat="45.76403" lon="14.7649">
        <ele>712.82</ele>
      </trkpt>
      <trkpt lat="45.76435" lon="14.76491">
        <ele>706.44</ele>
      </trkpt>
      <trkpt lat="45.76482" lon="14.76482">
        <ele>710.7</ele>
      </trkpt>
      <trkpt lat="45.76509" lon="14.76468">
        <ele>708.39</ele>
      </trkpt>
      <trkpt lat="45.76533" lon="14.76426">
        <ele>713.91</ele>
      </trkpt>
      <trkpt lat="45.76573" lon="14.76405">
        <ele>712.34</ele>
      </trkpt>
      <trkpt lat="45.76585" lon="14.76391">
        <ele>711.64</ele>
      </trkpt>
      <trkpt lat="45.76619" lon="14.7637">
        <ele>713.58</ele>
      </trkpt>
      <trkpt lat="45.76684" lon="14.76307">
        <ele>715.98</ele>
      </trkpt>
      <trkpt lat="45.76743" lon="14.76268">
        <ele>707.96</ele>
      </trkpt>
      <trkpt lat="45.76787" lon="14.76225">
        <ele>704.61</ele>
      </trkpt>
      <trkpt lat="45.76808" lon="14.76186">
        <ele>713.96</ele>
      </trkpt>
      <trkpt lat="45.76822" lon="14.76064">
        <ele>740.51</ele>
      </trkpt>
      <trkpt lat="45.76832" lon="14.76035">
        <ele>750.9</ele>
      </trkpt>
      <trkpt lat="45.76828" lon="14.76006">
        <ele>757.47</ele>
      </trkpt>
      <trkpt lat="45.76898" lon="14.7593">
        <ele>753.76</ele>
      </trkpt>
      <trkpt lat="45.76936" lon="14.75903">
        <ele>736.14</ele>
      </trkpt>
      <trkpt lat="45.76927" lon="14.75859">
        <ele>739.34</ele>
      </trkpt>
      <trkpt lat="45.76925" lon="14.75801">
        <ele>744.24</ele>
      </trkpt>
      <trkpt lat="45.76908" lon="14.75777">
        <ele>749.78</ele>
      </trkpt>
      <trkpt lat="45.76911" lon="14.75726">
        <ele>761.43</ele>
      </trkpt>
      <trkpt lat="45.76883" lon="14.757">
        <ele>768.12</ele>
      </trkpt>
      <trkpt lat="45.76871" lon="14.75678">
        <ele>770.34</ele>
      </trkpt>
      <trkpt lat="45.76849" lon="14.7567">
        <ele>767.23</ele>
      </trkpt>
      <trkpt lat="45.76835" lon="14.75644">
        <ele>766.29</ele>
      </trkpt>
      <trkpt lat="45.76806" lon="14.75631">
        <ele>770.11</ele>
      </trkpt>
      <trkpt lat="45.76765" lon="14.756">
        <ele>780.54</ele>
      </trkpt>
      <trkpt lat="45.76724" lon="14.75619">
        <ele>780.68</ele>
      </trkpt>
      <trkpt lat="45.76704" lon="14.75567">
        <ele>782.35</ele>
      </trkpt>
      <trkpt lat="45.76704" lon="14.75543">
        <ele>783.08</ele>
      </trkpt>
      <trkpt lat="45.76713" lon="14.75507">
        <ele>783.58</ele>
      </trkpt>
      <trkpt lat="45.76712" lon="14.75494">
        <ele>785.16</ele>
      </trkpt>
      <trkpt lat="45.76699" lon="14.75469">
        <ele>789.23</ele>
      </trkpt>
      <trkpt lat="45.76644" lon="14.75453">
        <ele>797.22</ele>
      </trkpt>
      <trkpt lat="45.76635" lon="14.75444">
        <ele>797.68</ele>
      </trkpt>
      <trkpt lat="45.76628" lon="14.75413">
        <ele>796.31</ele>
      </trkpt>
      <trkpt lat="45.76626" lon="14.75364">
        <ele>795.34</ele>
      </trkpt>
      <trkpt lat="45.76628" lon="14.75359">
        <ele>795.84</ele>
      </trkpt>
      <trkpt lat="45.76633" lon="14.75352">
        <ele>796.55</ele>
      </trkpt>
      <trkpt lat="45.76673" lon="14.75338">
        <ele>798.09</ele>
      </trkpt>
      <trkpt lat="45.76681" lon="14.75328">
        <ele>797.63</ele>
      </trkpt>
      <trkpt lat="45.76679" lon="14.75292">
        <ele>797.4</ele>
      </trkpt>
      <trkpt lat="45.76697" lon="14.75233">
        <ele>803.72</ele>
      </trkpt>
      <trkpt lat="45.76701" lon="14.75229">
        <ele>804.11</ele>
      </trkpt>
      <trkpt lat="45.7671" lon="14.75228">
        <ele>804.68</ele>
      </trkpt>
      <trkpt lat="45.7678" lon="14.75248">
        <ele>814.27</ele>
      </trkpt>
      <trkpt lat="45.76806" lon="14.75232">
        <ele>820.63</ele>
      </trkpt>
      <trkpt lat="45.76814" lon="14.75234">
        <ele>821.36</ele>
      </trkpt>
      <trkpt lat="45.76871" lon="14.75259">
        <ele>828.62</ele>
      </trkpt>
      <trkpt lat="45.76912" lon="14.75267">
        <ele>822.94</ele>
      </trkpt>
      <trkpt lat="45.76941" lon="14.75256">
        <ele>828.26</ele>
      </trkpt>
      <trkpt lat="45.76963" lon="14.75216">
        <ele>843.12</ele>
      </trkpt>
      <trkpt lat="45.76986" lon="14.75212">
        <ele>848.0</ele>
      </trkpt>
      <trkpt lat="45.77041" lon="14.75234">
        <ele>841.38</ele>
      </trkpt>
      <trkpt lat="45.77085" lon="14.75208">
        <ele>832.79</ele>
      </trkpt>
      <trkpt lat="45.77147" lon="14.75116">
        <ele>840.32</ele>
      </trkpt>
      <trkpt lat="45.77198" lon="14.75082">
        <ele>842.31</ele>
      </trkpt>
      <trkpt lat="45.77217" lon="14.75077">
        <ele>848.79</ele>
      </trkpt>
      <trkpt lat="45.77213" lon="14.75045">
        <ele>846.42</ele>
      </trkpt>
      <trkpt lat="45.77214" lon="14.75001">
        <ele>847.08</ele>
      </trkpt>
      <trkpt lat="45.77203" lon="14.74944">
        <ele>857.61</ele>
      </trkpt>
      <trkpt lat="45.77205" lon="14.7486">
        <ele>874.19</ele>
      </trkpt>
      <trkpt lat="45.77176" lon="14.74785">
        <ele>868.77</ele>
      </trkpt>
      <trkpt lat="45.7712" lon="14.74705">
        <ele>859.36</ele>
      </trkpt>
      <trkpt lat="45.77119" lon="14.74668">
        <ele>865.78</ele>
      </trkpt>
      <trkpt lat="45.77074" lon="14.74642">
        <ele>862.17</ele>
      </trkpt>
      <trkpt lat="45.7706" lon="14.74619">
        <ele>865.17</ele>
      </trkpt>
      <trkpt lat="45.77013" lon="14.746">
        <ele>880.35</ele>
      </trkpt>
      <trkpt lat="45.76998" lon="14.74587">
        <ele>881.49</ele>
      </trkpt>
      <trkpt lat="45.76983" lon="14.74589">
        <ele>881.05</ele>
      </trkpt>
      <trkpt lat="45.76962" lon="14.74577">
        <ele>888.52</ele>
      </trkpt>
      <trkpt lat="45.76945" lon="14.74571">
        <ele>893.68</ele>
      </trkpt>
      <trkpt lat="45.76932" lon="14.74573">
        <ele>892.47</ele>
      </trkpt>
      <trkpt lat="45.76917" lon="14.74564">
        <ele>895.73</ele>
      </trkpt>
      <trkpt lat="45.76909" lon="14.74546">
        <ele>900.59</ele>
      </trkpt>
      <trkpt lat="45.76891" lon="14.74534">
        <ele>899.32</ele>
      </trkpt>
      <trkpt lat="45.76895" lon="14.74523">
        <ele>901.43</ele>
      </trkpt>
      <trkpt lat="45.76882" lon="14.74474">
        <ele>896.62</ele>
      </trkpt>
      <trkpt lat="45.76878" lon="14.74466">
        <ele>893.64</ele>
      </trkpt>
      <trkpt lat="45.76888" lon="14.7446">
        <ele>895.22</ele>
      </trkpt>
      <trkpt lat="45.76896" lon="14.74457">
        <ele>897.88</ele>
      </trkpt>
      <trkpt lat="45.76922" lon="14.74415">
        <ele>903.63</ele>
      </trkpt>
      <trkpt lat="45.76932" lon="14.74399">
        <ele>899.82</ele>
      </trkpt>
      <trkpt lat="45.76935" lon="14.74395">
        <ele>898.66</ele>
      </trkpt>
      <trkpt lat="45.76955" lon="14.74391">
        <ele>897.56</ele>
      </trkpt>
      <trkpt lat="45.7696" lon="14.74381">
        <ele>895.02</ele>
      </trkpt>
      <trkpt lat="45.76959" lon="14.74374">
        <ele>893.8</ele>
      </trkpt>
      <trkpt lat="45.7697" lon="14.74369">
        <ele>892.5</ele>
      </trkpt>
      <trkpt lat="45.76966" lon="14.74349">
        <ele>890.3</ele>
      </trkpt>
      <trkpt lat="45.76977" lon="14.74341">
        <ele>890.26</ele>
      </trkpt>
      <trkpt lat="45.76993" lon="14.74336">
        <ele>890.56</ele>
      </trkpt>
      <trkpt lat="45.77017" lon="14.74341">
        <ele>886.46</ele>
      </trkpt>
      <trkpt lat="45.77037" lon="14.74337">
        <ele>886.69</ele>
      </trkpt>
      <trkpt lat="45.77068" lon="14.74346">
        <ele>897.03</ele>
      </trkpt>
      <trkpt lat="45.77139" lon="14.74384">
        <ele>903.79</ele>
      </trkpt>
      <trkpt lat="45.77161" lon="14.74379">
        <ele>906.54</ele>
      </trkpt>
      <trkpt lat="45.77191" lon="14.74385">
        <ele>911.07</ele>
      </trkpt>
      <trkpt lat="45.77212" lon="14.74393">
        <ele>914.18</ele>
      </trkpt>
      <trkpt lat="45.77229" lon="14.74405">
        <ele>915.39</ele>
      </trkpt>
      <trkpt lat="45.77261" lon="14.7443">
        <ele>914.17</ele>
      </trkpt>
      <trkpt lat="45.773" lon="14.74444">
        <ele>919.34</ele>
      </trkpt>
      <trkpt lat="45.77317" lon="14.74457">
        <ele>923.12</ele>
      </trkpt>
      <trkpt lat="45.77339" lon="14.74489">
        <ele>924.09</ele>
      </trkpt>
      <trkpt lat="45.77371" lon="14.74506">
        <ele>932.3</ele>
      </trkpt>
      <trkpt lat="45.77415" lon="14.74552">
        <ele>950.19</ele>
      </trkpt>
      <trkpt lat="45.77425" lon="14.74582">
        <ele>955.39</ele>
      </trkpt>
      <trkpt lat="45.77439" lon="14.74615">
        <ele>954.89</ele>
      </trkpt>
      <trkpt lat="45.77444" lon="14.74629">
        <ele>953.72</ele>
      </trkpt>
      <trkpt lat="45.7745" lon="14.7468">
        <ele>950.54</ele>
      </trkpt>
      <trkpt lat="45.77489" lon="14.74737">
        <ele>953.91</ele>
      </trkpt>
      <trkpt lat="45.77501" lon="14.74764">
        <ele>953.09</ele>
      </trkpt>
      <trkpt lat="45.77466" lon="14.7488">
        <ele>931.33</ele>
      </trkpt>
      <trkpt lat="45.77414" lon="14.74956">
        <ele>886.72</ele>
      </trkpt>
      <trkpt lat="45.77351" lon="14.7506">
        <ele>870.19</ele>
      </trkpt>
      <trkpt lat="45.77322" lon="14.75084">
        <ele>867.12</ele>
      </trkpt>
      <trkpt lat="45.77277" lon="14.75092">
        <ele>861.06</ele>
      </trkpt>
      <trkpt lat="45.77266" lon="14.75104">
        <ele>863.24</ele>
      </trkpt>
      <trkpt lat="45.7726" lon="14.75123">
        <ele>865.36</ele>
      </trkpt>
      <trkpt lat="45.77292" lon="14.75161">
        <ele>866.21</ele>
      </trkpt>
      <trkpt lat="45.77263" lon="14.75198">
        <ele>860.93</ele>
      </trkpt>
      <trkpt lat="45.77159" lon="14.75309">
        <ele>822.92</ele>
      </trkpt>
      <trkpt lat="45.77105" lon="14.75381">
        <ele>813.1</ele>
      </trkpt>
      <trkpt lat="45.77048" lon="14.75686">
        <ele>740.96</ele>
      </trkpt>
      <trkpt lat="45.77031" lon="14.75814">
        <ele>718.63</ele>
      </trkpt>
      <trkpt lat="45.77033" lon="14.75887">
        <ele>707.92</ele>
      </trkpt>
      <trkpt lat="45.77053" lon="14.75934">
        <ele>695.56</ele>
      </trkpt>
      <trkpt lat="45.77066" lon="14.75939">
        <ele>691.89</ele>
      </trkpt>
      <trkpt lat="45.7708" lon="14.75936">
        <ele>687.65</ele>
      </trkpt>
      <trkpt lat="45.77101" lon="14.75885">
        <ele>690.09</ele>
      </trkpt>
      <trkpt lat="45.77118" lon="14.75855">
        <ele>688.49</ele>
      </trkpt>
      <trkpt lat="45.77138" lon="14.75881">
        <ele>686.42</ele>
      </trkpt>
      <trkpt lat="45.77169" lon="14.75904">
        <ele>684.36</ele>
      </trkpt>
      <trkpt lat="45.77163" lon="14.75967">
        <ele>675.86</ele>
      </trkpt>
      <trkpt lat="45.77141" lon="14.7609">
        <ele>664.75</ele>
      </trkpt>
      <trkpt lat="45.7714" lon="14.76192">
        <ele>647.5</ele>
      </trkpt>
      <trkpt lat="45.77152" lon="14.763">
        <ele>623.71</ele>
      </trkpt>
      <trkpt lat="45.77136" lon="14.76392">
        <ele>619.33</ele>
      </trkpt>
      <trkpt lat="45.77139" lon="14.76454">
        <ele>608.89</ele>
      </trkpt>
      <trkpt lat="45.77177" lon="14.76501">
        <ele>593.91</ele>
      </trkpt>
      <trkpt lat="45.77189" lon="14.76525">
        <ele>582.56</ele>
      </trkpt>
      <trkpt lat="45.7719" lon="14.76528">
        <ele>581.1</ele>
      </trkpt>
      <trkpt lat="45.77197" lon="14.76579">
        <ele>568.7</ele>
      </trkpt>
      <trkpt lat="45.7717" lon="14.76622">
        <ele>569.72</ele>
      </trkpt>
      <trkpt lat="45.77159" lon="14.76713">
        <ele>557.15</ele>
      </trkpt>
      <trkpt lat="45.77175" lon="14.76734">
        <ele>553.13</ele>
      </trkpt>
      <trkpt lat="45.77197" lon="14.76732">
        <ele>549.29</ele>
      </trkpt>
      <trkpt lat="45.77273" lon="14.76691">
        <ele>538.02</ele>
      </trkpt>
      <trkpt lat="45.77256" lon="14.76747">
        <ele>531.07</ele>
      </trkpt>
      <trkpt lat="45.77254" lon="14.76788">
        <ele>520.6</ele>
      </trkpt>
      <trkpt lat="45.77269" lon="14.76816">
        <ele>511.85</ele>
      </trkpt>
      <trkpt lat="45.77308" lon="14.76827">
        <ele>503.31</ele>
      </trkpt>
      <trkpt lat="45.77472" lon="14.76788">
        <ele>462.92</ele>
      </trkpt>
      <trkpt lat="45.77558" lon="14.76798">
        <ele>428.11</ele>
      </trkpt>
      <trkpt lat="45.77632" lon="14.76771">
        <ele>422.02</ele>
      </trkpt>
      <trkpt lat="45.77649" lon="14.7677">
        <ele>415.87</ele>
      </trkpt>
      <trkpt lat="45.7765" lon="14.76776">
        <ele>414.17</ele>
      </trkpt>
      <trkpt lat="45.77643" lon="14.76784">
        <ele>415.07</ele>
      </trkpt>
      <trkpt lat="45.77636" lon="14.76799">
        <ele>411.85</ele>
      </trkpt>
      <trkpt lat="45.77637" lon="14.7681">
        <ele>409.58</ele>
      </trkpt>
      <trkpt lat="45.77639" lon="14.76823">
        <ele>410.23</ele>
      </trkpt>
      <trkpt lat="45.77637" lon="14.76834">
        <ele>411.2</ele>
      </trkpt>
      <trkpt lat="45.77599" lon="14.76881">
        <ele>410.69</ele>
      </trkpt>
      <trkpt lat="45.77578" lon="14.76921">
        <ele>409.94</ele>
      </trkpt>
      <trkpt lat="45.77567" lon="14.76945">
        <ele>408.2</ele>
      </trkpt>
      <trkpt lat="45.77578" lon="14.76953">
        <ele>408.62</ele>
      </trkpt>
      <trkpt lat="45.77608" lon="14.76975">
        <ele>412.22</ele>
      </trkpt>
      <trkpt lat="45.77619" lon="14.7698">
        <ele>411.1</ele>
      </trkpt>
      <trkpt lat="45.77637" lon="14.76974">
        <ele>407.4</ele>
      </trkpt>
      <trkpt lat="45.77666" lon="14.76954">
        <ele>405.72</ele>
      </trkpt>
      <trkpt lat="45.77689" lon="14.76946">
        <ele>404.54</ele>
      </trkpt>
      <trkpt lat="45.777" lon="14.76944">
        <ele>403.39</ele>
      </trkpt>
      <trkpt lat="45.7769" lon="14.76904">
        <ele>403.8</ele>
      </trkpt>
      <trkpt lat="45.77699" lon="14.76893">
        <ele>401.76</ele>
      </trkpt>
      <trkpt lat="45.7776" lon="14.76828">
        <ele>399.26</ele>
      </trkpt>
      <trkpt lat="45.77809" lon="14.76802">
        <ele>394.61</ele>
      </trkpt>
      <trkpt lat="45.77817" lon="14.76799">
        <ele>393.67</ele>
      </trkpt>
      <trkpt lat="45.77821" lon="14.768">
        <ele>393.22</ele>
      </trkpt>
      <trkpt lat="45.77842" lon="14.76826">
        <ele>392.28</ele>
      </trkpt>
      <trkpt lat="45.77845" lon="14.76833">
        <ele>392.16</ele>
      </trkpt>
      <trkpt lat="45.77851" lon="14.76849">
        <ele>395.16</ele>
      </trkpt>
      <trkpt lat="45.77857" lon="14.76864">
        <ele>399.38</ele>
      </trkpt>
      <trkpt lat="45.77863" lon="14.76854">
        <ele>397.58</ele>
      </trkpt>
      <trkpt lat="45.77889" lon="14.76824">
        <ele>395.01</ele>
      </trkpt>
      <trkpt lat="45.77898" lon="14.76817">
        <ele>395.93</ele>
      </trkpt>
      <trkpt lat="45.77914" lon="14.76806">
        <ele>398.44</ele>
      </trkpt>
      <trkpt lat="45.77939" lon="14.76787">
        <ele>404.36</ele>
      </trkpt>
      <trkpt lat="45.77949" lon="14.76779">
        <ele>406.08</ele>
      </trkpt>
      <trkpt lat="45.77989" lon="14.76756">
        <ele>407.39</ele>
      </trkpt>
      <trkpt lat="45.78032" lon="14.76721">
        <ele>409.47</ele>
      </trkpt>
      <trkpt lat="45.78088" lon="14.76728">
        <ele>407.84</ele>
      </trkpt>
      <trkpt lat="45.78108" lon="14.76724">
        <ele>406.36</ele>
      </trkpt>
      <trkpt lat="45.78159" lon="14.76689">
        <ele>408.45</ele>
      </trkpt>
      <trkpt lat="45.78163" lon="14.76691">
        <ele>409.63</ele>
      </trkpt>
      <trkpt lat="45.78168" lon="14.76684">
        <ele>409.86</ele>
      </trkpt>
      <trkpt lat="45.78256" lon="14.76578">
        <ele>404.95</ele>
      </trkpt>
      <trkpt lat="45.78257" lon="14.76563">
        <ele>405.38</ele>
      </trkpt>
      <trkpt lat="45.78248" lon="14.76498">
        <ele>409.3</ele>
      </trkpt>
      <trkpt lat="45.7826" lon="14.76466">
        <ele>405.77</ele>
      </trkpt>
      <trkpt lat="45.78265" lon="14.76464">
        <ele>405.35</ele>
      </trkpt>
      <trkpt lat="45.78265" lon="14.76454">
        <ele>404.66</ele>
      </trkpt>
      <trkpt lat="45.78268" lon="14.76436">
        <ele>404.29</ele>
      </trkpt>
      <trkpt lat="45.78286" lon="14.76401">
        <ele>404.42</ele>
      </trkpt>
      <trkpt lat="45.78347" lon="14.76318">
        <ele>400.17</ele>
      </trkpt>
      <trkpt lat="45.78351" lon="14.76315">
        <ele>400.1</ele>
      </trkpt>
      <trkpt lat="45.78379" lon="14.76286">
        <ele>403.63</ele>
      </trkpt>
      <trkpt lat="45.78406" lon="14.76262">
        <ele>402.59</ele>
      </trkpt>
      <trkpt lat="45.78335" lon="14.76192">
        <ele>405.07</ele>
      </trkpt>
      <trkpt lat="45.78315" lon="14.76148">
        <ele>392.2</ele>
      </trkpt>
      <trkpt lat="45.78311" lon="14.76106">
        <ele>397.12</ele>
      </trkpt>
      <trkpt lat="45.78261" lon="14.75995">
        <ele>459.69</ele>
      </trkpt>
      <trkpt lat="45.78242" lon="14.75977">
        <ele>470.04</ele>
      </trkpt>
      <trkpt lat="45.78242" lon="14.75976">
        <ele>470.19</ele>
      </trkpt>
      <trkpt lat="45.78228" lon="14.75963">
        <ele>476.15</ele>
      </trkpt>
      <trkpt lat="45.78195" lon="14.75955">
        <ele>499.21</ele>
      </trkpt>
      <trkpt lat="45.78169" lon="14.75897">
        <ele>516.77</ele>
      </trkpt>
      <trkpt lat="45.78147" lon="14.75874">
        <ele>528.09</ele>
      </trkpt>
      <trkpt lat="45.78146" lon="14.75875">
        <ele>528.08</ele>
      </trkpt>
      <trkpt lat="45.78147" lon="14.75873">
        <ele>528.36</ele>
      </trkpt>
      <trkpt lat="45.78136" lon="14.7586">
        <ele>534.8</ele>
      </trkpt>
      <trkpt lat="45.78122" lon="14.75807">
        <ele>553.36</ele>
      </trkpt>
      <trkpt lat="45.78123" lon="14.75752">
        <ele>577.57</ele>
      </trkpt>
      <trkpt lat="45.78138" lon="14.75678">
        <ele>588.43</ele>
      </trkpt>
      <trkpt lat="45.78134" lon="14.75654">
        <ele>592.08</ele>
      </trkpt>
      <trkpt lat="45.78132" lon="14.75655">
        <ele>592.03</ele>
      </trkpt>
      <trkpt lat="45.78133" lon="14.75654">
        <ele>592.13</ele>
      </trkpt>
      <trkpt lat="45.78113" lon="14.75544">
        <ele>626.94</ele>
      </trkpt>
      <trkpt lat="45.78103" lon="14.75489">
        <ele>642.24</ele>
      </trkpt>
      <trkpt lat="45.78102" lon="14.75464">
        <ele>649.86</ele>
      </trkpt>
      <trkpt lat="45.781" lon="14.75466">
        <ele>649.15</ele>
      </trkpt>
      <trkpt lat="45.7808" lon="14.754">
        <ele>669.8</ele>
      </trkpt>
      <trkpt lat="45.78087" lon="14.75325">
        <ele>684.63</ele>
      </trkpt>
      <trkpt lat="45.78091" lon="14.75239">
        <ele>706.17</ele>
      </trkpt>
      <trkpt lat="45.78086" lon="14.75188">
        <ele>717.43</ele>
      </trkpt>
      <trkpt lat="45.78067" lon="14.75115">
        <ele>735.74</ele>
      </trkpt>
      <trkpt lat="45.78067" lon="14.75115">
        <ele>735.74</ele>
      </trkpt>
      <trkpt lat="45.78055" lon="14.75065">
        <ele>747.6</ele>
      </trkpt>
      <trkpt lat="45.78025" lon="14.74971">
        <ele>770.19</ele>
      </trkpt>
      <trkpt lat="45.78024" lon="14.74972">
        <ele>770.15</ele>
      </trkpt>
      <trkpt lat="45.77976" lon="14.74843">
        <ele>800.87</ele>
      </trkpt>
      <trkpt lat="45.77869" lon="14.7474">
        <ele>829.0</ele>
      </trkpt>
      <trkpt lat="45.77671" lon="14.74796">
        <ele>925.8</ele>
      </trkpt>
      <trkpt lat="45.77647" lon="14.74857">
        <ele>937.27</ele>
      </trkpt>
      <trkpt lat="45.77638" lon="14.74868">
        <ele>937.48</ele>
      </trkpt>
      <trkpt lat="45.77644" lon="14.74889">
        <ele>928.87</ele>
      </trkpt>
      <trkpt lat="45.77638" lon="14.74868">
        <ele>937.48</ele>
      </trkpt>
      <trkpt lat="45.77619" lon="14.7485">
        <ele>938.54</ele>
      </trkpt>
      <trkpt lat="45.77598" lon="14.74826">
        <ele>943.92</ele>
      </trkpt>
      <trkpt lat="45.77623" lon="14.74786">
        <ele>939.25</ele>
      </trkpt>
      <trkpt lat="45.77636" lon="14.74756">
        <ele>935.99</ele>
      </trkpt>
      <trkpt lat="45.77628" lon="14.74727">
        <ele>938.19</ele>
      </trkpt>
      <trkpt lat="45.77643" lon="14.74706">
        <ele>928.96</ele>
      </trkpt>
      <trkpt lat="45.77638" lon="14.74682">
        <ele>929.67</ele>
      </trkpt>
      <trkpt lat="45.77649" lon="14.74662">
        <ele>919.8</ele>
      </trkpt>
      <trkpt lat="45.77642" lon="14.74635">
        <ele>914.82</ele>
      </trkpt>
      <trkpt lat="45.77657" lon="14.74591">
        <ele>899.76</ele>
      </trkpt>
      <trkpt lat="45.7765" lon="14.74577">
        <ele>898.28</ele>
      </trkpt>
      <trkpt lat="45.7766" lon="14.74558">
        <ele>891.49</ele>
      </trkpt>
      <trkpt lat="45.7765" lon="14.74546">
        <ele>891.74</ele>
      </trkpt>
      <trkpt lat="45.77669" lon="14.74512">
        <ele>871.99</ele>
      </trkpt>
      <trkpt lat="45.77644" lon="14.74466">
        <ele>870.9</ele>
      </trkpt>
      <trkpt lat="45.77688" lon="14.74492">
        <ele>856.76</ele>
      </trkpt>
      <trkpt lat="45.77722" lon="14.74507">
        <ele>854.3</ele>
      </trkpt>
      <trkpt lat="45.77755" lon="14.74495">
        <ele>839.07</ele>
      </trkpt>
      <trkpt lat="45.77779" lon="14.74444">
        <ele>823.35</ele>
      </trkpt>
      <trkpt lat="45.77785" lon="14.74413">
        <ele>827.27</ele>
      </trkpt>
      <trkpt lat="45.77808" lon="14.74468">
        <ele>824.45</ele>
      </trkpt>
      <trkpt lat="45.778" lon="14.74483">
        <ele>823.81</ele>
      </trkpt>
      <trkpt lat="45.77805" lon="14.74512">
        <ele>824.25</ele>
      </trkpt>
      <trkpt lat="45.77832" lon="14.74523">
        <ele>821.93</ele>
      </trkpt>
      <trkpt lat="45.77851" lon="14.74557">
        <ele>816.62</ele>
      </trkpt>
      <trkpt lat="45.77864" lon="14.74561">
        <ele>817.14</ele>
      </trkpt>
      <trkpt lat="45.77884" lon="14.74557">
        <ele>817.91</ele>
      </trkpt>
      <trkpt lat="45.7794" lon="14.74507">
        <ele>826.26</ele>
      </trkpt>
      <trkpt lat="45.77962" lon="14.74472">
        <ele>832.42</ele>
      </trkpt>
      <trkpt lat="45.77959" lon="14.74408">
        <ele>829.75</ele>
      </trkpt>
      <trkpt lat="45.77972" lon="14.7438">
        <ele>828.36</ele>
      </trkpt>
      <trkpt lat="45.77965" lon="14.74303">
        <ele>829.18</ele>
      </trkpt>
      <trkpt lat="45.77958" lon="14.7428">
        <ele>827.13</ele>
      </trkpt>
      <trkpt lat="45.77964" lon="14.74262">
        <ele>828.33</ele>
      </trkpt>
      <trkpt lat="45.77978" lon="14.74248">
        <ele>829.33</ele>
      </trkpt>
      <trkpt lat="45.78028" lon="14.74223">
        <ele>838.94</ele>
      </trkpt>
      <trkpt lat="45.78053" lon="14.74228">
        <ele>834.59</ele>
      </trkpt>
      <trkpt lat="45.78081" lon="14.74212">
        <ele>828.87</ele>
      </trkpt>
      <trkpt lat="45.78108" lon="14.74205">
        <ele>824.64</ele>
      </trkpt>
      <trkpt lat="45.78153" lon="14.74155">
        <ele>825.59</ele>
      </trkpt>
      <trkpt lat="45.78179" lon="14.74147">
        <ele>823.32</ele>
      </trkpt>
      <trkpt lat="45.782" lon="14.74125">
        <ele>826.3</ele>
      </trkpt>
      <trkpt lat="45.78206" lon="14.74095">
        <ele>831.25</ele>
      </trkpt>
      <trkpt lat="45.78203" lon="14.74047">
        <ele>838.56</ele>
      </trkpt>
      <trkpt lat="45.78198" lon="14.74045">
        <ele>838.08</ele>
      </trkpt>
      <trkpt lat="45.78207" lon="14.74011">
        <ele>843.43</ele>
      </trkpt>
      <trkpt lat="45.78212" lon="14.73997">
        <ele>843.76</ele>
      </trkpt>
      <trkpt lat="45.78251" lon="14.7396">
        <ele>848.05</ele>
      </trkpt>
      <trkpt lat="45.78267" lon="14.73918">
        <ele>859.24</ele>
      </trkpt>
      <trkpt lat="45.78271" lon="14.73891">
        <ele>866.45</ele>
      </trkpt>
      <trkpt lat="45.78289" lon="14.73868">
        <ele>870.2</ele>
      </trkpt>
      <trkpt lat="45.78296" lon="14.73835">
        <ele>878.19</ele>
      </trkpt>
      <trkpt lat="45.78323" lon="14.73792">
        <ele>874.82</ele>
      </trkpt>
      <trkpt lat="45.78323" lon="14.73736">
        <ele>873.61</ele>
      </trkpt>
      <trkpt lat="45.78316" lon="14.73706">
        <ele>874.64</ele>
      </trkpt>
      <trkpt lat="45.78331" lon="14.73659">
        <ele>874.29</ele>
      </trkpt>
      <trkpt lat="45.7834" lon="14.73653">
        <ele>871.48</ele>
      </trkpt>
      <trkpt lat="45.78344" lon="14.73629">
        <ele>871.28</ele>
      </trkpt>
      <trkpt lat="45.78361" lon="14.73595">
        <ele>865.63</ele>
      </trkpt>
      <trkpt lat="45.78368" lon="14.73531">
        <ele>866.57</ele>
      </trkpt>
      <trkpt lat="45.78352" lon="14.73458">
        <ele>868.4</ele>
      </trkpt>
      <trkpt lat="45.78365" lon="14.73355">
        <ele>860.85</ele>
      </trkpt>
      <trkpt lat="45.78362" lon="14.73298">
        <ele>860.78</ele>
      </trkpt>
      <trkpt lat="45.78388" lon="14.73191">
        <ele>859.38</ele>
      </trkpt>
      <trkpt lat="45.78391" lon="14.73107">
        <ele>865.0</ele>
      </trkpt>
      <trkpt lat="45.78394" lon="14.73023">
        <ele>846.99</ele>
      </trkpt>
      <trkpt lat="45.784" lon="14.72975">
        <ele>854.22</ele>
      </trkpt>
      <trkpt lat="45.78455" lon="14.72969">
        <ele>864.25</ele>
      </trkpt>
      <trkpt lat="45.78495" lon="14.72985">
        <ele>856.67</ele>
      </trkpt>
      <trkpt lat="45.78537" lon="14.72984">
        <ele>843.57</ele>
      </trkpt>
      <trkpt lat="45.78563" lon="14.72972">
        <ele>838.7</ele>
      </trkpt>
      <trkpt lat="45.78599" lon="14.72933">
        <ele>835.96</ele>
      </trkpt>
      <trkpt lat="45.78638" lon="14.7291">
        <ele>833.8</ele>
      </trkpt>
      <trkpt lat="45.78642" lon="14.7291">
        <ele>833.53</ele>
      </trkpt>
      <trkpt lat="45.78654" lon="14.72908">
        <ele>833.75</ele>
      </trkpt>
      <trkpt lat="45.78666" lon="14.72907">
        <ele>833.47</ele>
      </trkpt>
      <trkpt lat="45.78672" lon="14.72907">
        <ele>832.77</ele>
      </trkpt>
      <trkpt lat="45.78691" lon="14.72904">
        <ele>830.2</ele>
      </trkpt>
      <trkpt lat="45.78708" lon="14.72879">
        <ele>824.41</ele>
      </trkpt>
      <trkpt lat="45.78733" lon="14.7286">
        <ele>821.32</ele>
      </trkpt>
      <trkpt lat="45.7875" lon="14.72853">
        <ele>822.71</ele>
      </trkpt>
      <trkpt lat="45.78766" lon="14.72855">
        <ele>821.56</ele>
      </trkpt>
      <trkpt lat="45.78778" lon="14.72851">
        <ele>821.14</ele>
      </trkpt>
      <trkpt lat="45.78799" lon="14.72838">
        <ele>824.29</ele>
      </trkpt>
      <trkpt lat="45.78806" lon="14.72839">
        <ele>824.97</ele>
      </trkpt>
      <trkpt lat="45.78847" lon="14.72794">
        <ele>811.13</ele>
      </trkpt>
      <trkpt lat="45.78913" lon="14.72739">
        <ele>805.86</ele>
      </trkpt>
      <trkpt lat="45.78979" lon="14.72706">
        <ele>813.44</ele>
      </trkpt>
      <trkpt lat="45.79011" lon="14.7267">
        <ele>811.73</ele>
      </trkpt>
      <trkpt lat="45.79042" lon="14.72656">
        <ele>818.62</ele>
      </trkpt>
      <trkpt lat="45.79061" lon="14.72665">
        <ele>824.47</ele>
      </trkpt>
      <trkpt lat="45.79101" lon="14.72725">
        <ele>824.76</ele>
      </trkpt>
      <trkpt lat="45.79124" lon="14.7275">
        <ele>825.86</ele>
      </trkpt>
      <trkpt lat="45.79143" lon="14.72761">
        <ele>827.23</ele>
      </trkpt>
      <trkpt lat="45.79158" lon="14.72763">
        <ele>831.21</ele>
      </trkpt>
      <trkpt lat="45.79197" lon="14.72745">
        <ele>833.13</ele>
      </trkpt>
      <trkpt lat="45.7922" lon="14.72745">
        <ele>831.1</ele>
      </trkpt>
      <trkpt lat="45.79278" lon="14.72762">
        <ele>822.13</ele>
      </trkpt>
      <trkpt lat="45.79319" lon="14.72763">
        <ele>820.3</ele>
      </trkpt>
      <trkpt lat="45.79319" lon="14.72765">
        <ele>819.66</ele>
      </trkpt>
      <trkpt lat="45.79359" lon="14.72719">
        <ele>837.12</ele>
      </trkpt>
      <trkpt lat="45.79375" lon="14.7271">
        <ele>841.62</ele>
      </trkpt>
      <trkpt lat="45.79385" lon="14.72684">
        <ele>850.81</ele>
      </trkpt>
      <trkpt lat="45.79414" lon="14.72649">
        <ele>856.77</ele>
      </trkpt>
      <trkpt lat="45.79461" lon="14.72626">
        <ele>859.48</ele>
      </trkpt>
      <trkpt lat="45.79498" lon="14.7259">
        <ele>867.36</ele>
      </trkpt>
      <trkpt lat="45.7952" lon="14.72551">
        <ele>861.38</ele>
      </trkpt>
      <trkpt lat="45.79526" lon="14.72488">
        <ele>861.66</ele>
      </trkpt>
      <trkpt lat="45.79522" lon="14.72402">
        <ele>868.84</ele>
      </trkpt>
      <trkpt lat="45.79527" lon="14.72333">
        <ele>878.24</ele>
      </trkpt>
      <trkpt lat="45.7954" lon="14.7231">
        <ele>862.42</ele>
      </trkpt>
      <trkpt lat="45.79552" lon="14.72224">
        <ele>846.19</ele>
      </trkpt>
      <trkpt lat="45.79576" lon="14.72176">
        <ele>838.9</ele>
      </trkpt>
      <trkpt lat="45.79574" lon="14.72179">
        <ele>839.64</ele>
      </trkpt>
      <trkpt lat="45.79583" lon="14.72169">
        <ele>835.79</ele>
      </trkpt>
      <trkpt lat="45.7959" lon="14.72148">
        <ele>834.48</ele>
      </trkpt>
      <trkpt lat="45.79592" lon="14.72154">
        <ele>831.87</ele>
      </trkpt>
      <trkpt lat="45.79599" lon="14.72142">
        <ele>829.1</ele>
      </trkpt>
      <trkpt lat="45.79627" lon="14.72026">
        <ele>824.61</ele>
      </trkpt>
      <trkpt lat="45.79648" lon="14.71982">
        <ele>814.26</ele>
      </trkpt>
      <trkpt lat="45.79673" lon="14.71957">
        <ele>808.88</ele>
      </trkpt>
      <trkpt lat="45.79706" lon="14.71911">
        <ele>794.37</ele>
      </trkpt>
      <trkpt lat="45.79715" lon="14.71862">
        <ele>798.4</ele>
      </trkpt>
      <trkpt lat="45.79712" lon="14.71826">
        <ele>803.29</ele>
      </trkpt>
      <trkpt lat="45.7973" lon="14.71818">
        <ele>806.45</ele>
      </trkpt>
      <trkpt lat="45.79755" lon="14.7176">
        <ele>818.32</ele>
      </trkpt>
      <trkpt lat="45.79767" lon="14.71752">
        <ele>820.21</ele>
      </trkpt>
      <trkpt lat="45.7978" lon="14.71751">
        <ele>820.7</ele>
      </trkpt>
      <trkpt lat="45.79783" lon="14.71733">
        <ele>826.59</ele>
      </trkpt>
      <trkpt lat="45.79793" lon="14.71732">
        <ele>825.87</ele>
      </trkpt>
      <trkpt lat="45.79803" lon="14.71718">
        <ele>827.71</ele>
      </trkpt>
      <trkpt lat="45.79822" lon="14.71706">
        <ele>824.72</ele>
      </trkpt>
      <trkpt lat="45.79824" lon="14.717">
        <ele>825.01</ele>
      </trkpt>
      <trkpt lat="45.79834" lon="14.71674">
        <ele>824.57</ele>
      </trkpt>
      <trkpt lat="45.79845" lon="14.71669">
        <ele>822.01</ele>
      </trkpt>
      <trkpt lat="45.79842" lon="14.71648">
        <ele>821.35</ele>
      </trkpt>
      <trkpt lat="45.79851" lon="14.71614">
        <ele>814.55</ele>
      </trkpt>
      <trkpt lat="45.79849" lon="14.7159">
        <ele>813.05</ele>
      </trkpt>
      <trkpt lat="45.79894" lon="14.71528">
        <ele>795.71</ele>
      </trkpt>
      <trkpt lat="45.79882" lon="14.71494">
        <ele>797.38</ele>
      </trkpt>
      <trkpt lat="45.79882" lon="14.715">
        <ele>797.98</ele>
      </trkpt>
      <trkpt lat="45.79885" lon="14.7149">
        <ele>795.65</ele>
      </trkpt>
      <trkpt lat="45.79893" lon="14.7144">
        <ele>792.3</ele>
      </trkpt>
      <trkpt lat="45.79902" lon="14.71451">
        <ele>790.27</ele>
      </trkpt>
      <trkpt lat="45.79908" lon="14.71447">
        <ele>788.97</ele>
      </trkpt>
      <trkpt lat="45.79917" lon="14.71455">
        <ele>787.71</ele>
      </trkpt>
      <trkpt lat="45.79927" lon="14.7145">
        <ele>785.91</ele>
      </trkpt>
      <trkpt lat="45.79933" lon="14.71453">
        <ele>785.26</ele>
      </trkpt>
      <trkpt lat="45.79942" lon="14.71449">
        <ele>783.68</ele>
      </trkpt>
      <trkpt lat="45.79948" lon="14.71429">
        <ele>783.77</ele>
      </trkpt>
      <trkpt lat="45.79971" lon="14.71423">
        <ele>781.37</ele>
      </trkpt>
      <trkpt lat="45.79981" lon="14.71428">
        <ele>780.21</ele>
      </trkpt>
      <trkpt lat="45.79994" lon="14.71413">
        <ele>777.15</ele>
      </trkpt>
      <trkpt lat="45.79998" lon="14.714">
        <ele>776.87</ele>
      </trkpt>
      <trkpt lat="45.80022" lon="14.71382">
        <ele>776.7</ele>
      </trkpt>
      <trkpt lat="45.80028" lon="14.7136">
        <ele>777.87</ele>
      </trkpt>
      <trkpt lat="45.80027" lon="14.71292">
        <ele>774.24</ele>
      </trkpt>
      <trkpt lat="45.80038" lon="14.71292">
        <ele>772.9</ele>
      </trkpt>
      <trkpt lat="45.80047" lon="14.71266">
        <ele>771.89</ele>
      </trkpt>
      <trkpt lat="45.80062" lon="14.71245">
        <ele>770.68</ele>
      </trkpt>
      <trkpt lat="45.80062" lon="14.71224">
        <ele>772.54</ele>
      </trkpt>
      <trkpt lat="45.80055" lon="14.71199">
        <ele>776.23</ele>
      </trkpt>
      <trkpt lat="45.80067" lon="14.71124">
        <ele>781.79</ele>
      </trkpt>
      <trkpt lat="45.80072" lon="14.71101">
        <ele>781.82</ele>
      </trkpt>
      <trkpt lat="45.80089" lon="14.7107">
        <ele>784.27</ele>
      </trkpt>
      <trkpt lat="45.80102" lon="14.71062">
        <ele>787.54</ele>
      </trkpt>
      <trkpt lat="45.80109" lon="14.71042">
        <ele>787.38</ele>
      </trkpt>
      <trkpt lat="45.80133" lon="14.71026">
        <ele>782.88</ele>
      </trkpt>
      <trkpt lat="45.80153" lon="14.71027">
        <ele>783.09</ele>
      </trkpt>
      <trkpt lat="45.80185" lon="14.7099">
        <ele>794.34</ele>
      </trkpt>
      <trkpt lat="45.80201" lon="14.71003">
        <ele>796.61</ele>
      </trkpt>
      <trkpt lat="45.80208" lon="14.71002">
        <ele>798.04</ele>
      </trkpt>
      <trkpt lat="45.80215" lon="14.70997">
        <ele>800.51</ele>
      </trkpt>
      <trkpt lat="45.80221" lon="14.70969">
        <ele>809.38</ele>
      </trkpt>
      <trkpt lat="45.80248" lon="14.70961">
        <ele>819.04</ele>
      </trkpt>
      <trkpt lat="45.80265" lon="14.70943">
        <ele>824.2</ele>
      </trkpt>
      <trkpt lat="45.80278" lon="14.70938">
        <ele>824.19</ele>
      </trkpt>
      <trkpt lat="45.80291" lon="14.70912">
        <ele>832.46</ele>
      </trkpt>
      <trkpt lat="45.80305" lon="14.70901">
        <ele>838.43</ele>
      </trkpt>
      <trkpt lat="45.80324" lon="14.70843">
        <ele>846.06</ele>
      </trkpt>
      <trkpt lat="45.80352" lon="14.7081">
        <ele>852.05</ele>
      </trkpt>
      <trkpt lat="45.80422" lon="14.70763">
        <ele>851.8</ele>
      </trkpt>
      <trkpt lat="45.80471" lon="14.70782">
        <ele>851.12</ele>
      </trkpt>
      <trkpt lat="45.80513" lon="14.70756">
        <ele>849.26</ele>
      </trkpt>
      <trkpt lat="45.80534" lon="14.70728">
        <ele>852.86</ele>
      </trkpt>
      <trkpt lat="45.80547" lon="14.70695">
        <ele>861.43</ele>
      </trkpt>
      <trkpt lat="45.80584" lon="14.70687">
        <ele>855.73</ele>
      </trkpt>
      <trkpt lat="45.80602" lon="14.7066">
        <ele>848.42</ele>
      </trkpt>
      <trkpt lat="45.80613" lon="14.70624">
        <ele>846.26</ele>
      </trkpt>
      <trkpt lat="45.80644" lon="14.70627">
        <ele>843.05</ele>
      </trkpt>
      <trkpt lat="45.80663" lon="14.7064">
        <ele>842.23</ele>
      </trkpt>
      <trkpt lat="45.80688" lon="14.70637">
        <ele>838.52</ele>
      </trkpt>
      <trkpt lat="45.80731" lon="14.70618">
        <ele>833.34</ele>
      </trkpt>
      <trkpt lat="45.80746" lon="14.7062">
        <ele>832.87</ele>
      </trkpt>
      <trkpt lat="45.8081" lon="14.70587">
        <ele>820.19</ele>
      </trkpt>
      <trkpt lat="45.80804" lon="14.70571">
        <ele>820.0</ele>
      </trkpt>
      <trkpt lat="45.80814" lon="14.70544">
        <ele>814.59</ele>
      </trkpt>
      <trkpt lat="45.80831" lon="14.70531">
        <ele>809.95</ele>
      </trkpt>
      <trkpt lat="45.80833" lon="14.70534">
        <ele>810.38</ele>
      </trkpt>
      <trkpt lat="45.80875" lon="14.70473">
        <ele>794.17</ele>
      </trkpt>
      <trkpt lat="45.80912" lon="14.70454">
        <ele>791.56</ele>
      </trkpt>
      <trkpt lat="45.80916" lon="14.70447">
        <ele>791.09</ele>
      </trkpt>
      <trkpt lat="45.80906" lon="14.7044">
        <ele>793.14</ele>
      </trkpt>
      <trkpt lat="45.80925" lon="14.70441">
        <ele>790.4</ele>
      </trkpt>
      <trkpt lat="45.80909" lon="14.70427">
        <ele>794.33</ele>
      </trkpt>
      <trkpt lat="45.80928" lon="14.70424">
        <ele>791.38</ele>
      </trkpt>
      <trkpt lat="45.80926" lon="14.70414">
        <ele>793.28</ele>
      </trkpt>
      <trkpt lat="45.80933" lon="14.7041">
        <ele>792.91</ele>
      </trkpt>
      <trkpt lat="45.80929" lon="14.70399">
        <ele>797.51</ele>
      </trkpt>
      <trkpt lat="45.80954" lon="14.70379">
        <ele>796.18</ele>
      </trkpt>
      <trkpt lat="45.80951" lon="14.70366">
        <ele>801.73</ele>
      </trkpt>
      <trkpt lat="45.80969" lon="14.70355">
        <ele>798.47</ele>
      </trkpt>
      <trkpt lat="45.80985" lon="14.70316">
        <ele>806.01</ele>
      </trkpt>
      <trkpt lat="45.81005" lon="14.70314">
        <ele>805.66</ele>
      </trkpt>
      <trkpt lat="45.81015" lon="14.70286">
        <ele>806.41</ele>
      </trkpt>
      <trkpt lat="45.81025" lon="14.70279">
        <ele>805.35</ele>
      </trkpt>
      <trkpt lat="45.81027" lon="14.70263">
        <ele>805.14</ele>
      </trkpt>
      <trkpt lat="45.81039" lon="14.7026">
        <ele>804.85</ele>
      </trkpt>
      <trkpt lat="45.81051" lon="14.70249">
        <ele>805.04</ele>
      </trkpt>
      <trkpt lat="45.81061" lon="14.70237">
        <ele>804.12</ele>
      </trkpt>
      <trkpt lat="45.81077" lon="14.70223">
        <ele>799.11</ele>
      </trkpt>
      <trkpt lat="45.81085" lon="14.70208">
        <ele>793.21</ele>
      </trkpt>
      <trkpt lat="45.8109" lon="14.70156">
        <ele>785.39</ele>
      </trkpt>
      <trkpt lat="45.81083" lon="14.70131">
        <ele>783.78</ele>
      </trkpt>
      <trkpt lat="45.81086" lon="14.7013">
        <ele>783.29</ele>
      </trkpt>
      <trkpt lat="45.81118" lon="14.70082">
        <ele>780.89</ele>
      </trkpt>
      <trkpt lat="45.81136" lon="14.70073">
        <ele>778.3</ele>
      </trkpt>
      <trkpt lat="45.81175" lon="14.7003">
        <ele>778.81</ele>
      </trkpt>
      <trkpt lat="45.81195" lon="14.70028">
        <ele>776.98</ele>
      </trkpt>
      <trkpt lat="45.81227" lon="14.69999">
        <ele>781.23</ele>
      </trkpt>
      <trkpt lat="45.81251" lon="14.69964">
        <ele>786.82</ele>
      </trkpt>
      <trkpt lat="45.81263" lon="14.69926">
        <ele>791.22</ele>
      </trkpt>
      <trkpt lat="45.81276" lon="14.69908">
        <ele>789.5</ele>
      </trkpt>
      <trkpt lat="45.81284" lon="14.69911">
        <ele>787.24</ele>
      </trkpt>
      <trkpt lat="45.8129" lon="14.6992">
        <ele>784.56</ele>
      </trkpt>
      <trkpt lat="45.813" lon="14.69906">
        <ele>785.49</ele>
      </trkpt>
      <trkpt lat="45.8131" lon="14.69914">
        <ele>783.54</ele>
      </trkpt>
      <trkpt lat="45.81329" lon="14.69917">
        <ele>783.79</ele>
      </trkpt>
      <trkpt lat="45.81339" lon="14.69893">
        <ele>788.77</ele>
      </trkpt>
      <trkpt lat="45.81388" lon="14.69834">
        <ele>815.59</ele>
      </trkpt>
      <trkpt lat="45.81414" lon="14.69787">
        <ele>833.16</ele>
      </trkpt>
      <trkpt lat="45.81426" lon="14.69751">
        <ele>843.76</ele>
      </trkpt>
      <trkpt lat="45.8144" lon="14.69725">
        <ele>852.76</ele>
      </trkpt>
      <trkpt lat="45.81442" lon="14.69684">
        <ele>862.93</ele>
      </trkpt>
      <trkpt lat="45.8147" lon="14.69581">
        <ele>870.25</ele>
      </trkpt>
      <trkpt lat="45.81473" lon="14.6957">
        <ele>870.05</ele>
      </trkpt>
      <trkpt lat="45.81458" lon="14.69553">
        <ele>863.1</ele>
      </trkpt>
      <trkpt lat="45.81452" lon="14.69551">
        <ele>860.51</ele>
      </trkpt>
      <trkpt lat="45.81443" lon="14.69557">
        <ele>859.19</ele>
      </trkpt>
      <trkpt lat="45.8142" lon="14.69556">
        <ele>858.1</ele>
      </trkpt>
      <trkpt lat="45.81398" lon="14.69541">
        <ele>859.5</ele>
      </trkpt>
      <trkpt lat="45.81386" lon="14.6954">
        <ele>856.5</ele>
      </trkpt>
      <trkpt lat="45.81305" lon="14.6956">
        <ele>835.2</ele>
      </trkpt>
      <trkpt lat="45.81303" lon="14.6956">
        <ele>834.75</ele>
      </trkpt>
      <trkpt lat="45.81273" lon="14.69579">
        <ele>828.76</ele>
      </trkpt>
      <trkpt lat="45.81267" lon="14.69582">
        <ele>827.59</ele>
      </trkpt>
      <trkpt lat="45.81235" lon="14.69593">
        <ele>819.17</ele>
      </trkpt>
      <trkpt lat="45.81216" lon="14.69617">
        <ele>813.83</ele>
      </trkpt>
      <trkpt lat="45.81213" lon="14.69629">
        <ele>812.71</ele>
      </trkpt>
      <trkpt lat="45.81207" lon="14.69646">
        <ele>812.72</ele>
      </trkpt>
      <trkpt lat="45.812" lon="14.69655">
        <ele>813.04</ele>
      </trkpt>
      <trkpt lat="45.81156" lon="14.6967">
        <ele>816.23</ele>
      </trkpt>
      <trkpt lat="45.81094" lon="14.69752">
        <ele>814.16</ele>
      </trkpt>
      <trkpt lat="45.81071" lon="14.69759">
        <ele>814.69</ele>
      </trkpt>
      <trkpt lat="45.8106" lon="14.69756">
        <ele>815.87</ele>
      </trkpt>
      <trkpt lat="45.81045" lon="14.69745">
        <ele>817.54</ele>
      </trkpt>
      <trkpt lat="45.81012" lon="14.69725">
        <ele>815.86</ele>
      </trkpt>
      <trkpt lat="45.80988" lon="14.69713">
        <ele>807.52</ele>
      </trkpt>
      <trkpt lat="45.8098" lon="14.69718">
        <ele>803.2</ele>
      </trkpt>
      <trkpt lat="45.80965" lon="14.69725">
        <ele>796.96</ele>
      </trkpt>
      <trkpt lat="45.80952" lon="14.69733">
        <ele>793.59</ele>
      </trkpt>
      <trkpt lat="45.80956" lon="14.69705">
        <ele>795.27</ele>
      </trkpt>
      <trkpt lat="45.80953" lon="14.69682">
        <ele>795.61</ele>
      </trkpt>
      <trkpt lat="45.80947" lon="14.69665">
        <ele>795.45</ele>
      </trkpt>
      <trkpt lat="45.80939" lon="14.69648">
        <ele>794.47</ele>
      </trkpt>
      <trkpt lat="45.80918" lon="14.69624">
        <ele>788.73</ele>
      </trkpt>
      <trkpt lat="45.80867" lon="14.69606">
        <ele>776.51</ele>
      </trkpt>
      <trkpt lat="45.80847" lon="14.69588">
        <ele>769.35</ele>
      </trkpt>
      <trkpt lat="45.80823" lon="14.69551">
        <ele>762.23</ele>
      </trkpt>
      <trkpt lat="45.80805" lon="14.69533">
        <ele>756.7</ele>
      </trkpt>
      <trkpt lat="45.80797" lon="14.69513">
        <ele>755.19</ele>
      </trkpt>
      <trkpt lat="45.80762" lon="14.69465">
        <ele>748.05</ele>
      </trkpt>
      <trkpt lat="45.80731" lon="14.69436">
        <ele>745.03</ele>
      </trkpt>
      <trkpt lat="45.80719" lon="14.69422">
        <ele>744.97</ele>
      </trkpt>
      <trkpt lat="45.80709" lon="14.69407">
        <ele>746.02</ele>
      </trkpt>
      <trkpt lat="45.80639" lon="14.69361">
        <ele>746.01</ele>
      </trkpt>
      <trkpt lat="45.80588" lon="14.69335">
        <ele>730.66</ele>
      </trkpt>
      <trkpt lat="45.80552" lon="14.69325">
        <ele>720.53</ele>
      </trkpt>
      <trkpt lat="45.80468" lon="14.6926">
        <ele>712.26</ele>
      </trkpt>
      <trkpt lat="45.80377" lon="14.69224">
        <ele>719.17</ele>
      </trkpt>
      <trkpt lat="45.80361" lon="14.69224">
        <ele>714.1</ele>
      </trkpt>
      <trkpt lat="45.8031" lon="14.69249">
        <ele>702.58</ele>
      </trkpt>
      <trkpt lat="45.80264" lon="14.69242">
        <ele>694.24</ele>
      </trkpt>
      <trkpt lat="45.8026" lon="14.69241">
        <ele>693.29</ele>
      </trkpt>
      <trkpt lat="45.80224" lon="14.69251">
        <ele>683.58</ele>
      </trkpt>
      <trkpt lat="45.8021" lon="14.69254">
        <ele>681.15</ele>
      </trkpt>
      <trkpt lat="45.80206" lon="14.69254">
        <ele>680.45</ele>
      </trkpt>
      <trkpt lat="45.8018" lon="14.69278">
        <ele>677.9</ele>
      </trkpt>
      <trkpt lat="45.80142" lon="14.69331">
        <ele>673.61</ele>
      </trkpt>
      <trkpt lat="45.80089" lon="14.69365">
        <ele>672.63</ele>
      </trkpt>
      <trkpt lat="45.80081" lon="14.69364">
        <ele>673.55</ele>
      </trkpt>
      <trkpt lat="45.80088" lon="14.69399">
        <ele>676.22</ele>
      </trkpt>
      <trkpt lat="45.80096" lon="14.69428">
        <ele>676.6</ele>
      </trkpt>
      <trkpt lat="45.80106" lon="14.69461">
        <ele>675.7</ele>
      </trkpt>
      <trkpt lat="45.80103" lon="14.69477">
        <ele>676.05</ele>
      </trkpt>
      <trkpt lat="45.8009" lon="14.69584">
        <ele>678.47</ele>
      </trkpt>
      <trkpt lat="45.80069" lon="14.69627">
        <ele>678.22</ele>
      </trkpt>
      <trkpt lat="45.80026" lon="14.69668">
        <ele>680.2</ele>
      </trkpt>
      <trkpt lat="45.80009" lon="14.69706">
        <ele>678.71</ele>
      </trkpt>
      <trkpt lat="45.80001" lon="14.69748">
        <ele>674.32</ele>
      </trkpt>
      <trkpt lat="45.8" lon="14.69762">
        <ele>673.14</ele>
      </trkpt>
      <trkpt lat="45.79999" lon="14.69783">
        <ele>671.25</ele>
      </trkpt>
      <trkpt lat="45.79986" lon="14.6984">
        <ele>669.08</ele>
      </trkpt>
      <trkpt lat="45.79959" lon="14.69896">
        <ele>668.07</ele>
      </trkpt>
      <trkpt lat="45.7994" lon="14.6991">
        <ele>668.75</ele>
      </trkpt>
      <trkpt lat="45.79934" lon="14.69918">
        <ele>669.89</ele>
      </trkpt>
      <trkpt lat="45.79925" lon="14.69945">
        <ele>672.27</ele>
      </trkpt>
      <trkpt lat="45.79919" lon="14.70004">
        <ele>672.05</ele>
      </trkpt>
      <trkpt lat="45.79893" lon="14.70068">
        <ele>676.2</ele>
      </trkpt>
      <trkpt lat="45.7988" lon="14.70095">
        <ele>676.44</ele>
      </trkpt>
      <trkpt lat="45.79876" lon="14.701">
        <ele>675.29</ele>
      </trkpt>
      <trkpt lat="45.79867" lon="14.70111">
        <ele>672.7</ele>
      </trkpt>
      <trkpt lat="45.79847" lon="14.70143">
        <ele>671.53</ele>
      </trkpt>
      <trkpt lat="45.79835" lon="14.70147">
        <ele>669.06</ele>
      </trkpt>
      <trkpt lat="45.79787" lon="14.70176">
        <ele>659.55</ele>
      </trkpt>
      <trkpt lat="45.79771" lon="14.70249">
        <ele>659.45</ele>
      </trkpt>
      <trkpt lat="45.79741" lon="14.70264">
        <ele>660.5</ele>
      </trkpt>
      <trkpt lat="45.79724" lon="14.70292">
        <ele>660.0</ele>
      </trkpt>
      <trkpt lat="45.79693" lon="14.7031">
        <ele>662.25</ele>
      </trkpt>
      <trkpt lat="45.79643" lon="14.70418">
        <ele>666.69</ele>
      </trkpt>
      <trkpt lat="45.79627" lon="14.70436">
        <ele>662.01</ele>
      </trkpt>
      <trkpt lat="45.79591" lon="14.70434">
        <ele>656.76</ele>
      </trkpt>
      <trkpt lat="45.79556" lon="14.70454">
        <ele>651.11</ele>
      </trkpt>
      <trkpt lat="45.79473" lon="14.70439">
        <ele>650.28</ele>
      </trkpt>
      <trkpt lat="45.79416" lon="14.70461">
        <ele>644.6</ele>
      </trkpt>
      <trkpt lat="45.79337" lon="14.70437">
        <ele>639.87</ele>
      </trkpt>
      <trkpt lat="45.79304" lon="14.70435">
        <ele>638.34</ele>
      </trkpt>
      <trkpt lat="45.79259" lon="14.70468">
        <ele>630.01</ele>
      </trkpt>
      <trkpt lat="45.79251" lon="14.70444">
        <ele>632.05</ele>
      </trkpt>
      <trkpt lat="45.79239" lon="14.70424">
        <ele>637.75</ele>
      </trkpt>
      <trkpt lat="45.79219" lon="14.70415">
        <ele>646.02</ele>
      </trkpt>
      <trkpt lat="45.79159" lon="14.70406">
        <ele>643.49</ele>
      </trkpt>
      <trkpt lat="45.79118" lon="14.7041">
        <ele>639.63</ele>
      </trkpt>
      <trkpt lat="45.79084" lon="14.70432">
        <ele>634.69</ele>
      </trkpt>
      <trkpt lat="45.79064" lon="14.70459">
        <ele>633.91</ele>
      </trkpt>
      <trkpt lat="45.79026" lon="14.70487">
        <ele>635.53</ele>
      </trkpt>
      <trkpt lat="45.78905" lon="14.70444">
        <ele>637.98</ele>
      </trkpt>
      <trkpt lat="45.78867" lon="14.7045">
        <ele>638.52</ele>
      </trkpt>
      <trkpt lat="45.78837" lon="14.7044">
        <ele>637.4</ele>
      </trkpt>
      <trkpt lat="45.78794" lon="14.70409">
        <ele>628.16</ele>
      </trkpt>
      <trkpt lat="45.78764" lon="14.70398">
        <ele>622.15</ele>
      </trkpt>
      <trkpt lat="45.78742" lon="14.70419">
        <ele>622.27</ele>
      </trkpt>
      <trkpt lat="45.78622" lon="14.7031">
        <ele>610.01</ele>
      </trkpt>
      <trkpt lat="45.7851" lon="14.70227">
        <ele>609.63</ele>
      </trkpt>
      <trkpt lat="45.78476" lon="14.70217">
        <ele>609.49</ele>
      </trkpt>
      <trkpt lat="45.78421" lon="14.70222">
        <ele>615.21</ele>
      </trkpt>
      <trkpt lat="45.78374" lon="14.70233">
        <ele>613.55</ele>
      </trkpt>
      <trkpt lat="45.783" lon="14.70241">
        <ele>614.9</ele>
      </trkpt>
      <trkpt lat="45.78325" lon="14.70295">
        <ele>613.63</ele>
      </trkpt>
      <trkpt lat="45.78347" lon="14.70351">
        <ele>612.92</ele>
      </trkpt>
      <trkpt lat="45.78376" lon="14.7046">
        <ele>613.81</ele>
      </trkpt>
      <trkpt lat="45.78392" lon="14.70576">
        <ele>618.09</ele>
      </trkpt>
      <trkpt lat="45.78404" lon="14.70717">
        <ele>626.38</ele>
      </trkpt>
      <trkpt lat="45.78418" lon="14.70772">
        <ele>631.58</ele>
      </trkpt>
      <trkpt lat="45.78412" lon="14.70818">
        <ele>637.19</ele>
      </trkpt>
      <trkpt lat="45.78423" lon="14.70872">
        <ele>639.8</ele>
      </trkpt>
      <trkpt lat="45.78448" lon="14.70943">
        <ele>649.86</ele>
      </trkpt>
      <trkpt lat="45.78445" lon="14.71038">
        <ele>655.05</ele>
      </trkpt>
      <trkpt lat="45.78382" lon="14.71101">
        <ele>645.62</ele>
      </trkpt>
      <trkpt lat="45.78331" lon="14.71169">
        <ele>634.97</ele>
      </trkpt>
      <trkpt lat="45.78321" lon="14.71198">
        <ele>636.49</ele>
      </trkpt>
      <trkpt lat="45.78318" lon="14.71223">
        <ele>643.59</ele>
      </trkpt>
      <trkpt lat="45.78317" lon="14.71223">
        <ele>643.55</ele>
      </trkpt>
      <trkpt lat="45.78285" lon="14.71295">
        <ele>656.08</ele>
      </trkpt>
      <trkpt lat="45.7829" lon="14.71321">
        <ele>659.73</ele>
      </trkpt>
      <trkpt lat="45.78287" lon="14.71359">
        <ele>661.28</ele>
      </trkpt>
      <trkpt lat="45.78281" lon="14.71374">
        <ele>660.93</ele>
      </trkpt>
      <trkpt lat="45.78235" lon="14.71427">
        <ele>669.82</ele>
      </trkpt>
      <trkpt lat="45.78219" lon="14.71424">
        <ele>670.51</ele>
      </trkpt>
      <trkpt lat="45.78183" lon="14.71432">
        <ele>672.91</ele>
      </trkpt>
      <trkpt lat="45.78161" lon="14.71441">
        <ele>674.7</ele>
      </trkpt>
      <trkpt lat="45.78144" lon="14.71455">
        <ele>672.04</ele>
      </trkpt>
      <trkpt lat="45.7813" lon="14.71456">
        <ele>668.16</ele>
      </trkpt>
      <trkpt lat="45.78111" lon="14.7147">
        <ele>663.85</ele>
      </trkpt>
      <trkpt lat="45.78072" lon="14.71479">
        <ele>666.18</ele>
      </trkpt>
      <trkpt lat="45.78042" lon="14.71477">
        <ele>658.79</ele>
      </trkpt>
      <trkpt lat="45.78016" lon="14.71466">
        <ele>650.22</ele>
      </trkpt>
      <trkpt lat="45.77987" lon="14.71465">
        <ele>644.13</ele>
      </trkpt>
      <trkpt lat="45.77958" lon="14.71441">
        <ele>638.15</ele>
      </trkpt>
      <trkpt lat="45.77939" lon="14.71407">
        <ele>637.83</ele>
      </trkpt>
      <trkpt lat="45.77897" lon="14.71362">
        <ele>634.86</ele>
      </trkpt>
      <trkpt lat="45.77869" lon="14.71319">
        <ele>627.7</ele>
      </trkpt>
      <trkpt lat="45.77837" lon="14.71312">
        <ele>623.02</ele>
      </trkpt>
      <trkpt lat="45.77784" lon="14.71344">
        <ele>613.71</ele>
      </trkpt>
      <trkpt lat="45.77731" lon="14.71377">
        <ele>601.91</ele>
      </trkpt>
      <trkpt lat="45.77673" lon="14.71395">
        <ele>593.73</ele>
      </trkpt>
      <trkpt lat="45.77645" lon="14.71416">
        <ele>595.02</ele>
      </trkpt>
      <trkpt lat="45.77646" lon="14.71457">
        <ele>600.68</ele>
      </trkpt>
      <trkpt lat="45.77473" lon="14.71464">
        <ele>594.12</ele>
      </trkpt>
      <trkpt lat="45.77434" lon="14.71483">
        <ele>595.39</ele>
      </trkpt>
      <trkpt lat="45.77412" lon="14.71522">
        <ele>593.04</ele>
      </trkpt>
      <trkpt lat="45.77399" lon="14.71535">
        <ele>589.22</ele>
      </trkpt>
      <trkpt lat="45.77389" lon="14.71596">
        <ele>589.38</ele>
      </trkpt>
      <trkpt lat="45.77375" lon="14.71632">
        <ele>577.12</ele>
      </trkpt>
      <trkpt lat="45.77359" lon="14.71644">
        <ele>566.17</ele>
      </trkpt>
      <trkpt lat="45.77353" lon="14.71641">
        <ele>563.74</ele>
      </trkpt>
      <trkpt lat="45.77348" lon="14.71631">
        <ele>562.7</ele>
      </trkpt>
      <trkpt lat="45.77331" lon="14.71593">
        <ele>566.76</ele>
      </trkpt>
      <trkpt lat="45.77295" lon="14.71583">
        <ele>565.51</ele>
      </trkpt>
      <trkpt lat="45.77159" lon="14.71617">
        <ele>550.14</ele>
      </trkpt>
      <trkpt lat="45.77121" lon="14.71616">
        <ele>550.13</ele>
      </trkpt>
      <trkpt lat="45.77099" lon="14.71598">
        <ele>549.9</ele>
      </trkpt>
      <trkpt lat="45.77038" lon="14.71501">
        <ele>533.33</ele>
      </trkpt>
      <trkpt lat="45.76977" lon="14.71459">
        <ele>522.75</ele>
      </trkpt>
      <trkpt lat="45.76909" lon="14.71497">
        <ele>500.5</ele>
      </trkpt>
      <trkpt lat="45.7686" lon="14.71552">
        <ele>493.24</ele>
      </trkpt>
      <trkpt lat="45.7683" lon="14.71569">
        <ele>487.79</ele>
      </trkpt>
      <trkpt lat="45.7679" lon="14.71656">
        <ele>485.06</ele>
      </trkpt>
      <trkpt lat="45.76767" lon="14.71678">
        <ele>486.07</ele>
      </trkpt>
      <trkpt lat="45.76764" lon="14.7168">
        <ele>486.2</ele>
      </trkpt>
      <trkpt lat="45.76761" lon="14.71683">
        <ele>486.41</ele>
      </trkpt>
      <trkpt lat="45.76747" lon="14.71703">
        <ele>488.94</ele>
      </trkpt>
      <trkpt lat="45.76731" lon="14.71757">
        <ele>488.02</ele>
      </trkpt>
      <trkpt lat="45.76701" lon="14.71765">
        <ele>482.15</ele>
      </trkpt>
      <trkpt lat="45.76697" lon="14.71766">
        <ele>481.46</ele>
      </trkpt>
      <trkpt lat="45.76689" lon="14.71767">
        <ele>480.83</ele>
      </trkpt>
      <trkpt lat="45.76639" lon="14.71808">
        <ele>478.75</ele>
      </trkpt>
      <trkpt lat="45.76599" lon="14.7183">
        <ele>480.7</ele>
      </trkpt>
      <trkpt lat="45.76595" lon="14.71831">
        <ele>480.49</ele>
      </trkpt>
      <trkpt lat="45.76587" lon="14.71834">
        <ele>480.27</ele>
      </trkpt>
      <trkpt lat="45.76567" lon="14.71846">
        <ele>484.55</ele>
      </trkpt>
      <trkpt lat="45.76551" lon="14.71851">
        <ele>486.83</ele>
      </trkpt>
      <trkpt lat="45.76525" lon="14.71851">
        <ele>488.24</ele>
      </trkpt>
      <trkpt lat="45.76506" lon="14.7185">
        <ele>488.04</ele>
      </trkpt>
      <trkpt lat="45.7649" lon="14.71841">
        <ele>489.8</ele>
      </trkpt>
      <trkpt lat="45.76447" lon="14.7179">
        <ele>492.4</ele>
      </trkpt>
      <trkpt lat="45.76425" lon="14.71775">
        <ele>492.69</ele>
      </trkpt>
      <trkpt lat="45.76408" lon="14.71778">
        <ele>492.07</ele>
      </trkpt>
      <trkpt lat="45.76365" lon="14.71805">
        <ele>491.96</ele>
      </trkpt>
      <trkpt lat="45.76336" lon="14.71813">
        <ele>495.4</ele>
      </trkpt>
      <trkpt lat="45.76299" lon="14.71814">
        <ele>497.42</ele>
      </trkpt>
      <trkpt lat="45.76291" lon="14.7181">
        <ele>497.79</ele>
      </trkpt>
      <trkpt lat="45.76278" lon="14.71805">
        <ele>498.96</ele>
      </trkpt>
      <trkpt lat="45.76264" lon="14.71798">
        <ele>495.53</ele>
      </trkpt>
      <trkpt lat="45.76242" lon="14.71785">
        <ele>492.95</ele>
      </trkpt>
      <trkpt lat="45.76217" lon="14.71765">
        <ele>494.29</ele>
      </trkpt>
      <trkpt lat="45.76191" lon="14.71756">
        <ele>492.77</ele>
      </trkpt>
      <trkpt lat="45.76168" lon="14.71748">
        <ele>489.19</ele>
      </trkpt>
      <trkpt lat="45.76157" lon="14.71743">
        <ele>489.7</ele>
      </trkpt>
      <trkpt lat="45.76105" lon="14.71706">
        <ele>491.12</ele>
      </trkpt>
      <trkpt lat="45.76096" lon="14.71698">
        <ele>492.03</ele>
      </trkpt>
      <trkpt lat="45.76093" lon="14.71695">
        <ele>492.3</ele>
      </trkpt>
      <trkpt lat="45.76064" lon="14.71638">
        <ele>493.44</ele>
      </trkpt>
      <trkpt lat="45.76058" lon="14.71631">
        <ele>494.34</ele>
      </trkpt>
      <trkpt lat="45.76058" lon="14.7164">
        <ele>493.83</ele>
      </trkpt>
      <trkpt lat="45.76059" lon="14.7175">
        <ele>490.12</ele>
      </trkpt>
      <trkpt lat="45.7606" lon="14.71755">
        <ele>490.01</ele>
      </trkpt>
      <trkpt lat="45.76061" lon="14.7176">
        <ele>489.91</ele>
      </trkpt>
      <trkpt lat="45.76067" lon="14.71789">
        <ele>489.66</ele>
      </trkpt>
      <trkpt lat="45.76067" lon="14.71799">
        <ele>489.51</ele>
      </trkpt>
      <trkpt lat="45.76087" lon="14.71862">
        <ele>491.52</ele>
      </trkpt>
      <trkpt lat="45.76103" lon="14.7189">
        <ele>493.11</ele>
      </trkpt>
      <trkpt lat="45.76108" lon="14.71947">
        <ele>495.87</ele>
      </trkpt>
      <trkpt lat="45.76115" lon="14.71979">
        <ele>497.38</ele>
      </trkpt>
      <trkpt lat="45.76141" lon="14.72023">
        <ele>498.74</ele>
      </trkpt>
      <trkpt lat="45.76163" lon="14.72116">
        <ele>495.75</ele>
      </trkpt>
      <trkpt lat="45.76166" lon="14.72126">
        <ele>495.29</ele>
      </trkpt>
      <trkpt lat="45.76167" lon="14.72139">
        <ele>494.0</ele>
      </trkpt>
      <trkpt lat="45.76152" lon="14.72246">
        <ele>495.45</ele>
      </trkpt>
      <trkpt lat="45.76113" lon="14.72274">
        <ele>489.79</ele>
      </trkpt>
      <trkpt lat="45.76106" lon="14.72292">
        <ele>489.47</ele>
      </trkpt>
      <trkpt lat="45.76107" lon="14.72316">
        <ele>490.67</ele>
      </trkpt>
      <trkpt lat="45.7611" lon="14.72327">
        <ele>490.94</ele>
      </trkpt>
      <trkpt lat="45.76124" lon="14.72349">
        <ele>491.71</ele>
      </trkpt>
      <trkpt lat="45.76157" lon="14.72401">
        <ele>489.41</ele>
      </trkpt>
      <trkpt lat="45.76186" lon="14.72434">
        <ele>486.51</ele>
      </trkpt>
      <trkpt lat="45.76267" lon="14.72518">
        <ele>488.91</ele>
      </trkpt>
      <trkpt lat="45.76281" lon="14.72555">
        <ele>494.64</ele>
      </trkpt>
      <trkpt lat="45.76283" lon="14.72585">
        <ele>494.44</ele>
      </trkpt>
      <trkpt lat="45.76276" lon="14.72665">
        <ele>487.75</ele>
      </trkpt>
      <trkpt lat="45.76286" lon="14.72704">
        <ele>484.65</ele>
      </trkpt>
      <trkpt lat="45.7631" lon="14.72734">
        <ele>481.58</ele>
      </trkpt>
      <trkpt lat="45.76348" lon="14.72787">
        <ele>493.54</ele>
      </trkpt>
      <trkpt lat="45.76416" lon="14.72891">
        <ele>508.1</ele>
      </trkpt>
      <trkpt lat="45.76414" lon="14.7291">
        <ele>508.53</ele>
      </trkpt>
      <trkpt lat="45.76427" lon="14.72925">
        <ele>508.2</ele>
      </trkpt>
      <trkpt lat="45.76443" lon="14.72982">
        <ele>509.8</ele>
      </trkpt>
      <trkpt lat="45.76428" lon="14.72998">
        <ele>513.79</ele>
      </trkpt>
      <trkpt lat="45.76411" lon="14.72997">
        <ele>515.87</ele>
      </trkpt>
      <trkpt lat="45.76397" lon="14.73003">
        <ele>517.15</ele>
      </trkpt>
      <trkpt lat="45.76375" lon="14.72996">
        <ele>526.57</ele>
      </trkpt>
      <trkpt lat="45.76358" lon="14.73004">
        <ele>535.84</ele>
      </trkpt>
      <trkpt lat="45.76355" lon="14.73014">
        <ele>534.77</ele>
      </trkpt>
      <trkpt lat="45.76358" lon="14.73081">
        <ele>526.35</ele>
      </trkpt>
      <trkpt lat="45.76373" lon="14.73125">
        <ele>525.07</ele>
      </trkpt>
      <trkpt lat="45.7637" lon="14.73198">
        <ele>530.66</ele>
      </trkpt>
      <trkpt lat="45.76365" lon="14.73202">
        <ele>532.0</ele>
      </trkpt>
      <trkpt lat="45.7635" lon="14.73194">
        <ele>532.4</ele>
      </trkpt>
      <trkpt lat="45.7635" lon="14.732">
        <ele>532.84</ele>
      </trkpt>
      <trkpt lat="45.76312" lon="14.73207">
        <ele>536.18</ele>
      </trkpt>
      <trkpt lat="45.76279" lon="14.73221">
        <ele>539.0</ele>
      </trkpt>
      <trkpt lat="45.76239" lon="14.73206">
        <ele>528.82</ele>
      </trkpt>
      <trkpt lat="45.7621" lon="14.73209">
        <ele>523.67</ele>
      </trkpt>
      <trkpt lat="45.76192" lon="14.73197">
        <ele>520.44</ele>
      </trkpt>
      <trkpt lat="45.7619" lon="14.73242">
        <ele>521.64</ele>
      </trkpt>
      <trkpt lat="45.76179" lon="14.73466">
        <ele>535.03</ele>
      </trkpt>
      <trkpt lat="45.76181" lon="14.73478">
        <ele>536.64</ele>
      </trkpt>
      <trkpt lat="45.76185" lon="14.73484">
        <ele>538.14</ele>
      </trkpt>
      <trkpt lat="45.76188" lon="14.73488">
        <ele>539.11</ele>
      </trkpt>
      <trkpt lat="45.76204" lon="14.73503">
        <ele>543.61</ele>
      </trkpt>
      <trkpt lat="45.76202" lon="14.73537">
        <ele>549.41</ele>
      </trkpt>
      <trkpt lat="45.76201" lon="14.73568">
        <ele>556.66</ele>
      </trkpt>
      <trkpt lat="45.76162" lon="14.73627">
        <ele>564.45</ele>
      </trkpt>
      <trkpt lat="45.76118" lon="14.73721">
        <ele>580.26</ele>
      </trkpt>
      <trkpt lat="45.75974" lon="14.73901">
        <ele>588.0</ele>
      </trkpt>
      <trkpt lat="45.75948" lon="14.73974">
        <ele>586.38</ele>
      </trkpt>
      <trkpt lat="45.75876" lon="14.74087">
        <ele>584.63</ele>
      </trkpt>
      <trkpt lat="45.75858" lon="14.74121">
        <ele>593.81</ele>
      </trkpt>
      <trkpt lat="45.75884" lon="14.74109">
        <ele>589.24</ele>
      </trkpt>
      <trkpt lat="45.76057" lon="14.74132">
        <ele>611.04</ele>
      </trkpt>
      <trkpt lat="45.76191" lon="14.74167">
        <ele>625.55</ele>
      </trkpt>
      <trkpt lat="45.76209" lon="14.74171">
        <ele>627.35</ele>
      </trkpt>
      <trkpt lat="45.7622" lon="14.74183">
        <ele>628.03</ele>
      </trkpt>
      <trkpt lat="45.76245" lon="14.74188">
        <ele>632.6</ele>
      </trkpt>
      <trkpt lat="45.76284" lon="14.74207">
        <ele>634.23</ele>
      </trkpt>
      <trkpt lat="45.76299" lon="14.74214">
        <ele>635.71</ele>
      </trkpt>
      <trkpt lat="45.76308" lon="14.74226">
        <ele>638.68</ele>
      </trkpt>
      <trkpt lat="45.76324" lon="14.74272">
        <ele>653.79</ele>
      </trkpt>
      <trkpt lat="45.76333" lon="14.74286">
        <ele>658.07</ele>
      </trkpt>
      <trkpt lat="45.76334" lon="14.74281">
        <ele>656.87</ele>
      </trkpt>
      <trkpt lat="45.76337" lon="14.74273">
        <ele>654.16</ele>
      </trkpt>
      <trkpt lat="45.76343" lon="14.74263">
        <ele>650.89</ele>
      </trkpt>
      <trkpt lat="45.76363" lon="14.74197">
        <ele>648.01</ele>
      </trkpt>
      <trkpt lat="45.76407" lon="14.74096">
        <ele>639.77</ele>
      </trkpt>
      <trkpt lat="45.76407" lon="14.74092">
        <ele>639.0</ele>
      </trkpt>
      <trkpt lat="45.76418" lon="14.74085">
        <ele>637.84</ele>
      </trkpt>
      <trkpt lat="45.76474" lon="14.74047">
        <ele>654.12</ele>
      </trkpt>
      <trkpt lat="45.76553" lon="14.74021">
        <ele>659.3</ele>
      </trkpt>
      <trkpt lat="45.76699" lon="14.73936">
        <ele>674.78</ele>
      </trkpt>
      <trkpt lat="45.76883" lon="14.73819">
        <ele>678.32</ele>
      </trkpt>
      <trkpt lat="45.76907" lon="14.73798">
        <ele>679.89</ele>
      </trkpt>
      <trkpt lat="45.76987" lon="14.73695">
        <ele>694.0</ele>
      </trkpt>
      <trkpt lat="45.77025" lon="14.73665">
        <ele>704.18</ele>
      </trkpt>
      <trkpt lat="45.77076" lon="14.73657">
        <ele>706.83</ele>
      </trkpt>
      <trkpt lat="45.77103" lon="14.73674">
        <ele>709.92</ele>
      </trkpt>
      <trkpt lat="45.77152" lon="14.73717">
        <ele>712.12</ele>
      </trkpt>
      <trkpt lat="45.77196" lon="14.73723">
        <ele>711.72</ele>
      </trkpt>
      <trkpt lat="45.7721" lon="14.73732">
        <ele>709.59</ele>
      </trkpt>
      <trkpt lat="45.77218" lon="14.73721">
        <ele>707.77</ele>
      </trkpt>
      <trkpt lat="45.77267" lon="14.7368">
        <ele>706.7</ele>
      </trkpt>
      <trkpt lat="45.77289" lon="14.73654">
        <ele>714.72</ele>
      </trkpt>
      <trkpt lat="45.77292" lon="14.73649">
        <ele>716.05</ele>
      </trkpt>
      <trkpt lat="45.77289" lon="14.73644">
        <ele>715.71</ele>
      </trkpt>
      <trkpt lat="45.77253" lon="14.73607">
        <ele>718.44</ele>
      </trkpt>
      <trkpt lat="45.77213" lon="14.73509">
        <ele>705.97</ele>
      </trkpt>
      <trkpt lat="45.77202" lon="14.73494">
        <ele>703.8</ele>
      </trkpt>
      <trkpt lat="45.77157" lon="14.73488">
        <ele>696.61</ele>
      </trkpt>
      <trkpt lat="45.771" lon="14.73491">
        <ele>691.97</ele>
      </trkpt>
      <trkpt lat="45.77095" lon="14.73487">
        <ele>691.5</ele>
      </trkpt>
      <trkpt lat="45.7705" lon="14.73445">
        <ele>685.14</ele>
      </trkpt>
      <trkpt lat="45.77032" lon="14.7345">
        <ele>682.18</ele>
      </trkpt>
      <trkpt lat="45.77013" lon="14.73464">
        <ele>676.55</ele>
      </trkpt>
      <trkpt lat="45.77009" lon="14.73461">
        <ele>675.53</ele>
      </trkpt>
      <trkpt lat="45.76999" lon="14.7346">
        <ele>672.66</ele>
      </trkpt>
      <trkpt lat="45.76989" lon="14.73461">
        <ele>669.2</ele>
      </trkpt>
      <trkpt lat="45.7698" lon="14.73459">
        <ele>666.14</ele>
      </trkpt>
      <trkpt lat="45.76962" lon="14.73459">
        <ele>661.09</ele>
      </trkpt>
      <trkpt lat="45.76953" lon="14.73462">
        <ele>658.96</ele>
      </trkpt>
      <trkpt lat="45.76945" lon="14.73473">
        <ele>657.18</ele>
      </trkpt>
      <trkpt lat="45.76939" lon="14.73483">
        <ele>655.94</ele>
      </trkpt>
      <trkpt lat="45.7693" lon="14.73489">
        <ele>653.21</ele>
      </trkpt>
      <trkpt lat="45.76916" lon="14.73496">
        <ele>648.7</ele>
      </trkpt>
      <trkpt lat="45.76894" lon="14.73505">
        <ele>643.91</ele>
      </trkpt>
      <trkpt lat="45.76873" lon="14.73516">
        <ele>643.32</ele>
      </trkpt>
      <trkpt lat="45.76854" lon="14.73526">
        <ele>642.97</ele>
      </trkpt>
      <trkpt lat="45.7684" lon="14.73533">
        <ele>643.14</ele>
      </trkpt>
      <trkpt lat="45.76828" lon="14.73542">
        <ele>643.03</ele>
      </trkpt>
      <trkpt lat="45.76816" lon="14.7355">
        <ele>642.05</ele>
      </trkpt>
      <trkpt lat="45.76803" lon="14.73559">
        <ele>640.77</ele>
      </trkpt>
      <trkpt lat="45.76791" lon="14.73566">
        <ele>639.48</ele>
      </trkpt>
      <trkpt lat="45.76775" lon="14.73577">
        <ele>637.0</ele>
      </trkpt>
      <trkpt lat="45.76767" lon="14.73583">
        <ele>633.15</ele>
      </trkpt>
      <trkpt lat="45.76754" lon="14.73592">
        <ele>629.99</ele>
      </trkpt>
      <trkpt lat="45.76741" lon="14.736">
        <ele>629.29</ele>
      </trkpt>
      <trkpt lat="45.76732" lon="14.73605">
        <ele>627.42</ele>
      </trkpt>
      <trkpt lat="45.7672" lon="14.73607">
        <ele>623.01</ele>
      </trkpt>
      <trkpt lat="45.76708" lon="14.73611">
        <ele>620.41</ele>
      </trkpt>
      <trkpt lat="45.76698" lon="14.73615">
        <ele>618.32</ele>
      </trkpt>
      <trkpt lat="45.76685" lon="14.73617">
        <ele>613.63</ele>
      </trkpt>
      <trkpt lat="45.76668" lon="14.7362">
        <ele>606.84</ele>
      </trkpt>
      <trkpt lat="45.76656" lon="14.73625">
        <ele>604.7</ele>
      </trkpt>
      <trkpt lat="45.76642" lon="14.73627">
        <ele>601.96</ele>
      </trkpt>
      <trkpt lat="45.76627" lon="14.7363">
        <ele>598.57</ele>
      </trkpt>
      <trkpt lat="45.76614" lon="14.73634">
        <ele>595.44</ele>
      </trkpt>
      <trkpt lat="45.76602" lon="14.73634">
        <ele>592.33</ele>
      </trkpt>
      <trkpt lat="45.76592" lon="14.73635">
        <ele>590.01</ele>
      </trkpt>
      <trkpt lat="45.76585" lon="14.73635">
        <ele>588.29</ele>
      </trkpt>
      <trkpt lat="45.76577" lon="14.73635">
        <ele>587.75</ele>
      </trkpt>
      <trkpt lat="45.76568" lon="14.73637">
        <ele>588.02</ele>
      </trkpt>
      <trkpt lat="45.76558" lon="14.73638">
        <ele>587.92</ele>
      </trkpt>
      <trkpt lat="45.76544" lon="14.73637">
        <ele>586.5</ele>
      </trkpt>
      <trkpt lat="45.76535" lon="14.73637">
        <ele>585.59</ele>
      </trkpt>
      <trkpt lat="45.7653" lon="14.73637">
        <ele>585.09</ele>
      </trkpt>
      <trkpt lat="45.76527" lon="14.73633">
        <ele>584.44</ele>
      </trkpt>
      <trkpt lat="45.76525" lon="14.73631">
        <ele>583.93</ele>
      </trkpt>
      <trkpt lat="45.7647" lon="14.7362">
        <ele>575.88</ele>
      </trkpt>
      <trkpt lat="45.76433" lon="14.73594">
        <ele>576.48</ele>
      </trkpt>
      <trkpt lat="45.76404" lon="14.7359">
        <ele>583.93</ele>
      </trkpt>
      <trkpt lat="45.76378" lon="14.73577">
        <ele>585.23</ele>
      </trkpt>
      <trkpt lat="45.76278" lon="14.73601">
        <ele>570.12</ele>
      </trkpt>
      <trkpt lat="45.76255" lon="14.73585">
        <ele>569.86</ele>
      </trkpt>
      <trkpt lat="45.76212" lon="14.73515">
        <ele>547.98</ele>
      </trkpt>
      <trkpt lat="45.76204" lon="14.73503">
        <ele>543.61</ele>
      </trkpt>
      <trkpt lat="45.76188" lon="14.73488">
        <ele>539.11</ele>
      </trkpt>
      <trkpt lat="45.76185" lon="14.73484">
        <ele>538.14</ele>
      </trkpt>
      <trkpt lat="45.76181" lon="14.73478">
        <ele>536.64</ele>
      </trkpt>
      <trkpt lat="45.76172" lon="14.73463">
        <ele>533.01</ele>
      </trkpt>
      <trkpt lat="45.76005" lon="14.73167">
        <ele>555.79</ele>
      </trkpt>
      <trkpt lat="45.7598" lon="14.73138">
        <ele>556.09</ele>
      </trkpt>
      <trkpt lat="45.75964" lon="14.73141">
        <ele>557.08</ele>
      </trkpt>
      <trkpt lat="45.75881" lon="14.73258">
        <ele>543.29</ele>
      </trkpt>
      <trkpt lat="45.7583" lon="14.73286">
        <ele>539.1</ele>
      </trkpt>
      <trkpt lat="45.75774" lon="14.73301">
        <ele>528.4</ele>
      </trkpt>
      <trkpt lat="45.75632" lon="14.73325">
        <ele>520.65</ele>
      </trkpt>
      <trkpt lat="45.75579" lon="14.73329">
        <ele>517.24</ele>
      </trkpt>
      <trkpt lat="45.75568" lon="14.73291">
        <ele>510.73</ele>
      </trkpt>
      <trkpt lat="45.75505" lon="14.732">
        <ele>507.54</ele>
      </trkpt>
      <trkpt lat="45.75453" lon="14.73159">
        <ele>511.0</ele>
      </trkpt>
      <trkpt lat="45.75377" lon="14.73135">
        <ele>506.92</ele>
      </trkpt>
      <trkpt lat="45.75321" lon="14.73129">
        <ele>495.99</ele>
      </trkpt>
      <trkpt lat="45.75275" lon="14.73112">
        <ele>492.5</ele>
      </trkpt>
      <trkpt lat="45.75203" lon="14.73113">
        <ele>492.37</ele>
      </trkpt>
      <trkpt lat="45.75139" lon="14.73135">
        <ele>498.3</ele>
      </trkpt>
      <trkpt lat="45.75128" lon="14.73133">
        <ele>494.52</ele>
      </trkpt>
      <trkpt lat="45.75088" lon="14.73144">
        <ele>487.92</ele>
      </trkpt>
      <trkpt lat="45.75038" lon="14.7312">
        <ele>481.12</ele>
      </trkpt>
      <trkpt lat="45.75022" lon="14.73102">
        <ele>483.22</ele>
      </trkpt>
      <trkpt lat="45.74996" lon="14.73052">
        <ele>485.66</ele>
      </trkpt>
      <trkpt lat="45.74966" lon="14.73031">
        <ele>483.64</ele>
      </trkpt>
      <trkpt lat="45.74956" lon="14.73029">
        <ele>483.49</ele>
      </trkpt>
      <trkpt lat="45.74944" lon="14.73029">
        <ele>483.19</ele>
      </trkpt>
      <trkpt lat="45.74918" lon="14.73028">
        <ele>481.11</ele>
      </trkpt>
      <trkpt lat="45.74886" lon="14.73027">
        <ele>483.34</ele>
      </trkpt>
      <trkpt lat="45.74845" lon="14.73017">
        <ele>487.52</ele>
      </trkpt>
      <trkpt lat="45.74824" lon="14.73009">
        <ele>488.23</ele>
      </trkpt>
      <trkpt lat="45.74808" lon="14.73001">
        <ele>490.55</ele>
      </trkpt>
      <trkpt lat="45.74792" lon="14.72982">
        <ele>489.51</ele>
      </trkpt>
      <trkpt lat="45.7479" lon="14.72923">
        <ele>490.78</ele>
      </trkpt>
      <trkpt lat="45.74787" lon="14.72915">
        <ele>490.64</ele>
      </trkpt>
      <trkpt lat="45.74746" lon="14.72873">
        <ele>486.98</ele>
      </trkpt>
      <trkpt lat="45.74725" lon="14.72803">
        <ele>481.11</ele>
      </trkpt>
      <trkpt lat="45.74705" lon="14.72768">
        <ele>476.19</ele>
      </trkpt>
      <trkpt lat="45.74621" lon="14.72696">
        <ele>484.22</ele>
      </trkpt>
      <trkpt lat="45.74575" lon="14.72693">
        <ele>486.02</ele>
      </trkpt>
      <trkpt lat="45.74554" lon="14.72682">
        <ele>485.43</ele>
      </trkpt>
      <trkpt lat="45.74543" lon="14.72668">
        <ele>484.55</ele>
      </trkpt>
      <trkpt lat="45.74523" lon="14.72632">
        <ele>482.29</ele>
      </trkpt>
      <trkpt lat="45.7441" lon="14.72851">
        <ele>489.62</ele>
      </trkpt>
      <trkpt lat="45.74407" lon="14.72848">
        <ele>491.27</ele>
      </trkpt>
      <trkpt lat="45.7441" lon="14.72851">
        <ele>489.62</ele>
      </trkpt>
      <trkpt lat="45.74394" lon="14.72883">
        <ele>490.7</ele>
      </trkpt>
      <trkpt lat="45.74394" lon="14.72883">
        <ele>490.7</ele>
      </trkpt>
      <trkpt lat="45.74394" lon="14.72883">
        <ele>490.7</ele>
      </trkpt>
      <trkpt lat="45.74372" lon="14.72925">
        <ele>494.81</ele>
      </trkpt>
      <trkpt lat="45.74367" lon="14.72935">
        <ele>495.39</ele>
      </trkpt>
      <trkpt lat="45.74367" lon="14.72935">
        <ele>495.39</ele>
      </trkpt>
      <trkpt lat="45.74345" lon="14.72977">
        <ele>493.34</ele>
      </trkpt>
      <trkpt lat="45.74345" lon="14.72977">
        <ele>493.34</ele>
      </trkpt>
      <trkpt lat="45.74334" lon="14.73">
        <ele>490.95</ele>
      </trkpt>
      <trkpt lat="45.74331" lon="14.73005">
        <ele>490.05</ele>
      </trkpt>
      <trkpt lat="45.74331" lon="14.73005">
        <ele>490.05</ele>
      </trkpt>
      <trkpt lat="45.74325" lon="14.73017">
        <ele>488.18</ele>
      </trkpt>
      <trkpt lat="45.7432" lon="14.73011">
        <ele>489.67</ele>
      </trkpt>
      <trkpt lat="45.74313" lon="14.73003">
        <ele>491.32</ele>
      </trkpt>
      <trkpt lat="45.74313" lon="14.73003">
        <ele>491.32</ele>
      </trkpt>
      <trkpt lat="45.7425" lon="14.72934">
        <ele>507.38</ele>
      </trkpt>
      <trkpt lat="45.7425" lon="14.72934">
        <ele>507.38</ele>
      </trkpt>
      <trkpt lat="45.74231" lon="14.72912">
        <ele>507.64</ele>
      </trkpt>
      <trkpt lat="45.74206" lon="14.72884">
        <ele>505.66</ele>
      </trkpt>
      <trkpt lat="45.74206" lon="14.72885">
        <ele>505.73</ele>
      </trkpt>
      <trkpt lat="45.7418" lon="14.72856">
        <ele>506.89</ele>
      </trkpt>
      <trkpt lat="45.74164" lon="14.72839">
        <ele>510.29</ele>
      </trkpt>
      <trkpt lat="45.74164" lon="14.72839">
        <ele>510.29</ele>
      </trkpt>
      <trkpt lat="45.74142" lon="14.72814">
        <ele>511.58</ele>
      </trkpt>
      <trkpt lat="45.74125" lon="14.72795">
        <ele>513.9</ele>
      </trkpt>
      <trkpt lat="45.74125" lon="14.72795">
        <ele>513.9</ele>
      </trkpt>
      <trkpt lat="45.74108" lon="14.72775">
        <ele>518.85</ele>
      </trkpt>
      <trkpt lat="45.74099" lon="14.72765">
        <ele>518.86</ele>
      </trkpt>
      <trkpt lat="45.74099" lon="14.72765">
        <ele>518.86</ele>
      </trkpt>
      <trkpt lat="45.74062" lon="14.72722">
        <ele>513.95</ele>
      </trkpt>
      <trkpt lat="45.74057" lon="14.72717">
        <ele>513.02</ele>
      </trkpt>
      <trkpt lat="45.74057" lon="14.72717">
        <ele>513.02</ele>
      </trkpt>
      <trkpt lat="45.74037" lon="14.72696">
        <ele>509.17</ele>
      </trkpt>
      <trkpt lat="45.74013" lon="14.7267">
        <ele>501.27</ele>
      </trkpt>
      <trkpt lat="45.74003" lon="14.72658">
        <ele>498.24</ele>
      </trkpt>
      <trkpt lat="45.74003" lon="14.72658">
        <ele>498.24</ele>
      </trkpt>
      <trkpt lat="45.73965" lon="14.72611">
        <ele>496.16</ele>
      </trkpt>
      <trkpt lat="45.73953" lon="14.72626">
        <ele>492.7</ele>
      </trkpt>
      <trkpt lat="45.73953" lon="14.72626">
        <ele>492.7</ele>
      </trkpt>
      <trkpt lat="45.73965" lon="14.72611">
        <ele>496.16</ele>
      </trkpt>
      <trkpt lat="45.7397" lon="14.72617">
        <ele>496.48</ele>
      </trkpt>
      <trkpt lat="45.73965" lon="14.72611">
        <ele>496.16</ele>
      </trkpt>
      <trkpt lat="45.73921" lon="14.72665">
        <ele>488.52</ele>
      </trkpt>
      <trkpt lat="45.73882" lon="14.72717">
        <ele>488.41</ele>
      </trkpt>
      <trkpt lat="45.73875" lon="14.72726">
        <ele>488.48</ele>
      </trkpt>
      <trkpt lat="45.73875" lon="14.72726">
        <ele>488.48</ele>
      </trkpt>
    </trkseg>
  </trk>
</gpx>
