<?xml version="1.0" encoding="UTF-8"?>
<gpx creator="https://gpx.studio" version="1.1" xmlns="http://www.topografix.com/GPX/1/1" xmlns:xsi="http://www.w3.org/2001/XMLSchema-instance" xsi:schemaLocation="http://www.topografix.com/GPX/1/1 http://www.topografix.com/GPX/1/1/gpx.xsd http://www.garmin.com/xmlschemas/GpxExtensions/v3 http://www.garmin.com/xmlschemas/GpxExtensionsv3.xsd http://www.garmin.com/xmlschemas/TrackPointExtension/v1 http://www.garmin.com/xmlschemas/TrackPointExtensionv1.xsd http://www.garmin.com/xmlschemas/PowerExtension/v1 http://www.garmin.com/xmlschemas/PowerExtensionv1.xsd http://www.topografix.com/GPX/gpx_style/0/2 http://www.topografix.com/GPX/gpx_style/0/2/gpx_style.xsd" xmlns:gpxtpx="http://www.garmin.com/xmlschemas/TrackPointExtension/v1" xmlns:gpxx="http://www.garmin.com/xmlschemas/GpxExtensions/v3" xmlns:gpxpx="http://www.garmin.com/xmlschemas/PowerExtension/v1" xmlns:gpx_style="http://www.topografix.com/GPX/gpx_style/0/2">
  <metadata>
    <name>roznik-5.8</name>
    <author>
      <name>gpx.studio</name>
      <link href="https://gpx.studio"/>
    </author>
  </metadata>
  <trk>
    <name>roznik-5.8</name>
    <trkseg>
      <trkpt lat="46.063564" lon="14.482497">
        <ele>325.51</ele>
      </trkpt>
      <trkpt lat="46.063568" lon="14.482454">
        <ele>325.81</ele>
      </trkpt>
      <trkpt lat="46.063638" lon="14.482494">
        <ele>326.67</ele>
      </trkpt>
      <trkpt lat="46.063713" lon="14.482558">
        <ele>327.85</ele>
      </trkpt>
      <trkpt lat="46.063814" lon="14.482656">
        <ele>329.59</ele>
      </trkpt>
      <trkpt lat="46.063901" lon="14.482767">
        <ele>330.55</ele>
      </trkpt>
      <trkpt lat="46.063931" lon="14.482785">
        <ele>331.2</ele>
      </trkpt>
      <trkpt lat="46.063971" lon="14.482771">
        <ele>332.22</ele>
      </trkpt>
      <trkpt lat="46.064019" lon="14.482627">
        <ele>334.87</ele>
      </trkpt>
      <trkpt lat="46.064044" lon="14.482588">
        <ele>336.39</ele>
      </trkpt>
      <trkpt lat="46.064074" lon="14.482572">
        <ele>337.18</ele>
      </trkpt>
      <trkpt lat="46.064101" lon="14.482578">
        <ele>337.44</ele>
      </trkpt>
      <trkpt lat="46.064124" lon="14.482596">
        <ele>337.49</ele>
      </trkpt>
      <trkpt lat="46.064139" lon="14.482633">
        <ele>337.22</ele>
      </trkpt>
      <trkpt lat="46.064135" lon="14.482692">
        <ele>336.37</ele>
      </trkpt>
      <trkpt lat="46.06412" lon="14.482791">
        <ele>336.72</ele>
      </trkpt>
      <trkpt lat="46.064121" lon="14.482863">
        <ele>337.28</ele>
      </trkpt>
      <trkpt lat="46.064131" lon="14.48292">
        <ele>337.71</ele>
      </trkpt>
      <trkpt lat="46.064161" lon="14.483036">
        <ele>338.94</ele>
      </trkpt>
      <trkpt lat="46.064211" lon="14.483166">
        <ele>339.63</ele>
      </trkpt>
      <trkpt lat="46.06424" lon="14.483222">
        <ele>340.11</ele>
      </trkpt>
      <trkpt lat="46.06424" lon="14.483222">
        <ele>340.11</ele>
      </trkpt>
      <trkpt lat="46.064288" lon="14.483314">
        <ele>340.9</ele>
      </trkpt>
      <trkpt lat="46.064315" lon="14.483403">
        <ele>340.4</ele>
      </trkpt>
      <trkpt lat="46.064323" lon="14.483806">
        <ele>340.14</ele>
      </trkpt>
      <trkpt lat="46.064352" lon="14.484165">
        <ele>341.19</ele>
      </trkpt>
      <trkpt lat="46.064362" lon="14.484417">
        <ele>341.08</ele>
      </trkpt>
      <trkpt lat="46.064339" lon="14.484957">
        <ele>342.05</ele>
      </trkpt>
      <trkpt lat="46.064315" lon="14.48516">
        <ele>341.95</ele>
      </trkpt>
      <trkpt lat="46.064263" lon="14.485365">
        <ele>341.94</ele>
      </trkpt>
      <trkpt lat="46.064243" lon="14.485494">
        <ele>341.83</ele>
      </trkpt>
      <trkpt lat="46.064249" lon="14.485685">
        <ele>342.93</ele>
      </trkpt>
      <trkpt lat="46.06434" lon="14.486316">
        <ele>346.5</ele>
      </trkpt>
      <trkpt lat="46.064373" lon="14.486586">
        <ele>348.5</ele>
      </trkpt>
      <trkpt lat="46.064376" lon="14.486743">
        <ele>349.79</ele>
      </trkpt>
      <trkpt lat="46.064363" lon="14.48692">
        <ele>351.68</ele>
      </trkpt>
      <trkpt lat="46.064303" lon="14.487131">
        <ele>353.06</ele>
      </trkpt>
      <trkpt lat="46.064208" lon="14.487402">
        <ele>355.76</ele>
      </trkpt>
      <trkpt lat="46.064103" lon="14.487779">
        <ele>360.48</ele>
      </trkpt>
      <trkpt lat="46.064094" lon="14.487858">
        <ele>361.54</ele>
      </trkpt>
      <trkpt lat="46.064094" lon="14.487942">
        <ele>362.58</ele>
      </trkpt>
      <trkpt lat="46.064062" lon="14.488203">
        <ele>365.71</ele>
      </trkpt>
      <trkpt lat="46.064013" lon="14.488312">
        <ele>367.43</ele>
      </trkpt>
      <trkpt lat="46.063999" lon="14.488324">
        <ele>367.85</ele>
      </trkpt>
      <trkpt lat="46.06396" lon="14.488314">
        <ele>368.78</ele>
      </trkpt>
      <trkpt lat="46.063918" lon="14.488267">
        <ele>369.56</ele>
      </trkpt>
      <trkpt lat="46.063824" lon="14.488045">
        <ele>370.28</ele>
      </trkpt>
      <trkpt lat="46.06371" lon="14.487816">
        <ele>372.34</ele>
      </trkpt>
      <trkpt lat="46.063654" lon="14.487748">
        <ele>374.1</ele>
      </trkpt>
      <trkpt lat="46.063616" lon="14.487751">
        <ele>374.72</ele>
      </trkpt>
      <trkpt lat="46.063575" lon="14.487791">
        <ele>375.17</ele>
      </trkpt>
      <trkpt lat="46.063557" lon="14.487874">
        <ele>375.39</ele>
      </trkpt>
      <trkpt lat="46.06355" lon="14.487996">
        <ele>376.25</ele>
      </trkpt>
      <trkpt lat="46.06355" lon="14.48822">
        <ele>377.54</ele>
      </trkpt>
      <trkpt lat="46.063521" lon="14.488475">
        <ele>379.09</ele>
      </trkpt>
      <trkpt lat="46.063484" lon="14.488593">
        <ele>380.03</ele>
      </trkpt>
      <trkpt lat="46.063484" lon="14.488593">
        <ele>380.03</ele>
      </trkpt>
      <trkpt lat="46.06345" lon="14.488701">
        <ele>380.9</ele>
      </trkpt>
      <trkpt lat="46.063192" lon="14.489165">
        <ele>381.69</ele>
      </trkpt>
      <trkpt lat="46.063055" lon="14.489431">
        <ele>382.77</ele>
      </trkpt>
      <trkpt lat="46.062887" lon="14.489715">
        <ele>384.62</ele>
      </trkpt>
      <trkpt lat="46.062749" lon="14.48989">
        <ele>385.81</ele>
      </trkpt>
      <trkpt lat="46.062683" lon="14.489955">
        <ele>386.59</ele>
      </trkpt>
      <trkpt lat="46.062618" lon="14.490003">
        <ele>386.9</ele>
      </trkpt>
      <trkpt lat="46.062496" lon="14.490125">
        <ele>386.29</ele>
      </trkpt>
      <trkpt lat="46.062194" lon="14.490516">
        <ele>386.48</ele>
      </trkpt>
      <trkpt lat="46.0621" lon="14.4906">
        <ele>386.02</ele>
      </trkpt>
      <trkpt lat="46.061987" lon="14.490681">
        <ele>385.3</ele>
      </trkpt>
      <trkpt lat="46.06193" lon="14.490704">
        <ele>385.5</ele>
      </trkpt>
      <trkpt lat="46.061868" lon="14.490715">
        <ele>385.46</ele>
      </trkpt>
      <trkpt lat="46.061793" lon="14.490703">
        <ele>384.97</ele>
      </trkpt>
      <trkpt lat="46.061671" lon="14.490663">
        <ele>384.41</ele>
      </trkpt>
      <trkpt lat="46.061326" lon="14.490524">
        <ele>383.19</ele>
      </trkpt>
      <trkpt lat="46.061219" lon="14.490449">
        <ele>384.17</ele>
      </trkpt>
      <trkpt lat="46.061172" lon="14.490427">
        <ele>384.15</ele>
      </trkpt>
      <trkpt lat="46.061134" lon="14.490423">
        <ele>384.86</ele>
      </trkpt>
      <trkpt lat="46.060899" lon="14.49048">
        <ele>386.35</ele>
      </trkpt>
      <trkpt lat="46.060805" lon="14.490479">
        <ele>386.77</ele>
      </trkpt>
      <trkpt lat="46.060668" lon="14.49043">
        <ele>386.71</ele>
      </trkpt>
      <trkpt lat="46.060155" lon="14.490298">
        <ele>388.32</ele>
      </trkpt>
      <trkpt lat="46.060109" lon="14.490304">
        <ele>388.18</ele>
      </trkpt>
      <trkpt lat="46.059977" lon="14.490385">
        <ele>389.05</ele>
      </trkpt>
      <trkpt lat="46.059912" lon="14.49041">
        <ele>388.51</ele>
      </trkpt>
      <trkpt lat="46.059849" lon="14.49041">
        <ele>388.54</ele>
      </trkpt>
      <trkpt lat="46.059632" lon="14.490322">
        <ele>388.35</ele>
      </trkpt>
      <trkpt lat="46.059385" lon="14.490251">
        <ele>388.97</ele>
      </trkpt>
      <trkpt lat="46.059254" lon="14.4906">
        <ele>389.12</ele>
      </trkpt>
      <trkpt lat="46.059174" lon="14.490776">
        <ele>388.54</ele>
      </trkpt>
      <trkpt lat="46.059043" lon="14.490976">
        <ele>388.11</ele>
      </trkpt>
      <trkpt lat="46.058887" lon="14.491159">
        <ele>387.79</ele>
      </trkpt>
      <trkpt lat="46.058838" lon="14.491216">
        <ele>387.69</ele>
      </trkpt>
      <trkpt lat="46.058673" lon="14.491373">
        <ele>387.55</ele>
      </trkpt>
      <trkpt lat="46.058472" lon="14.491556">
        <ele>385.3</ele>
      </trkpt>
      <trkpt lat="46.058405" lon="14.491577">
        <ele>384.99</ele>
      </trkpt>
      <trkpt lat="46.05834" lon="14.491553">
        <ele>384.73</ele>
      </trkpt>
      <trkpt lat="46.05829" lon="14.491478">
        <ele>384.75</ele>
      </trkpt>
      <trkpt lat="46.058055" lon="14.490934">
        <ele>381.63</ele>
      </trkpt>
      <trkpt lat="46.057856" lon="14.490558">
        <ele>379.59</ele>
      </trkpt>
      <trkpt lat="46.057804" lon="14.490481">
        <ele>379.43</ele>
      </trkpt>
      <trkpt lat="46.05745" lon="14.49056">
        <ele>376.83</ele>
      </trkpt>
      <trkpt lat="46.057306" lon="14.490605">
        <ele>375.35</ele>
      </trkpt>
      <trkpt lat="46.05697" lon="14.490798">
        <ele>370.89</ele>
      </trkpt>
      <trkpt lat="46.056781" lon="14.49094">
        <ele>369</ele>
      </trkpt>
      <trkpt lat="46.056643" lon="14.491028">
        <ele>368.07</ele>
      </trkpt>
      <trkpt lat="46.056576" lon="14.491054">
        <ele>367.33</ele>
      </trkpt>
      <trkpt lat="46.056342" lon="14.491054">
        <ele>365.37</ele>
      </trkpt>
      <trkpt lat="46.056051" lon="14.491001">
        <ele>360.47</ele>
      </trkpt>
      <trkpt lat="46.055923" lon="14.490977">
        <ele>360.77</ele>
      </trkpt>
      <trkpt lat="46.055817" lon="14.490957">
        <ele>358.07</ele>
      </trkpt>
      <trkpt lat="46.055707" lon="14.490877">
        <ele>357.2</ele>
      </trkpt>
      <trkpt lat="46.055637" lon="14.490789">
        <ele>356.17</ele>
      </trkpt>
      <trkpt lat="46.055599" lon="14.490688">
        <ele>355.65</ele>
      </trkpt>
      <trkpt lat="46.055533" lon="14.490562">
        <ele>355.46</ele>
      </trkpt>
      <trkpt lat="46.055488" lon="14.490548">
        <ele>355.47</ele>
      </trkpt>
      <trkpt lat="46.055171" lon="14.490589">
        <ele>354.37</ele>
      </trkpt>
      <trkpt lat="46.055015" lon="14.490587">
        <ele>353.84</ele>
      </trkpt>
      <trkpt lat="46.054731" lon="14.490636">
        <ele>352.79</ele>
      </trkpt>
      <trkpt lat="46.054373" lon="14.490726">
        <ele>351.65</ele>
      </trkpt>
      <trkpt lat="46.054299" lon="14.490737">
        <ele>351.44</ele>
      </trkpt>
      <trkpt lat="46.054299" lon="14.490737">
        <ele>351.44</ele>
      </trkpt>
      <trkpt lat="46.054193" lon="14.490751">
        <ele>351.12</ele>
      </trkpt>
      <trkpt lat="46.053994" lon="14.490759">
        <ele>349.19</ele>
      </trkpt>
      <trkpt lat="46.053765" lon="14.490735">
        <ele>346.54</ele>
      </trkpt>
      <trkpt lat="46.053715" lon="14.490739">
        <ele>345.96</ele>
      </trkpt>
      <trkpt lat="46.053677" lon="14.490776">
        <ele>345.11</ele>
      </trkpt>
      <trkpt lat="46.053641" lon="14.490668">
        <ele>346.14</ele>
      </trkpt>
      <trkpt lat="46.053698" lon="14.489971">
        <ele>349.11</ele>
      </trkpt>
      <trkpt lat="46.053708" lon="14.489938">
        <ele>349.23</ele>
      </trkpt>
      <trkpt lat="46.053727" lon="14.489869">
        <ele>349.46</ele>
      </trkpt>
      <trkpt lat="46.053852" lon="14.489639">
        <ele>350.67</ele>
      </trkpt>
      <trkpt lat="46.053954" lon="14.489522">
        <ele>351.6</ele>
      </trkpt>
      <trkpt lat="46.054114" lon="14.489409">
        <ele>353.64</ele>
      </trkpt>
      <trkpt lat="46.054229" lon="14.489355">
        <ele>355.1</ele>
      </trkpt>
      <trkpt lat="46.054335" lon="14.489336">
        <ele>356.3</ele>
      </trkpt>
      <trkpt lat="46.054438" lon="14.489346">
        <ele>357.22</ele>
      </trkpt>
      <trkpt lat="46.054684" lon="14.489398">
        <ele>359.59</ele>
      </trkpt>
      <trkpt lat="46.054836" lon="14.489399">
        <ele>360.89</ele>
      </trkpt>
      <trkpt lat="46.054941" lon="14.489386">
        <ele>362.12</ele>
      </trkpt>
      <trkpt lat="46.055019" lon="14.489392">
        <ele>362.73</ele>
      </trkpt>
      <trkpt lat="46.055256" lon="14.489441">
        <ele>364.1</ele>
      </trkpt>
      <trkpt lat="46.055361" lon="14.489438">
        <ele>364.63</ele>
      </trkpt>
      <trkpt lat="46.055723" lon="14.489181">
        <ele>366.34</ele>
      </trkpt>
      <trkpt lat="46.055822" lon="14.489145">
        <ele>367.32</ele>
      </trkpt>
      <trkpt lat="46.055936" lon="14.489137">
        <ele>367.97</ele>
      </trkpt>
      <trkpt lat="46.056087" lon="14.489166">
        <ele>369.37</ele>
      </trkpt>
      <trkpt lat="46.056317" lon="14.489231">
        <ele>372.17</ele>
      </trkpt>
      <trkpt lat="46.056418" lon="14.48929">
        <ele>373.7</ele>
      </trkpt>
      <trkpt lat="46.056481" lon="14.489355">
        <ele>374.64</ele>
      </trkpt>
      <trkpt lat="46.056517" lon="14.489447">
        <ele>376.25</ele>
      </trkpt>
      <trkpt lat="46.056602" lon="14.489597">
        <ele>377.59</ele>
      </trkpt>
      <trkpt lat="46.056684" lon="14.489676">
        <ele>377.79</ele>
      </trkpt>
      <trkpt lat="46.05682" lon="14.489763">
        <ele>378.63</ele>
      </trkpt>
      <trkpt lat="46.056975" lon="14.489802">
        <ele>379.76</ele>
      </trkpt>
      <trkpt lat="46.057134" lon="14.489858">
        <ele>380.16</ele>
      </trkpt>
      <trkpt lat="46.057288" lon="14.489954">
        <ele>380.3</ele>
      </trkpt>
      <trkpt lat="46.057344" lon="14.490019">
        <ele>380.96</ele>
      </trkpt>
      <trkpt lat="46.057374" lon="14.490106">
        <ele>381.76</ele>
      </trkpt>
      <trkpt lat="46.057383" lon="14.490215">
        <ele>381.74</ele>
      </trkpt>
      <trkpt lat="46.057459" lon="14.490243">
        <ele>381.09</ele>
      </trkpt>
      <trkpt lat="46.057459" lon="14.490243">
        <ele>381.09</ele>
      </trkpt>
      <trkpt lat="46.057689" lon="14.490328">
        <ele>379.1</ele>
      </trkpt>
      <trkpt lat="46.057746" lon="14.490387">
        <ele>379.18</ele>
      </trkpt>
      <trkpt lat="46.057804" lon="14.490481">
        <ele>379.43</ele>
      </trkpt>
      <trkpt lat="46.058084" lon="14.490415">
        <ele>382.67</ele>
      </trkpt>
      <trkpt lat="46.058297" lon="14.490367">
        <ele>381.18</ele>
      </trkpt>
      <trkpt lat="46.058596" lon="14.490314">
        <ele>382</ele>
      </trkpt>
      <trkpt lat="46.058596" lon="14.490314">
        <ele>382</ele>
      </trkpt>
      <trkpt lat="46.058866" lon="14.490306">
        <ele>383.78</ele>
      </trkpt>
      <trkpt lat="46.059207" lon="14.490258">
        <ele>386.98</ele>
      </trkpt>
      <trkpt lat="46.059385" lon="14.490251">
        <ele>388.97</ele>
      </trkpt>
      <trkpt lat="46.059381" lon="14.490125">
        <ele>388.82</ele>
      </trkpt>
      <trkpt lat="46.059355" lon="14.489908">
        <ele>389.01</ele>
      </trkpt>
      <trkpt lat="46.059314" lon="14.489755">
        <ele>390.88</ele>
      </trkpt>
      <trkpt lat="46.059241" lon="14.489551">
        <ele>391.51</ele>
      </trkpt>
      <trkpt lat="46.05921" lon="14.489414">
        <ele>391.89</ele>
      </trkpt>
      <trkpt lat="46.059202" lon="14.489304">
        <ele>391.43</ele>
      </trkpt>
      <trkpt lat="46.059218" lon="14.48921">
        <ele>391.67</ele>
      </trkpt>
      <trkpt lat="46.059295" lon="14.488884">
        <ele>392.05</ele>
      </trkpt>
      <trkpt lat="46.059318" lon="14.488718">
        <ele>394.88</ele>
      </trkpt>
      <trkpt lat="46.059315" lon="14.488545">
        <ele>396.88</ele>
      </trkpt>
      <trkpt lat="46.059265" lon="14.488086">
        <ele>401.12</ele>
      </trkpt>
      <trkpt lat="46.059243" lon="14.487877">
        <ele>403.05</ele>
      </trkpt>
      <trkpt lat="46.059257" lon="14.487693">
        <ele>403.09</ele>
      </trkpt>
      <trkpt lat="46.059326" lon="14.48752">
        <ele>403.11</ele>
      </trkpt>
      <trkpt lat="46.05938" lon="14.487447">
        <ele>401.1</ele>
      </trkpt>
      <trkpt lat="46.059478" lon="14.487402">
        <ele>400.51</ele>
      </trkpt>
      <trkpt lat="46.059536" lon="14.487334">
        <ele>399.26</ele>
      </trkpt>
      <trkpt lat="46.059588" lon="14.487251">
        <ele>398.58</ele>
      </trkpt>
      <trkpt lat="46.059614" lon="14.487184">
        <ele>398.68</ele>
      </trkpt>
      <trkpt lat="46.059618" lon="14.487127">
        <ele>398.84</ele>
      </trkpt>
      <trkpt lat="46.059581" lon="14.486955">
        <ele>398</ele>
      </trkpt>
      <trkpt lat="46.059444" lon="14.486418">
        <ele>395.65</ele>
      </trkpt>
      <trkpt lat="46.059392" lon="14.486257">
        <ele>394.77</ele>
      </trkpt>
      <trkpt lat="46.059176" lon="14.485701">
        <ele>391.13</ele>
      </trkpt>
      <trkpt lat="46.059112" lon="14.485483">
        <ele>389.32</ele>
      </trkpt>
      <trkpt lat="46.059051" lon="14.485235">
        <ele>388.36</ele>
      </trkpt>
      <trkpt lat="46.05898" lon="14.484896">
        <ele>386.66</ele>
      </trkpt>
      <trkpt lat="46.058925" lon="14.484578">
        <ele>385.12</ele>
      </trkpt>
      <trkpt lat="46.058837" lon="14.484296">
        <ele>383.56</ele>
      </trkpt>
      <trkpt lat="46.058637" lon="14.483555">
        <ele>380.83</ele>
      </trkpt>
      <trkpt lat="46.058572" lon="14.483267">
        <ele>380.13</ele>
      </trkpt>
      <trkpt lat="46.058525" lon="14.483102">
        <ele>379.13</ele>
      </trkpt>
      <trkpt lat="46.058424" lon="14.482652">
        <ele>377.86</ele>
      </trkpt>
      <trkpt lat="46.058383" lon="14.482363">
        <ele>376.64</ele>
      </trkpt>
      <trkpt lat="46.058237" lon="14.481292">
        <ele>366.96</ele>
      </trkpt>
      <trkpt lat="46.058232" lon="14.481149">
        <ele>366.65</ele>
      </trkpt>
      <trkpt lat="46.058315" lon="14.481306">
        <ele>367.04</ele>
      </trkpt>
      <trkpt lat="46.058382" lon="14.481397">
        <ele>366.86</ele>
      </trkpt>
      <trkpt lat="46.058482" lon="14.481499">
        <ele>364.03</ele>
      </trkpt>
      <trkpt lat="46.058555" lon="14.48153">
        <ele>363</ele>
      </trkpt>
      <trkpt lat="46.058651" lon="14.481523">
        <ele>361.4</ele>
      </trkpt>
      <trkpt lat="46.0588" lon="14.481473">
        <ele>359.78</ele>
      </trkpt>
      <trkpt lat="46.058942" lon="14.481394">
        <ele>358.85</ele>
      </trkpt>
      <trkpt lat="46.059057" lon="14.481311">
        <ele>358.38</ele>
      </trkpt>
      <trkpt lat="46.059245" lon="14.481154">
        <ele>359.03</ele>
      </trkpt>
      <trkpt lat="46.059245" lon="14.481154">
        <ele>359.03</ele>
      </trkpt>
      <trkpt lat="46.059517" lon="14.480907">
        <ele>360.44</ele>
      </trkpt>
      <trkpt lat="46.05977" lon="14.480579">
        <ele>360.66</ele>
      </trkpt>
      <trkpt lat="46.059866" lon="14.48037">
        <ele>359.52</ele>
      </trkpt>
      <trkpt lat="46.059917" lon="14.480162">
        <ele>358.04</ele>
      </trkpt>
      <trkpt lat="46.059956" lon="14.47967">
        <ele>354.83</ele>
      </trkpt>
      <trkpt lat="46.059959" lon="14.479632">
        <ele>354.58</ele>
      </trkpt>
      <trkpt lat="46.059938" lon="14.479364">
        <ele>352.5</ele>
      </trkpt>
      <trkpt lat="46.059956" lon="14.4792">
        <ele>351.7</ele>
      </trkpt>
      <trkpt lat="46.05999" lon="14.479018">
        <ele>350.75</ele>
      </trkpt>
      <trkpt lat="46.060013" lon="14.478787">
        <ele>349.63</ele>
      </trkpt>
      <trkpt lat="46.060052" lon="14.478579">
        <ele>347.77</ele>
      </trkpt>
      <trkpt lat="46.060066" lon="14.478374">
        <ele>346.27</ele>
      </trkpt>
      <trkpt lat="46.060062" lon="14.478066">
        <ele>344.42</ele>
      </trkpt>
      <trkpt lat="46.060066" lon="14.477991">
        <ele>344.59</ele>
      </trkpt>
      <trkpt lat="46.060166" lon="14.477928">
        <ele>345.32</ele>
      </trkpt>
      <trkpt lat="46.060328" lon="14.477853">
        <ele>342.37</ele>
      </trkpt>
      <trkpt lat="46.06038" lon="14.477838">
        <ele>341.62</ele>
      </trkpt>
      <trkpt lat="46.060453" lon="14.477753">
        <ele>340.43</ele>
      </trkpt>
      <trkpt lat="46.060532" lon="14.4776">
        <ele>337.29</ele>
      </trkpt>
      <trkpt lat="46.060614" lon="14.477374">
        <ele>333.3</ele>
      </trkpt>
      <trkpt lat="46.060712" lon="14.477065">
        <ele>329.62</ele>
      </trkpt>
      <trkpt lat="46.060755" lon="14.47691">
        <ele>329.64</ele>
      </trkpt>
      <trkpt lat="46.060944" lon="14.476655">
        <ele>327.96</ele>
      </trkpt>
      <trkpt lat="46.061017" lon="14.476593">
        <ele>326.48</ele>
      </trkpt>
      <trkpt lat="46.061089" lon="14.47648">
        <ele>325.43</ele>
      </trkpt>
      <trkpt lat="46.061115" lon="14.47644">
        <ele>325.06</ele>
      </trkpt>
      <trkpt lat="46.061263" lon="14.476286">
        <ele>323.51</ele>
      </trkpt>
      <trkpt lat="46.061403" lon="14.476205">
        <ele>322.81</ele>
      </trkpt>
      <trkpt lat="46.061767" lon="14.476081">
        <ele>319.1</ele>
      </trkpt>
      <trkpt lat="46.062341" lon="14.475737">
        <ele>315.15</ele>
      </trkpt>
      <trkpt lat="46.062793" lon="14.475514">
        <ele>312.61</ele>
      </trkpt>
      <trkpt lat="46.062869" lon="14.475514">
        <ele>312.23</ele>
      </trkpt>
      <trkpt lat="46.062916" lon="14.475578">
        <ele>312.29</ele>
      </trkpt>
      <trkpt lat="46.063124" lon="14.475387">
        <ele>311.38</ele>
      </trkpt>
      <trkpt lat="46.063338" lon="14.475109">
        <ele>310</ele>
      </trkpt>
      <trkpt lat="46.063547" lon="14.474759">
        <ele>310</ele>
      </trkpt>
      <trkpt lat="46.063585" lon="14.474714">
        <ele>309.83</ele>
      </trkpt>
      <trkpt lat="46.063674" lon="14.474658">
        <ele>309.08</ele>
      </trkpt>
      <trkpt lat="46.063879" lon="14.474621">
        <ele>309</ele>
      </trkpt>
      <trkpt lat="46.063981" lon="14.474555">
        <ele>309.34</ele>
      </trkpt>
      <trkpt lat="46.064081" lon="14.474412">
        <ele>309.29</ele>
      </trkpt>
      <trkpt lat="46.064122" lon="14.474331">
        <ele>309.27</ele>
      </trkpt>
      <trkpt lat="46.064211" lon="14.474428">
        <ele>309.97</ele>
      </trkpt>
      <trkpt lat="46.064282" lon="14.474486">
        <ele>310</ele>
      </trkpt>
      <trkpt lat="46.064353" lon="14.474535">
        <ele>310</ele>
      </trkpt>
      <trkpt lat="46.064421" lon="14.474557">
        <ele>310.13</ele>
      </trkpt>
      <trkpt lat="46.064531" lon="14.474569">
        <ele>310.79</ele>
      </trkpt>
      <trkpt lat="46.064878" lon="14.474549">
        <ele>310.67</ele>
      </trkpt>
      <trkpt lat="46.065193" lon="14.47453">
        <ele>310.56</ele>
      </trkpt>
      <trkpt lat="46.06543" lon="14.474539">
        <ele>310.61</ele>
      </trkpt>
      <trkpt lat="46.065698" lon="14.474627">
        <ele>311</ele>
      </trkpt>
      <trkpt lat="46.065763" lon="14.474659">
        <ele>311</ele>
      </trkpt>
      <trkpt lat="46.065824" lon="14.474705">
        <ele>311</ele>
      </trkpt>
      <trkpt lat="46.065851" lon="14.474741">
        <ele>311.12</ele>
      </trkpt>
      <trkpt lat="46.06564" lon="14.475034">
        <ele>311.86</ele>
      </trkpt>
      <trkpt lat="46.065359" lon="14.475401">
        <ele>312.63</ele>
      </trkpt>
      <trkpt lat="46.065172" lon="14.47567">
        <ele>313</ele>
      </trkpt>
      <trkpt lat="46.064851" lon="14.476307">
        <ele>313.89</ele>
      </trkpt>
      <trkpt lat="46.06481" lon="14.476461">
        <ele>314</ele>
      </trkpt>
      <trkpt lat="46.064813" lon="14.476618">
        <ele>314.7</ele>
      </trkpt>
      <trkpt lat="46.064831" lon="14.47679">
        <ele>315.43</ele>
      </trkpt>
      <trkpt lat="46.064868" lon="14.47697">
        <ele>315.98</ele>
      </trkpt>
      <trkpt lat="46.064937" lon="14.477236">
        <ele>316.5</ele>
      </trkpt>
      <trkpt lat="46.064985" lon="14.477462">
        <ele>316.9</ele>
      </trkpt>
      <trkpt lat="46.065092" lon="14.477868">
        <ele>318.59</ele>
      </trkpt>
      <trkpt lat="46.065146" lon="14.478009">
        <ele>319.86</ele>
      </trkpt>
      <trkpt lat="46.065201" lon="14.478154">
        <ele>321.16</ele>
      </trkpt>
      <trkpt lat="46.065328" lon="14.478399">
        <ele>323.57</ele>
      </trkpt>
      <trkpt lat="46.065422" lon="14.478558">
        <ele>325.54</ele>
      </trkpt>
      <trkpt lat="46.065393" lon="14.478671">
        <ele>325.52</ele>
      </trkpt>
      <trkpt lat="46.065365" lon="14.478861">
        <ele>325.85</ele>
      </trkpt>
      <trkpt lat="46.065214" lon="14.478905">
        <ele>326.16</ele>
      </trkpt>
      <trkpt lat="46.06517" lon="14.478905">
        <ele>326.53</ele>
      </trkpt>
      <trkpt lat="46.065117" lon="14.478883">
        <ele>326.34</ele>
      </trkpt>
      <trkpt lat="46.065052" lon="14.478843">
        <ele>326.66</ele>
      </trkpt>
      <trkpt lat="46.064958" lon="14.478765">
        <ele>327.32</ele>
      </trkpt>
      <trkpt lat="46.06476" lon="14.47855">
        <ele>327.76</ele>
      </trkpt>
      <trkpt lat="46.064596" lon="14.478423">
        <ele>327.54</ele>
      </trkpt>
      <trkpt lat="46.064347" lon="14.478268">
        <ele>325.71</ele>
      </trkpt>
      <trkpt lat="46.064272" lon="14.478242">
        <ele>325.43</ele>
      </trkpt>
      <trkpt lat="46.063993" lon="14.478204">
        <ele>324.01</ele>
      </trkpt>
      <trkpt lat="46.063993" lon="14.478204">
        <ele>324.01</ele>
      </trkpt>
      <trkpt lat="46.063934" lon="14.478197">
        <ele>323.65</ele>
      </trkpt>
      <trkpt lat="46.063746" lon="14.478186">
        <ele>324.03</ele>
      </trkpt>
      <trkpt lat="46.063607" lon="14.478157">
        <ele>323.88</ele>
      </trkpt>
      <trkpt lat="46.063518" lon="14.478163">
        <ele>323.29</ele>
      </trkpt>
      <trkpt lat="46.063443" lon="14.478179">
        <ele>322.75</ele>
      </trkpt>
      <trkpt lat="46.063366" lon="14.47821">
        <ele>322.26</ele>
      </trkpt>
      <trkpt lat="46.063294" lon="14.478265">
        <ele>321.29</ele>
      </trkpt>
      <trkpt lat="46.063236" lon="14.478341">
        <ele>320.24</ele>
      </trkpt>
      <trkpt lat="46.063172" lon="14.478458">
        <ele>319.54</ele>
      </trkpt>
      <trkpt lat="46.063113" lon="14.478633">
        <ele>319.07</ele>
      </trkpt>
      <trkpt lat="46.063073" lon="14.478882">
        <ele>318.76</ele>
      </trkpt>
      <trkpt lat="46.063025" lon="14.47932">
        <ele>317.95</ele>
      </trkpt>
      <trkpt lat="46.062974" lon="14.479643">
        <ele>317.1</ele>
      </trkpt>
      <trkpt lat="46.062974" lon="14.479643">
        <ele>317.1</ele>
      </trkpt>
      <trkpt lat="46.062879" lon="14.48011">
        <ele>316.52</ele>
      </trkpt>
      <trkpt lat="46.062727" lon="14.48061">
        <ele>317</ele>
      </trkpt>
      <trkpt lat="46.062684" lon="14.480837">
        <ele>317.91</ele>
      </trkpt>
      <trkpt lat="46.062707" lon="14.480876">
        <ele>317.91</ele>
      </trkpt>
      <trkpt lat="46.062719" lon="14.480921">
        <ele>317.94</ele>
      </trkpt>
      <trkpt lat="46.062772" lon="14.481194">
        <ele>318.97</ele>
      </trkpt>
      <trkpt lat="46.062879" lon="14.481566">
        <ele>319.65</ele>
      </trkpt>
      <trkpt lat="46.06295" lon="14.481698">
        <ele>320.49</ele>
      </trkpt>
      <trkpt lat="46.063028" lon="14.481806">
        <ele>321.21</ele>
      </trkpt>
      <trkpt lat="46.063328" lon="14.482136">
        <ele>323.7</ele>
      </trkpt>
      <trkpt lat="46.063502" lon="14.482389">
        <ele>324.94</ele>
      </trkpt>
    </trkseg>
  </trk>
</gpx>
