<?xml version="1.0" encoding="UTF-8"?>
<gpx creator="StravaGPX" version="1.1" xmlns="http://www.topografix.com/GPX/1/1" xmlns:xsi="http://www.w3.org/2001/XMLSchema-instance" xsi:schemaLocation="http://www.topografix.com/GPX/1/1 http://www.topografix.com/GPX/1/1/gpx.xsd">
 <metadata>
  <name>Družinski Velenje trail 2025</name>
  <author>
   <name>Marko Krenker Ⓥ</name>
   <link href="https://www.strava.com/athletes/10359675"/>
  </author>
  <copyright author="OpenStreetMap contributors">
   <year>2020</year>
   <license>https://www.openstreetmap.org/copyright</license>
  </copyright>
  <link href="https://www.strava.com/routes/3269429124643353396"/>
 </metadata>
 <trk>
  <name>Družinski Velenje trail 2025</name>
  <link href="https://www.strava.com/routes/3269429124643353396"/>
  <type>hiking</type>
  <trkseg>
   <trkpt lat="46.36928" lon="15.08669">
    <ele>373.11000000000007</ele>
   </trkpt>
   <trkpt lat="46.368500000000004" lon="15.086490000000001">
    <ele>373.48</ele>
   </trkpt>
   <trkpt lat="46.36845" lon="15.086760000000002">
    <ele>373.6700000000001</ele>
   </trkpt>
   <trkpt lat="46.368410000000004" lon="15.086750000000002">
    <ele>373.69</ele>
   </trkpt>
   <trkpt lat="46.36838" lon="15.086820000000001">
    <ele>374.04</ele>
   </trkpt>
   <trkpt lat="46.36835000000001" lon="15.087050000000001">
    <ele>374.65000000000003</ele>
   </trkpt>
   <trkpt lat="46.36824000000001" lon="15.087110000000001">
    <ele>374.81</ele>
   </trkpt>
   <trkpt lat="46.368210000000005" lon="15.08717">
    <ele>374.70000000000005</ele>
   </trkpt>
   <trkpt lat="46.36811" lon="15.087690000000002">
    <ele>374.33000000000004</ele>
   </trkpt>
   <trkpt lat="46.36802" lon="15.08796">
    <ele>374.71000000000004</ele>
   </trkpt>
   <trkpt lat="46.367850000000004" lon="15.088270000000001">
    <ele>374.98</ele>
   </trkpt>
   <trkpt lat="46.367540000000005" lon="15.088640000000002">
    <ele>374.19</ele>
   </trkpt>
   <trkpt lat="46.36742" lon="15.08867">
    <ele>373.69</ele>
   </trkpt>
   <trkpt lat="46.367360000000005" lon="15.08866">
    <ele>373.49</ele>
   </trkpt>
   <trkpt lat="46.367230000000006" lon="15.088630000000002">
    <ele>373.45</ele>
   </trkpt>
   <trkpt lat="46.367090000000005" lon="15.08853">
    <ele>374.18</ele>
   </trkpt>
   <trkpt lat="46.36692" lon="15.08852">
    <ele>374.61000000000007</ele>
   </trkpt>
   <trkpt lat="46.3663900001074" lon="15.088660001352517">
    <ele>374.95</ele>
   </trkpt>
   <trkpt lat="46.365860000000005" lon="15.0888">
    <ele>375.87</ele>
   </trkpt>
   <trkpt lat="46.36567" lon="15.088890000000001">
    <ele>376.32000000000005</ele>
   </trkpt>
   <trkpt lat="46.36529" lon="15.089150000000002">
    <ele>376.42</ele>
   </trkpt>
   <trkpt lat="46.36506000000001" lon="15.08942">
    <ele>376.28</ele>
   </trkpt>
   <trkpt lat="46.36504" lon="15.089400000000001">
    <ele>376.33000000000004</ele>
   </trkpt>
   <trkpt lat="46.36482" lon="15.0889">
    <ele>377.43000000000006</ele>
   </trkpt>
   <trkpt lat="46.36482" lon="15.088780000000002">
    <ele>377.48</ele>
   </trkpt>
   <trkpt lat="46.364790000000006" lon="15.088750000000001">
    <ele>377.48</ele>
   </trkpt>
   <trkpt lat="46.36473" lon="15.08876">
    <ele>377.78</ele>
   </trkpt>
   <trkpt lat="46.36433500323317" lon="15.087899993802964">
    <ele>379.26000000000005</ele>
   </trkpt>
   <trkpt lat="46.36394000000001" lon="15.087040000000002">
    <ele>381.37000000000006</ele>
   </trkpt>
   <trkpt lat="46.36383000000001" lon="15.08689">
    <ele>381.55000000000007</ele>
   </trkpt>
   <trkpt lat="46.36372" lon="15.08679">
    <ele>381.90000000000003</ele>
   </trkpt>
   <trkpt lat="46.363550000000004" lon="15.086710000000002">
    <ele>381.90000000000003</ele>
   </trkpt>
   <trkpt lat="46.363330000000005" lon="15.08665">
    <ele>382.83</ele>
   </trkpt>
   <trkpt lat="46.36303" lon="15.086450000000001">
    <ele>383.67</ele>
   </trkpt>
   <trkpt lat="46.362840000000006" lon="15.086160000000001">
    <ele>384.04</ele>
   </trkpt>
   <trkpt lat="46.362550000000006" lon="15.085650000000001">
    <ele>385.24</ele>
   </trkpt>
   <trkpt lat="46.36247" lon="15.085540000000002">
    <ele>385.70000000000005</ele>
   </trkpt>
   <trkpt lat="46.36227" lon="15.085450000000002">
    <ele>386.02000000000004</ele>
   </trkpt>
   <trkpt lat="46.36218" lon="15.085440000000002">
    <ele>386.02000000000004</ele>
   </trkpt>
   <trkpt lat="46.362100000000005" lon="15.085410000000001">
    <ele>386.02000000000004</ele>
   </trkpt>
   <trkpt lat="46.361940000000004" lon="15.085270000000001">
    <ele>386.90000000000003</ele>
   </trkpt>
   <trkpt lat="46.36196" lon="15.08529">
    <ele>386.85</ele>
   </trkpt>
   <trkpt lat="46.361830000000005" lon="15.085650000000001">
    <ele>391.16</ele>
   </trkpt>
   <trkpt lat="46.36189" lon="15.086050000000002">
    <ele>399.35</ele>
   </trkpt>
   <trkpt lat="46.361920000000005" lon="15.08642">
    <ele>403.46000000000004</ele>
   </trkpt>
   <trkpt lat="46.361900000000006" lon="15.08683">
    <ele>413.7</ele>
   </trkpt>
   <trkpt lat="46.36182" lon="15.087180000000002">
    <ele>417.59000000000003</ele>
   </trkpt>
   <trkpt lat="46.361760000000004" lon="15.08735">
    <ele>421.55</ele>
   </trkpt>
   <trkpt lat="46.361740000000005" lon="15.087530000000001">
    <ele>421.55</ele>
   </trkpt>
   <trkpt lat="46.361790000000006" lon="15.08773">
    <ele>425.33000000000004</ele>
   </trkpt>
   <trkpt lat="46.3618" lon="15.087850000000001">
    <ele>426.15000000000003</ele>
   </trkpt>
   <trkpt lat="46.36178" lon="15.088120000000002">
    <ele>427.51000000000005</ele>
   </trkpt>
   <trkpt lat="46.361720000000005" lon="15.088180000000001">
    <ele>427.32000000000005</ele>
   </trkpt>
   <trkpt lat="46.361540000000005" lon="15.08825">
    <ele>428.48</ele>
   </trkpt>
   <trkpt lat="46.36146" lon="15.088260000000002">
    <ele>431.04</ele>
   </trkpt>
   <trkpt lat="46.361290000000004" lon="15.088230000000001">
    <ele>432.47</ele>
   </trkpt>
   <trkpt lat="46.36128" lon="15.08834">
    <ele>434.28000000000003</ele>
   </trkpt>
   <trkpt lat="46.361110000000004" lon="15.088580000000002">
    <ele>437.32000000000005</ele>
   </trkpt>
   <trkpt lat="46.36095" lon="15.08872">
    <ele>442.70000000000005</ele>
   </trkpt>
   <trkpt lat="46.360910000000004" lon="15.08872">
    <ele>442.70000000000005</ele>
   </trkpt>
   <trkpt lat="46.36086" lon="15.0888">
    <ele>445.29</ele>
   </trkpt>
   <trkpt lat="46.360730000000004" lon="15.08885">
    <ele>449.32000000000005</ele>
   </trkpt>
   <trkpt lat="46.36056000000001" lon="15.088730000000002">
    <ele>453.95</ele>
   </trkpt>
   <trkpt lat="46.360530000000004" lon="15.088650000000001">
    <ele>453.95</ele>
   </trkpt>
   <trkpt lat="46.36025" lon="15.088300000000002">
    <ele>465.64000000000004</ele>
   </trkpt>
   <trkpt lat="46.36012" lon="15.088410000000001">
    <ele>468.35</ele>
   </trkpt>
   <trkpt lat="46.35998000000001" lon="15.088400000000002">
    <ele>469.30000000000007</ele>
   </trkpt>
   <trkpt lat="46.35992" lon="15.088320000000001">
    <ele>472.26</ele>
   </trkpt>
   <trkpt lat="46.35985" lon="15.088350000000002">
    <ele>476.31000000000006</ele>
   </trkpt>
   <trkpt lat="46.35978" lon="15.08843">
    <ele>476.31000000000006</ele>
   </trkpt>
   <trkpt lat="46.359750000000005" lon="15.088540000000002">
    <ele>480.16</ele>
   </trkpt>
   <trkpt lat="46.359440000000006" lon="15.089010000000002">
    <ele>492.56000000000006</ele>
   </trkpt>
   <trkpt lat="46.35924000000001" lon="15.089170000000001">
    <ele>498.87</ele>
   </trkpt>
   <trkpt lat="46.35918" lon="15.089190000000002">
    <ele>500.38000000000005</ele>
   </trkpt>
   <trkpt lat="46.35913" lon="15.089250000000002">
    <ele>503.5200000000001</ele>
   </trkpt>
   <trkpt lat="46.359030000000004" lon="15.089290000000002">
    <ele>507.68</ele>
   </trkpt>
   <trkpt lat="46.358940000000004" lon="15.089300000000001">
    <ele>507.68</ele>
   </trkpt>
   <trkpt lat="46.35886000000001" lon="15.089360000000001">
    <ele>511.59</ele>
   </trkpt>
   <trkpt lat="46.358520000000006" lon="15.089820000000001">
    <ele>522.7900000000001</ele>
   </trkpt>
   <trkpt lat="46.35830000000001" lon="15.090240000000001">
    <ele>526.45</ele>
   </trkpt>
   <trkpt lat="46.35808" lon="15.090470000000002">
    <ele>526.52</ele>
   </trkpt>
   <trkpt lat="46.35802" lon="15.090750000000002">
    <ele>528.0100000000001</ele>
   </trkpt>
   <trkpt lat="46.357730000000004" lon="15.091410000000002">
    <ele>532.6800000000001</ele>
   </trkpt>
   <trkpt lat="46.3577" lon="15.091380000000001">
    <ele>535.13</ele>
   </trkpt>
   <trkpt lat="46.35779" lon="15.092400000000001">
    <ele>523.6800000000001</ele>
   </trkpt>
   <trkpt lat="46.357730000000004" lon="15.092490000000002">
    <ele>522.33</ele>
   </trkpt>
   <trkpt lat="46.35755" lon="15.092600000000001">
    <ele>519.72</ele>
   </trkpt>
   <trkpt lat="46.35757" lon="15.092780000000001">
    <ele>518.02</ele>
   </trkpt>
   <trkpt lat="46.35743" lon="15.093300000000001">
    <ele>511.58000000000004</ele>
   </trkpt>
   <trkpt lat="46.35741" lon="15.093610000000002">
    <ele>509.5200000000001</ele>
   </trkpt>
   <trkpt lat="46.35746" lon="15.09383">
    <ele>510.85</ele>
   </trkpt>
   <trkpt lat="46.35739" lon="15.093980000000002">
    <ele>515.07</ele>
   </trkpt>
   <trkpt lat="46.35734" lon="15.094170000000002">
    <ele>517.4000000000001</ele>
   </trkpt>
   <trkpt lat="46.357260000000004" lon="15.094320000000002">
    <ele>523.25</ele>
   </trkpt>
   <trkpt lat="46.35719" lon="15.09467">
    <ele>533.84</ele>
   </trkpt>
   <trkpt lat="46.35719" lon="15.094830000000002">
    <ele>537.2600000000001</ele>
   </trkpt>
   <trkpt lat="46.35728" lon="15.09524">
    <ele>543.61</ele>
   </trkpt>
   <trkpt lat="46.35732" lon="15.095830000000001">
    <ele>539.91</ele>
   </trkpt>
   <trkpt lat="46.357260000000004" lon="15.09617">
    <ele>540.9900000000001</ele>
   </trkpt>
   <trkpt lat="46.357150000000004" lon="15.096610000000002">
    <ele>543.48</ele>
   </trkpt>
   <trkpt lat="46.35705" lon="15.096750000000002">
    <ele>541.46</ele>
   </trkpt>
   <trkpt lat="46.35694" lon="15.096840000000002">
    <ele>541.33</ele>
   </trkpt>
   <trkpt lat="46.356550000000006" lon="15.097430000000001">
    <ele>539.2</ele>
   </trkpt>
   <trkpt lat="46.356350000000006" lon="15.09786">
    <ele>536.79</ele>
   </trkpt>
   <trkpt lat="46.35631" lon="15.097940000000001">
    <ele>538.5500000000001</ele>
   </trkpt>
   <trkpt lat="46.356100000000005" lon="15.09814">
    <ele>539.0200000000001</ele>
   </trkpt>
   <trkpt lat="46.356080000000006" lon="15.098320000000001">
    <ele>537.15</ele>
   </trkpt>
   <trkpt lat="46.35595000000001" lon="15.09847">
    <ele>533.59</ele>
   </trkpt>
   <trkpt lat="46.35595000000001" lon="15.098640000000001">
    <ele>532.95</ele>
   </trkpt>
   <trkpt lat="46.355810000000005" lon="15.098820000000002">
    <ele>532.95</ele>
   </trkpt>
   <trkpt lat="46.355740000000004" lon="15.099020000000001">
    <ele>532.0100000000001</ele>
   </trkpt>
   <trkpt lat="46.35575" lon="15.098980000000001">
    <ele>532.2</ele>
   </trkpt>
   <trkpt lat="46.355740000000004" lon="15.099020000000001">
    <ele>532.12</ele>
   </trkpt>
   <trkpt lat="46.355760000000004" lon="15.099190000000002">
    <ele>531.0100000000001</ele>
   </trkpt>
   <trkpt lat="46.355920000000005" lon="15.099520000000002">
    <ele>523.33</ele>
   </trkpt>
   <trkpt lat="46.35605" lon="15.099700000000002">
    <ele>519.7</ele>
   </trkpt>
   <trkpt lat="46.35627" lon="15.099700000000002">
    <ele>514.5600000000001</ele>
   </trkpt>
   <trkpt lat="46.35642000000001" lon="15.09955">
    <ele>511.25000000000006</ele>
   </trkpt>
   <trkpt lat="46.35696" lon="15.099260000000001">
    <ele>502.96000000000004</ele>
   </trkpt>
   <trkpt lat="46.35708" lon="15.09922">
    <ele>502.96000000000004</ele>
   </trkpt>
   <trkpt lat="46.35717" lon="15.09932">
    <ele>499.43</ele>
   </trkpt>
   <trkpt lat="46.35721" lon="15.099870000000001">
    <ele>489.04</ele>
   </trkpt>
   <trkpt lat="46.357220000000005" lon="15.100430000000001">
    <ele>474.23</ele>
   </trkpt>
   <trkpt lat="46.35725" lon="15.100810000000001">
    <ele>466.32</ele>
   </trkpt>
   <trkpt lat="46.357330000000005" lon="15.10096">
    <ele>458.92</ele>
   </trkpt>
   <trkpt lat="46.357350000000004" lon="15.101210000000002">
    <ele>453.34000000000003</ele>
   </trkpt>
   <trkpt lat="46.35717" lon="15.101490000000002">
    <ele>447.86</ele>
   </trkpt>
   <trkpt lat="46.35714" lon="15.10161">
    <ele>446.27000000000004</ele>
   </trkpt>
   <trkpt lat="46.35727000000001" lon="15.101780000000002">
    <ele>445.29</ele>
   </trkpt>
   <trkpt lat="46.357420000000005" lon="15.101780000000002">
    <ele>444.76000000000005</ele>
   </trkpt>
   <trkpt lat="46.35768" lon="15.101750000000001">
    <ele>445.19</ele>
   </trkpt>
   <trkpt lat="46.35799" lon="15.101840000000001">
    <ele>447.71000000000004</ele>
   </trkpt>
   <trkpt lat="46.3581" lon="15.101980000000001">
    <ele>447.79</ele>
   </trkpt>
   <trkpt lat="46.3581" lon="15.10199">
    <ele>447.77000000000004</ele>
   </trkpt>
   <trkpt lat="46.35813" lon="15.102020000000001">
    <ele>447.76000000000005</ele>
   </trkpt>
   <trkpt lat="46.358200000000004" lon="15.10228">
    <ele>447.08000000000004</ele>
   </trkpt>
   <trkpt lat="46.358140000000006" lon="15.102480000000002">
    <ele>446.89</ele>
   </trkpt>
   <trkpt lat="46.357820000000004" lon="15.10279">
    <ele>447.00000000000006</ele>
   </trkpt>
   <trkpt lat="46.357730000000004" lon="15.102920000000001">
    <ele>446.1</ele>
   </trkpt>
   <trkpt lat="46.35804" lon="15.10321">
    <ele>443.47</ele>
   </trkpt>
   <trkpt lat="46.35817" lon="15.103530000000001">
    <ele>442.38000000000005</ele>
   </trkpt>
   <trkpt lat="46.358320000000006" lon="15.103790000000002">
    <ele>441.00000000000006</ele>
   </trkpt>
   <trkpt lat="46.358340000000005" lon="15.10406">
    <ele>439.29</ele>
   </trkpt>
   <trkpt lat="46.358230000000006" lon="15.104440000000002">
    <ele>434.38000000000005</ele>
   </trkpt>
   <trkpt lat="46.35822" lon="15.104560000000001">
    <ele>432.03000000000003</ele>
   </trkpt>
   <trkpt lat="46.35839000000001" lon="15.104880000000001">
    <ele>425.77000000000004</ele>
   </trkpt>
   <trkpt lat="46.358430000000006" lon="15.105520000000002">
    <ele>415.67</ele>
   </trkpt>
   <trkpt lat="46.358380000000004" lon="15.105950000000002">
    <ele>408.7</ele>
   </trkpt>
   <trkpt lat="46.35830000000001" lon="15.106230000000002">
    <ele>404.98</ele>
   </trkpt>
   <trkpt lat="46.358200000000004" lon="15.106470000000002">
    <ele>401.71</ele>
   </trkpt>
   <trkpt lat="46.35815" lon="15.106810000000001">
    <ele>394.62</ele>
   </trkpt>
   <trkpt lat="46.35819" lon="15.106880000000002">
    <ele>393.52000000000004</ele>
   </trkpt>
   <trkpt lat="46.358360000000005" lon="15.10692">
    <ele>392.95</ele>
   </trkpt>
   <trkpt lat="46.358380000000004" lon="15.106940000000002">
    <ele>392.98</ele>
   </trkpt>
   <trkpt lat="46.35824" lon="15.107840000000001">
    <ele>392.61</ele>
   </trkpt>
   <trkpt lat="46.35822" lon="15.108150000000002">
    <ele>391.16</ele>
   </trkpt>
   <trkpt lat="46.35804" lon="15.109010000000001">
    <ele>392.55</ele>
   </trkpt>
   <trkpt lat="46.35793" lon="15.109820000000001">
    <ele>392.57000000000005</ele>
   </trkpt>
   <trkpt lat="46.357490000000006" lon="15.110660000000001">
    <ele>392.89</ele>
   </trkpt>
   <trkpt lat="46.35736000000001" lon="15.111120000000001">
    <ele>393.05</ele>
   </trkpt>
   <trkpt lat="46.35734" lon="15.11138">
    <ele>393.09000000000003</ele>
   </trkpt>
   <trkpt lat="46.357310000000005" lon="15.11133">
    <ele>393.25000000000006</ele>
   </trkpt>
   <trkpt lat="46.35716" lon="15.111340000000002">
    <ele>394.26000000000005</ele>
   </trkpt>
   <trkpt lat="46.3569" lon="15.11147">
    <ele>400.07000000000005</ele>
   </trkpt>
   <trkpt lat="46.35674" lon="15.111600000000001">
    <ele>404.18</ele>
   </trkpt>
   <trkpt lat="46.35661" lon="15.11143">
    <ele>408.65</ele>
   </trkpt>
   <trkpt lat="46.35662000000001" lon="15.111410000000001">
    <ele>408.65</ele>
   </trkpt>
   <trkpt lat="46.356750000000005" lon="15.11143">
    <ele>408.65</ele>
   </trkpt>
   <trkpt lat="46.356750000000005" lon="15.111400000000001">
    <ele>414.99</ele>
   </trkpt>
   <trkpt lat="46.35665" lon="15.111290000000002">
    <ele>414.99</ele>
   </trkpt>
   <trkpt lat="46.35665" lon="15.111270000000001">
    <ele>414.99</ele>
   </trkpt>
   <trkpt lat="46.356730000000006" lon="15.11128">
    <ele>419.30000000000007</ele>
   </trkpt>
   <trkpt lat="46.35674" lon="15.111260000000001">
    <ele>419.30000000000007</ele>
   </trkpt>
   <trkpt lat="46.35661" lon="15.11091">
    <ele>426.88000000000005</ele>
   </trkpt>
   <trkpt lat="46.35649" lon="15.110400000000002">
    <ele>437.34000000000003</ele>
   </trkpt>
   <trkpt lat="46.35642000000001" lon="15.110180000000001">
    <ele>441.22</ele>
   </trkpt>
   <trkpt lat="46.35642000000001" lon="15.110120000000002">
    <ele>441.27000000000004</ele>
   </trkpt>
   <trkpt lat="46.35645" lon="15.110050000000001">
    <ele>441.24</ele>
   </trkpt>
   <trkpt lat="46.356350000000006" lon="15.109950000000001">
    <ele>443.74</ele>
   </trkpt>
   <trkpt lat="46.356370000000005" lon="15.109820000000001">
    <ele>445.62</ele>
   </trkpt>
   <trkpt lat="46.356320000000004" lon="15.109810000000001">
    <ele>445.70000000000005</ele>
   </trkpt>
   <trkpt lat="46.35615000000001" lon="15.109670000000001">
    <ele>445.76000000000005</ele>
   </trkpt>
   <trkpt lat="46.356100000000005" lon="15.109760000000001">
    <ele>445.76000000000005</ele>
   </trkpt>
   <trkpt lat="46.355940000000004" lon="15.109810000000001">
    <ele>445.67</ele>
   </trkpt>
   <trkpt lat="46.355760000000004" lon="15.109760000000001">
    <ele>445.24</ele>
   </trkpt>
   <trkpt lat="46.35564" lon="15.109770000000001">
    <ele>444.61000000000007</ele>
   </trkpt>
   <trkpt lat="46.35557000000001" lon="15.109760000000001">
    <ele>444.64000000000004</ele>
   </trkpt>
   <trkpt lat="46.35539000000001" lon="15.109670000000001">
    <ele>444.83000000000004</ele>
   </trkpt>
   <trkpt lat="46.35535" lon="15.109760000000001">
    <ele>444.84000000000003</ele>
   </trkpt>
   <trkpt lat="46.35524" lon="15.10974">
    <ele>446.40000000000003</ele>
   </trkpt>
   <trkpt lat="46.35512000000001" lon="15.109800000000002">
    <ele>447.15000000000003</ele>
   </trkpt>
   <trkpt lat="46.35511" lon="15.109810000000001">
    <ele>447.15000000000003</ele>
   </trkpt>
   <trkpt lat="46.35512000000001" lon="15.109790000000002">
    <ele>447.1</ele>
   </trkpt>
   <trkpt lat="46.355090000000004" lon="15.109890000000002">
    <ele>447.39</ele>
   </trkpt>
   <trkpt lat="46.354960000000005" lon="15.11063">
    <ele>452.58000000000004</ele>
   </trkpt>
   <trkpt lat="46.3549" lon="15.110830000000002">
    <ele>453.33</ele>
   </trkpt>
   <trkpt lat="46.35483000000001" lon="15.110970000000002">
    <ele>453.52000000000004</ele>
   </trkpt>
   <trkpt lat="46.35479" lon="15.111220000000001">
    <ele>452.90000000000003</ele>
   </trkpt>
   <trkpt lat="46.3549" lon="15.111360000000001">
    <ele>450.97</ele>
   </trkpt>
   <trkpt lat="46.355070000000005" lon="15.111440000000002">
    <ele>448.37000000000006</ele>
   </trkpt>
   <trkpt lat="46.3552" lon="15.11142">
    <ele>448.37000000000006</ele>
   </trkpt>
   <trkpt lat="46.35533" lon="15.111340000000002">
    <ele>439.45000000000005</ele>
   </trkpt>
   <trkpt lat="46.355360000000005" lon="15.11142">
    <ele>439.45000000000005</ele>
   </trkpt>
   <trkpt lat="46.355340000000005" lon="15.11151">
    <ele>437.56000000000006</ele>
   </trkpt>
   <trkpt lat="46.35524" lon="15.111630000000002">
    <ele>437.56000000000006</ele>
   </trkpt>
   <trkpt lat="46.35508" lon="15.111900000000002">
    <ele>432.25</ele>
   </trkpt>
   <trkpt lat="46.35506" lon="15.112020000000001">
    <ele>428.92</ele>
   </trkpt>
   <trkpt lat="46.355090000000004" lon="15.11213">
    <ele>427.2</ele>
   </trkpt>
   <trkpt lat="46.3554" lon="15.112300000000001">
    <ele>420.89000000000004</ele>
   </trkpt>
   <trkpt lat="46.35611" lon="15.112430000000002">
    <ele>412.11</ele>
   </trkpt>
   <trkpt lat="46.35629" lon="15.112570000000002">
    <ele>410.33000000000004</ele>
   </trkpt>
   <trkpt lat="46.356320000000004" lon="15.11264">
    <ele>409.29</ele>
   </trkpt>
   <trkpt lat="46.35627" lon="15.11278">
    <ele>407.74000000000007</ele>
   </trkpt>
   <trkpt lat="46.356120000000004" lon="15.112910000000001">
    <ele>403.94</ele>
   </trkpt>
   <trkpt lat="46.355720000000005" lon="15.113130000000002">
    <ele>399.37000000000006</ele>
   </trkpt>
   <trkpt lat="46.355630000000005" lon="15.113310000000002">
    <ele>396.96000000000004</ele>
   </trkpt>
   <trkpt lat="46.35553" lon="15.113290000000001">
    <ele>397.14000000000004</ele>
   </trkpt>
   <trkpt lat="46.355560000000004" lon="15.113360000000002">
    <ele>396.9800000000001</ele>
   </trkpt>
   <trkpt lat="46.35566" lon="15.11339">
    <ele>396.58000000000004</ele>
   </trkpt>
   <trkpt lat="46.355830000000005" lon="15.11339">
    <ele>396.58000000000004</ele>
   </trkpt>
   <trkpt lat="46.355990000000006" lon="15.113360000000002">
    <ele>395.88</ele>
   </trkpt>
   <trkpt lat="46.35629" lon="15.113240000000001">
    <ele>395.23</ele>
   </trkpt>
   <trkpt lat="46.35658" lon="15.112960000000001">
    <ele>394.36</ele>
   </trkpt>
   <trkpt lat="46.356680000000004" lon="15.112840000000002">
    <ele>394.36</ele>
   </trkpt>
   <trkpt lat="46.35678" lon="15.11278">
    <ele>394.05</ele>
   </trkpt>
   <trkpt lat="46.356840000000005" lon="15.112770000000001">
    <ele>394.05</ele>
   </trkpt>
   <trkpt lat="46.35687" lon="15.11255">
    <ele>393.76000000000005</ele>
   </trkpt>
   <trkpt lat="46.35696" lon="15.112510000000002">
    <ele>393.67</ele>
   </trkpt>
   <trkpt lat="46.35701" lon="15.112390000000001">
    <ele>393.43000000000006</ele>
   </trkpt>
   <trkpt lat="46.35714" lon="15.112330000000002">
    <ele>393.13000000000005</ele>
   </trkpt>
   <trkpt lat="46.35721" lon="15.112200000000001">
    <ele>391.72</ele>
   </trkpt>
   <trkpt lat="46.357380000000006" lon="15.112290000000002">
    <ele>391.57</ele>
   </trkpt>
   <trkpt lat="46.35741" lon="15.112300000000001">
    <ele>391.57</ele>
   </trkpt>
   <trkpt lat="46.357490000000006" lon="15.11203">
    <ele>392.77</ele>
   </trkpt>
   <trkpt lat="46.357440000000004" lon="15.112300000000001">
    <ele>393.18</ele>
   </trkpt>
   <trkpt lat="46.357440000000004" lon="15.112490000000001">
    <ele>393.44</ele>
   </trkpt>
   <trkpt lat="46.357470000000006" lon="15.112670000000001">
    <ele>393.6</ele>
   </trkpt>
   <trkpt lat="46.35756000000001" lon="15.11288">
    <ele>393.71000000000004</ele>
   </trkpt>
   <trkpt lat="46.35772" lon="15.113140000000001">
    <ele>393.97</ele>
   </trkpt>
   <trkpt lat="46.357910000000004" lon="15.113780000000002">
    <ele>394.03000000000003</ele>
   </trkpt>
   <trkpt lat="46.35799" lon="15.11386">
    <ele>394.11</ele>
   </trkpt>
   <trkpt lat="46.35801000000001" lon="15.11396">
    <ele>394.11</ele>
   </trkpt>
   <trkpt lat="46.3586" lon="15.113650000000002">
    <ele>393.17</ele>
   </trkpt>
   <trkpt lat="46.35866" lon="15.11381">
    <ele>392.98</ele>
   </trkpt>
   <trkpt lat="46.359100000000005" lon="15.113550000000002">
    <ele>392.77</ele>
   </trkpt>
   <trkpt lat="46.359350000000006" lon="15.114550000000001">
    <ele>390.88</ele>
   </trkpt>
   <trkpt lat="46.35954" lon="15.115050000000002">
    <ele>392.01</ele>
   </trkpt>
   <trkpt lat="46.35971000000001" lon="15.115000000000002">
    <ele>392.52000000000004</ele>
   </trkpt>
   <trkpt lat="46.36009000000001" lon="15.115190000000002">
    <ele>394.06</ele>
   </trkpt>
   <trkpt lat="46.360200000000006" lon="15.11517">
    <ele>394.55</ele>
   </trkpt>
   <trkpt lat="46.36037" lon="15.11578">
    <ele>394.38</ele>
   </trkpt>
   <trkpt lat="46.36037" lon="15.115800000000002">
    <ele>394.37000000000006</ele>
   </trkpt>
   <trkpt lat="46.36045000000001" lon="15.11574">
    <ele>394.28000000000003</ele>
   </trkpt>
   <trkpt lat="46.360640000000004" lon="15.11536">
    <ele>394.03000000000003</ele>
   </trkpt>
   <trkpt lat="46.3607" lon="15.11532">
    <ele>394.03000000000003</ele>
   </trkpt>
   <trkpt lat="46.360780000000005" lon="15.115440000000001">
    <ele>394.16</ele>
   </trkpt>
   <trkpt lat="46.36099" lon="15.115540000000001">
    <ele>394.49</ele>
   </trkpt>
   <trkpt lat="46.36104" lon="15.115520000000002">
    <ele>394.49</ele>
   </trkpt>
   <trkpt lat="46.36130000000001" lon="15.115240000000002">
    <ele>394.78000000000003</ele>
   </trkpt>
   <trkpt lat="46.36150000000001" lon="15.115140000000002">
    <ele>394.89</ele>
   </trkpt>
   <trkpt lat="46.361720000000005" lon="15.114600000000001">
    <ele>395.18</ele>
   </trkpt>
   <trkpt lat="46.36186000000001" lon="15.11419">
    <ele>395.21</ele>
   </trkpt>
   <trkpt lat="46.362300000000005" lon="15.114500000000001">
    <ele>395.5400000000001</ele>
   </trkpt>
   <trkpt lat="46.36242000000001" lon="15.11466">
    <ele>395.74</ele>
   </trkpt>
   <trkpt lat="46.36251" lon="15.11462">
    <ele>395.39</ele>
   </trkpt>
   <trkpt lat="46.362570000000005" lon="15.114980000000001">
    <ele>395.99</ele>
   </trkpt>
   <trkpt lat="46.36267" lon="15.115010000000002">
    <ele>397.75000000000006</ele>
   </trkpt>
   <trkpt lat="46.36325" lon="15.115300000000001">
    <ele>399.81000000000006</ele>
   </trkpt>
   <trkpt lat="46.36328" lon="15.115150000000002">
    <ele>400.32</ele>
   </trkpt>
   <trkpt lat="46.363800000000005" lon="15.11536">
    <ele>402.77</ele>
   </trkpt>
   <trkpt lat="46.36397" lon="15.115400000000001">
    <ele>404.86000000000007</ele>
   </trkpt>
   <trkpt lat="46.36417" lon="15.114650000000001">
    <ele>404.56</ele>
   </trkpt>
   <trkpt lat="46.36422" lon="15.11429">
    <ele>404.08000000000004</ele>
   </trkpt>
   <trkpt lat="46.36426" lon="15.11349">
    <ele>403.84000000000003</ele>
   </trkpt>
   <trkpt lat="46.364290000000004" lon="15.113430000000001">
    <ele>403.84000000000003</ele>
   </trkpt>
   <trkpt lat="46.364360000000005" lon="15.113360000000002">
    <ele>403.64000000000004</ele>
   </trkpt>
   <trkpt lat="46.364380000000004" lon="15.113230000000001">
    <ele>403.47</ele>
   </trkpt>
   <trkpt lat="46.36473" lon="15.113290000000001">
    <ele>404.73</ele>
   </trkpt>
   <trkpt lat="46.365410000000004" lon="15.113410000000002">
    <ele>407.18</ele>
   </trkpt>
   <trkpt lat="46.365840000000006" lon="15.11382">
    <ele>413.61</ele>
   </trkpt>
   <trkpt lat="46.365860000000005" lon="15.113840000000001">
    <ele>414.05</ele>
   </trkpt>
   <trkpt lat="46.365480000000005" lon="15.1148">
    <ele>414.09000000000003</ele>
   </trkpt>
   <trkpt lat="46.36507" lon="15.115940000000002">
    <ele>414.81</ele>
   </trkpt>
   <trkpt lat="46.36491" lon="15.11625">
    <ele>414.30000000000007</ele>
   </trkpt>
   <trkpt lat="46.365010000000005" lon="15.116380000000001">
    <ele>420.2</ele>
   </trkpt>
   <trkpt lat="46.365010000000005" lon="15.116560000000002">
    <ele>421.61</ele>
   </trkpt>
   <trkpt lat="46.365010000000005" lon="15.116670000000001">
    <ele>422.34000000000003</ele>
   </trkpt>
   <trkpt lat="46.36502" lon="15.116740000000002">
    <ele>423.39000000000004</ele>
   </trkpt>
   <trkpt lat="46.3648" lon="15.11687">
    <ele>422.12000000000006</ele>
   </trkpt>
   <trkpt lat="46.364740000000005" lon="15.11715">
    <ele>423.96000000000004</ele>
   </trkpt>
   <trkpt lat="46.3648" lon="15.117450000000002">
    <ele>427.23</ele>
   </trkpt>
   <trkpt lat="46.36486000000001" lon="15.117650000000001">
    <ele>429.40000000000003</ele>
   </trkpt>
   <trkpt lat="46.36493" lon="15.11776">
    <ele>431.7900000000001</ele>
   </trkpt>
   <trkpt lat="46.36516" lon="15.117820000000002">
    <ele>434.99</ele>
   </trkpt>
   <trkpt lat="46.365390000000005" lon="15.117840000000001">
    <ele>438.41</ele>
   </trkpt>
   <trkpt lat="46.365590000000005" lon="15.117780000000002">
    <ele>440.08000000000004</ele>
   </trkpt>
   <trkpt lat="46.365880000000004" lon="15.11781">
    <ele>443.56</ele>
   </trkpt>
   <trkpt lat="46.366080000000004" lon="15.11771">
    <ele>445.03000000000003</ele>
   </trkpt>
   <trkpt lat="46.36621" lon="15.117650000000001">
    <ele>445.57</ele>
   </trkpt>
   <trkpt lat="46.366310000000006" lon="15.117590000000002">
    <ele>445.71000000000004</ele>
   </trkpt>
   <trkpt lat="46.366420000000005" lon="15.11747">
    <ele>445.29</ele>
   </trkpt>
   <trkpt lat="46.366530000000004" lon="15.117270000000001">
    <ele>444.43000000000006</ele>
   </trkpt>
   <trkpt lat="46.36656000000001" lon="15.117120000000002">
    <ele>443.12</ele>
   </trkpt>
   <trkpt lat="46.366550000000004" lon="15.117080000000001">
    <ele>434.89000000000004</ele>
   </trkpt>
   <trkpt lat="46.366550000000004" lon="15.11705">
    <ele>434.61000000000007</ele>
   </trkpt>
   <trkpt lat="46.36647000000001" lon="15.116880000000002">
    <ele>433.89000000000004</ele>
   </trkpt>
   <trkpt lat="46.3665" lon="15.116740000000002">
    <ele>434.52</ele>
   </trkpt>
   <trkpt lat="46.3665" lon="15.11658">
    <ele>436.22</ele>
   </trkpt>
   <trkpt lat="46.366530000000004" lon="15.116420000000002">
    <ele>436.98</ele>
   </trkpt>
   <trkpt lat="46.36677" lon="15.115450000000001">
    <ele>438.24</ele>
   </trkpt>
   <trkpt lat="46.366870000000006" lon="15.11466">
    <ele>433.79</ele>
   </trkpt>
   <trkpt lat="46.366910000000004" lon="15.114510000000001">
    <ele>433.79</ele>
   </trkpt>
   <trkpt lat="46.36697" lon="15.114400000000002">
    <ele>433.27000000000004</ele>
   </trkpt>
   <trkpt lat="46.36708" lon="15.11428">
    <ele>432.69</ele>
   </trkpt>
   <trkpt lat="46.36735" lon="15.114090000000001">
    <ele>432.42</ele>
   </trkpt>
   <trkpt lat="46.36755" lon="15.114080000000001">
    <ele>433.32000000000005</ele>
   </trkpt>
   <trkpt lat="46.36766" lon="15.113970000000002">
    <ele>433.13</ele>
   </trkpt>
   <trkpt lat="46.36778" lon="15.113690000000002">
    <ele>431.7900000000001</ele>
   </trkpt>
   <trkpt lat="46.36793" lon="15.113470000000001">
    <ele>431.36</ele>
   </trkpt>
   <trkpt lat="46.368300000000005" lon="15.113050000000001">
    <ele>431.78000000000003</ele>
   </trkpt>
   <trkpt lat="46.36853000000001" lon="15.112860000000001">
    <ele>432.50000000000006</ele>
   </trkpt>
   <trkpt lat="46.368790000000004" lon="15.11273">
    <ele>433.37</ele>
   </trkpt>
   <trkpt lat="46.36892" lon="15.112580000000001">
    <ele>434.06000000000006</ele>
   </trkpt>
   <trkpt lat="46.36907" lon="15.11227">
    <ele>435.39000000000004</ele>
   </trkpt>
   <trkpt lat="46.36920000186488" lon="15.11162000142962">
    <ele>437.32000000000005</ele>
   </trkpt>
   <trkpt lat="46.369330000000005" lon="15.110970000000002">
    <ele>436.15000000000003</ele>
   </trkpt>
   <trkpt lat="46.36945" lon="15.11086">
    <ele>435.97</ele>
   </trkpt>
   <trkpt lat="46.36954" lon="15.110850000000001">
    <ele>435.38000000000005</ele>
   </trkpt>
   <trkpt lat="46.370090000000005" lon="15.11091">
    <ele>430.52</ele>
   </trkpt>
   <trkpt lat="46.370470000000005" lon="15.110890000000001">
    <ele>429.05</ele>
   </trkpt>
   <trkpt lat="46.37086" lon="15.110690000000002">
    <ele>429.45000000000005</ele>
   </trkpt>
   <trkpt lat="46.37088000000001" lon="15.110680000000002">
    <ele>429.37</ele>
   </trkpt>
   <trkpt lat="46.37107" lon="15.110550000000002">
    <ele>420.35</ele>
   </trkpt>
   <trkpt lat="46.37104" lon="15.11044">
    <ele>421.05</ele>
   </trkpt>
   <trkpt lat="46.37107" lon="15.110260000000002">
    <ele>421.13000000000005</ele>
   </trkpt>
   <trkpt lat="46.37106000000001" lon="15.10969">
    <ele>421.32</ele>
   </trkpt>
   <trkpt lat="46.371080000000006" lon="15.10945">
    <ele>420.58</ele>
   </trkpt>
   <trkpt lat="46.37106000000001" lon="15.109230000000002">
    <ele>420.46000000000004</ele>
   </trkpt>
   <trkpt lat="46.37107" lon="15.109090000000002">
    <ele>420.59000000000003</ele>
   </trkpt>
   <trkpt lat="46.37113" lon="15.10893">
    <ele>420.95000000000005</ele>
   </trkpt>
   <trkpt lat="46.371230000000004" lon="15.108860000000002">
    <ele>420.83000000000004</ele>
   </trkpt>
   <trkpt lat="46.371280000000006" lon="15.108740000000001">
    <ele>420.64</ele>
   </trkpt>
   <trkpt lat="46.371430000000004" lon="15.108540000000001">
    <ele>419.01000000000005</ele>
   </trkpt>
   <trkpt lat="46.371570000000006" lon="15.108410000000001">
    <ele>416.35</ele>
   </trkpt>
   <trkpt lat="46.37221" lon="15.10818">
    <ele>402.25000000000006</ele>
   </trkpt>
   <trkpt lat="46.3723" lon="15.108100000000002">
    <ele>399.6</ele>
   </trkpt>
   <trkpt lat="46.372440000000005" lon="15.10772">
    <ele>395.5</ele>
   </trkpt>
   <trkpt lat="46.37248" lon="15.107420000000001">
    <ele>394.61</ele>
   </trkpt>
   <trkpt lat="46.37254" lon="15.107210000000002">
    <ele>392.98</ele>
   </trkpt>
   <trkpt lat="46.37256000000001" lon="15.107080000000002">
    <ele>392.07</ele>
   </trkpt>
   <trkpt lat="46.372580000000006" lon="15.106580000000001">
    <ele>390.58000000000004</ele>
   </trkpt>
   <trkpt lat="46.37266" lon="15.106410000000002">
    <ele>389.05</ele>
   </trkpt>
   <trkpt lat="46.37281" lon="15.10626">
    <ele>386.1</ele>
   </trkpt>
   <trkpt lat="46.37294000000001" lon="15.106240000000001">
    <ele>385.39</ele>
   </trkpt>
   <trkpt lat="46.3729" lon="15.105900000000002">
    <ele>384.04</ele>
   </trkpt>
   <trkpt lat="46.373050000000006" lon="15.105640000000001">
    <ele>382.94000000000005</ele>
   </trkpt>
   <trkpt lat="46.373070000000006" lon="15.105580000000002">
    <ele>382.94000000000005</ele>
   </trkpt>
   <trkpt lat="46.373380000000004" lon="15.105310000000001">
    <ele>381.51</ele>
   </trkpt>
   <trkpt lat="46.373520000000006" lon="15.105250000000002">
    <ele>381.51</ele>
   </trkpt>
   <trkpt lat="46.37382" lon="15.105050000000002">
    <ele>380.74</ele>
   </trkpt>
   <trkpt lat="46.373740000000005" lon="15.10443">
    <ele>380.41</ele>
   </trkpt>
   <trkpt lat="46.37369" lon="15.104090000000001">
    <ele>380.18</ele>
   </trkpt>
   <trkpt lat="46.37357" lon="15.10364">
    <ele>380.23</ele>
   </trkpt>
   <trkpt lat="46.373560000000005" lon="15.10349">
    <ele>380.57</ele>
   </trkpt>
   <trkpt lat="46.37369" lon="15.10251">
    <ele>378.1</ele>
   </trkpt>
   <trkpt lat="46.37415000000001" lon="15.102640000000001">
    <ele>376.36</ele>
   </trkpt>
   <trkpt lat="46.374300000000005" lon="15.102610000000002">
    <ele>375.96000000000004</ele>
   </trkpt>
   <trkpt lat="46.37407" lon="15.101970000000001">
    <ele>374.33000000000004</ele>
   </trkpt>
   <trkpt lat="46.37406000000001" lon="15.10106">
    <ele>373.50000000000006</ele>
   </trkpt>
   <trkpt lat="46.37418" lon="15.10072">
    <ele>372.94000000000005</ele>
   </trkpt>
   <trkpt lat="46.37416" lon="15.100460000000002">
    <ele>372.83000000000004</ele>
   </trkpt>
   <trkpt lat="46.37417000000001" lon="15.100340000000001">
    <ele>372.8</ele>
   </trkpt>
   <trkpt lat="46.37424" lon="15.100240000000001">
    <ele>372.83000000000004</ele>
   </trkpt>
   <trkpt lat="46.37438" lon="15.099870000000001">
    <ele>373.13</ele>
   </trkpt>
   <trkpt lat="46.37467" lon="15.099490000000001">
    <ele>372.4</ele>
   </trkpt>
   <trkpt lat="46.37471" lon="15.09932">
    <ele>372.03000000000003</ele>
   </trkpt>
   <trkpt lat="46.37472" lon="15.09876">
    <ele>370.84</ele>
   </trkpt>
   <trkpt lat="46.37472" lon="15.09875">
    <ele>370.84</ele>
   </trkpt>
   <trkpt lat="46.374700000000004" lon="15.09866">
    <ele>370.91</ele>
   </trkpt>
   <trkpt lat="46.37449" lon="15.09824">
    <ele>372.64000000000004</ele>
   </trkpt>
   <trkpt lat="46.37442" lon="15.097980000000002">
    <ele>372.39000000000004</ele>
   </trkpt>
   <trkpt lat="46.374410000000005" lon="15.097320000000002">
    <ele>370.03000000000003</ele>
   </trkpt>
   <trkpt lat="46.37424" lon="15.09716">
    <ele>369.39000000000004</ele>
   </trkpt>
   <trkpt lat="46.374190000000006" lon="15.097050000000001">
    <ele>369.3</ele>
   </trkpt>
   <trkpt lat="46.374140000000004" lon="15.09683">
    <ele>369.45000000000005</ele>
   </trkpt>
   <trkpt lat="46.374030000000005" lon="15.095600000000001">
    <ele>369.85</ele>
   </trkpt>
   <trkpt lat="46.37397000000001" lon="15.095360000000001">
    <ele>369.77000000000004</ele>
   </trkpt>
   <trkpt lat="46.37389" lon="15.09519">
    <ele>369.4</ele>
   </trkpt>
   <trkpt lat="46.37382" lon="15.095110000000002">
    <ele>369.4</ele>
   </trkpt>
   <trkpt lat="46.37370000000001" lon="15.095070000000002">
    <ele>369.23</ele>
   </trkpt>
   <trkpt lat="46.37353" lon="15.095070000000002">
    <ele>369.31</ele>
   </trkpt>
   <trkpt lat="46.373430000000006" lon="15.095030000000001">
    <ele>369.31</ele>
   </trkpt>
   <trkpt lat="46.372800000000005" lon="15.0943">
    <ele>368.79</ele>
   </trkpt>
   <trkpt lat="46.37257" lon="15.094100000000001">
    <ele>368.84000000000003</ele>
   </trkpt>
   <trkpt lat="46.372240000000005" lon="15.093760000000001">
    <ele>369.07</ele>
   </trkpt>
   <trkpt lat="46.372150000000005" lon="15.093570000000001">
    <ele>369.01</ele>
   </trkpt>
   <trkpt lat="46.372110000000006" lon="15.093380000000002">
    <ele>369.03000000000003</ele>
   </trkpt>
   <trkpt lat="46.37212" lon="15.092760000000002">
    <ele>369.57</ele>
   </trkpt>
   <trkpt lat="46.37209000000001" lon="15.092600000000001">
    <ele>369.57</ele>
   </trkpt>
   <trkpt lat="46.371880000000004" lon="15.092110000000002">
    <ele>370.39000000000004</ele>
   </trkpt>
   <trkpt lat="46.37153000000001" lon="15.091450000000002">
    <ele>370.22</ele>
   </trkpt>
   <trkpt lat="46.3714" lon="15.091320000000001">
    <ele>369.94000000000005</ele>
   </trkpt>
   <trkpt lat="46.37126000000001" lon="15.09125">
    <ele>369.71000000000004</ele>
   </trkpt>
   <trkpt lat="46.37091" lon="15.091120000000002">
    <ele>369.24</ele>
   </trkpt>
   <trkpt lat="46.3708" lon="15.09106">
    <ele>369.54</ele>
   </trkpt>
   <trkpt lat="46.3706" lon="15.090910000000001">
    <ele>369.79</ele>
   </trkpt>
   <trkpt lat="46.370610000000006" lon="15.090600000000002">
    <ele>369.44000000000005</ele>
   </trkpt>
   <trkpt lat="46.37059000000001" lon="15.090380000000001">
    <ele>369.44000000000005</ele>
   </trkpt>
   <trkpt lat="46.370520000000006" lon="15.090190000000002">
    <ele>369.42</ele>
   </trkpt>
   <trkpt lat="46.3703" lon="15.08979">
    <ele>369.55</ele>
   </trkpt>
   <trkpt lat="46.37023000000001" lon="15.08956">
    <ele>369.55</ele>
   </trkpt>
   <trkpt lat="46.37015" lon="15.08941">
    <ele>369.73</ele>
   </trkpt>
   <trkpt lat="46.370140000000006" lon="15.089260000000001">
    <ele>369.79</ele>
   </trkpt>
   <trkpt lat="46.36988" lon="15.08867">
    <ele>372.1</ele>
   </trkpt>
   <trkpt lat="46.36979" lon="15.088400000000002">
    <ele>372.51</ele>
   </trkpt>
   <trkpt lat="46.36972" lon="15.08792">
    <ele>372.9</ele>
   </trkpt>
   <trkpt lat="46.369640000000004" lon="15.087110000000001">
    <ele>372.94000000000005</ele>
   </trkpt>
   <trkpt lat="46.36966" lon="15.08683">
    <ele>372.93</ele>
   </trkpt>
   <trkpt lat="46.369440000000004" lon="15.086730000000001">
    <ele>373.14000000000004</ele>
   </trkpt>
  </trkseg>
 </trk>
</gpx>
