<?xml version="1.0" encoding="UTF-8"?>
<gpx creator="StravaGPX" version="1.1" xmlns="http://www.topografix.com/GPX/1/1" xmlns:xsi="http://www.w3.org/2001/XMLSchema-instance" xsi:schemaLocation="http://www.topografix.com/GPX/1/1 http://www.topografix.com/GPX/1/1/gpx.xsd">
 <metadata>
  <name>Velenje trail - Pozoj 2025</name>
  <desc>Velenje trail - Kratka trasa za tekače ter pohodnike.</desc>
  <author>
   <name>Marko Krenker Ⓥ</name>
   <link href="https://www.strava.com/athletes/10359675"/>
  </author>
  <copyright author="OpenStreetMap contributors">
   <year>2020</year>
   <license>https://www.openstreetmap.org/copyright</license>
  </copyright>
  <link href="https://www.strava.com/routes/3269422357392872614"/>
 </metadata>
 <wpt lat="46.38558" lon="15.10158">
  <name>Prečkanje ceste</name>
  <desc></desc>
  <sym>Alert</sym>
  <type>Alert</type>
 </wpt>
 <wpt lat="46.39852" lon="15.1043">
  <name>Okrepna Lubela</name>
  <desc></desc>
  <sym>Aid Station</sym>
  <type>Aid Station</type>
 </wpt>
 <wpt lat="46.39128" lon="15.11987">
  <name>Prečkanje ceste</name>
  <desc></desc>
  <sym>Alert</sym>
  <type>Alert</type>
 </wpt>
 <wpt lat="46.38289" lon="15.13622">
  <name>Okrepna Šenbric</name>
  <desc></desc>
  <sym>Aid Station</sym>
  <type>Aid Station</type>
 </wpt>
 <wpt lat="46.36998" lon="15.12269">
  <name>Prečkanje Križišča</name>
  <desc></desc>
  <sym>Alert</sym>
  <type>Alert</type>
 </wpt>
 <wpt lat="46.37286" lon="15.1064">
  <name>Prečkanje ceste</name>
  <desc></desc>
  <sym>Alert</sym>
  <type>Alert</type>
 </wpt>
 <trk>
  <name>Velenje trail - Pozoj 2025</name>
  <desc>Velenje trail - Kratka trasa za tekače ter pohodnike.</desc>
  <link href="https://www.strava.com/routes/3269422357392872614"/>
  <type>trail_running</type>
  <trkseg>
   <trkpt lat="46.369260000000004" lon="15.086680000000001">
    <ele>373.1</ele>
   </trkpt>
   <trkpt lat="46.36948" lon="15.08674">
    <ele>373.15000000000003</ele>
   </trkpt>
   <trkpt lat="46.36966" lon="15.08683">
    <ele>372.93</ele>
   </trkpt>
   <trkpt lat="46.369640000000004" lon="15.087110000000001">
    <ele>372.94000000000005</ele>
   </trkpt>
   <trkpt lat="46.36972" lon="15.08792">
    <ele>372.9</ele>
   </trkpt>
   <trkpt lat="46.36979" lon="15.088400000000002">
    <ele>372.51</ele>
   </trkpt>
   <trkpt lat="46.36988" lon="15.08867">
    <ele>372.1</ele>
   </trkpt>
   <trkpt lat="46.370140000000006" lon="15.089260000000001">
    <ele>369.79</ele>
   </trkpt>
   <trkpt lat="46.37015" lon="15.08941">
    <ele>369.73</ele>
   </trkpt>
   <trkpt lat="46.37023000000001" lon="15.08956">
    <ele>369.55</ele>
   </trkpt>
   <trkpt lat="46.3703" lon="15.08979">
    <ele>369.55</ele>
   </trkpt>
   <trkpt lat="46.370520000000006" lon="15.090190000000002">
    <ele>369.42</ele>
   </trkpt>
   <trkpt lat="46.37059000000001" lon="15.090380000000001">
    <ele>369.44000000000005</ele>
   </trkpt>
   <trkpt lat="46.370610000000006" lon="15.090600000000002">
    <ele>369.44000000000005</ele>
   </trkpt>
   <trkpt lat="46.3706" lon="15.090910000000001">
    <ele>369.79</ele>
   </trkpt>
   <trkpt lat="46.3708" lon="15.09106">
    <ele>369.24</ele>
   </trkpt>
   <trkpt lat="46.37091" lon="15.091120000000002">
    <ele>369.24</ele>
   </trkpt>
   <trkpt lat="46.37126000000001" lon="15.09125">
    <ele>369.71000000000004</ele>
   </trkpt>
   <trkpt lat="46.3714" lon="15.091320000000001">
    <ele>369.94000000000005</ele>
   </trkpt>
   <trkpt lat="46.37153000000001" lon="15.091450000000002">
    <ele>370.22</ele>
   </trkpt>
   <trkpt lat="46.371880000000004" lon="15.092110000000002">
    <ele>370.39000000000004</ele>
   </trkpt>
   <trkpt lat="46.37209000000001" lon="15.092600000000001">
    <ele>369.57</ele>
   </trkpt>
   <trkpt lat="46.37212" lon="15.092760000000002">
    <ele>369.43</ele>
   </trkpt>
   <trkpt lat="46.372110000000006" lon="15.093380000000002">
    <ele>369.03000000000003</ele>
   </trkpt>
   <trkpt lat="46.372150000000005" lon="15.093570000000001">
    <ele>369.01</ele>
   </trkpt>
   <trkpt lat="46.372240000000005" lon="15.093760000000001">
    <ele>369.07</ele>
   </trkpt>
   <trkpt lat="46.37257" lon="15.094100000000001">
    <ele>368.84000000000003</ele>
   </trkpt>
   <trkpt lat="46.372800000000005" lon="15.0943">
    <ele>368.79</ele>
   </trkpt>
   <trkpt lat="46.373430000000006" lon="15.095030000000001">
    <ele>369.31</ele>
   </trkpt>
   <trkpt lat="46.37353" lon="15.095070000000002">
    <ele>369.31</ele>
   </trkpt>
   <trkpt lat="46.37370000000001" lon="15.095070000000002">
    <ele>369.26000000000005</ele>
   </trkpt>
   <trkpt lat="46.37382" lon="15.095110000000002">
    <ele>369.4</ele>
   </trkpt>
   <trkpt lat="46.37389" lon="15.09519">
    <ele>369.4</ele>
   </trkpt>
   <trkpt lat="46.373960000000004" lon="15.095340000000002">
    <ele>369.6</ele>
   </trkpt>
   <trkpt lat="46.37395" lon="15.095320000000001">
    <ele>369.58</ele>
   </trkpt>
   <trkpt lat="46.374030000000005" lon="15.095600000000001">
    <ele>369.85</ele>
   </trkpt>
   <trkpt lat="46.374140000000004" lon="15.09683">
    <ele>369.45000000000005</ele>
   </trkpt>
   <trkpt lat="46.374190000000006" lon="15.097050000000001">
    <ele>369.3</ele>
   </trkpt>
   <trkpt lat="46.37424" lon="15.09716">
    <ele>369.39000000000004</ele>
   </trkpt>
   <trkpt lat="46.374410000000005" lon="15.097320000000002">
    <ele>370.03000000000003</ele>
   </trkpt>
   <trkpt lat="46.37442" lon="15.097980000000002">
    <ele>372.39000000000004</ele>
   </trkpt>
   <trkpt lat="46.37449" lon="15.09824">
    <ele>372.64000000000004</ele>
   </trkpt>
   <trkpt lat="46.374700000000004" lon="15.09866">
    <ele>370.91</ele>
   </trkpt>
   <trkpt lat="46.37473000000001" lon="15.0988">
    <ele>370.82000000000005</ele>
   </trkpt>
   <trkpt lat="46.37471" lon="15.09932">
    <ele>372.03000000000003</ele>
   </trkpt>
   <trkpt lat="46.37467" lon="15.099490000000001">
    <ele>372.4</ele>
   </trkpt>
   <trkpt lat="46.37438" lon="15.099870000000001">
    <ele>373.13</ele>
   </trkpt>
   <trkpt lat="46.37424" lon="15.100240000000001">
    <ele>372.83000000000004</ele>
   </trkpt>
   <trkpt lat="46.37417000000001" lon="15.100340000000001">
    <ele>372.8</ele>
   </trkpt>
   <trkpt lat="46.37416" lon="15.100460000000002">
    <ele>372.83000000000004</ele>
   </trkpt>
   <trkpt lat="46.37418" lon="15.10072">
    <ele>373.33000000000004</ele>
   </trkpt>
   <trkpt lat="46.37406000000001" lon="15.10106">
    <ele>373.50000000000006</ele>
   </trkpt>
   <trkpt lat="46.37407" lon="15.101970000000001">
    <ele>374.33000000000004</ele>
   </trkpt>
   <trkpt lat="46.37429" lon="15.102590000000001">
    <ele>375.88000000000005</ele>
   </trkpt>
   <trkpt lat="46.37427" lon="15.102620000000002">
    <ele>376.01</ele>
   </trkpt>
   <trkpt lat="46.374300000000005" lon="15.102610000000002">
    <ele>375.96000000000004</ele>
   </trkpt>
   <trkpt lat="46.374500000000005" lon="15.10227">
    <ele>375.61000000000007</ele>
   </trkpt>
   <trkpt lat="46.37471" lon="15.10208">
    <ele>375.37</ele>
   </trkpt>
   <trkpt lat="46.37501" lon="15.101910000000002">
    <ele>375.4</ele>
   </trkpt>
   <trkpt lat="46.375490000000006" lon="15.101770000000002">
    <ele>376.44000000000005</ele>
   </trkpt>
   <trkpt lat="46.375730000000004" lon="15.101650000000001">
    <ele>377.36</ele>
   </trkpt>
   <trkpt lat="46.375960000000006" lon="15.101460000000001">
    <ele>378.33000000000004</ele>
   </trkpt>
   <trkpt lat="46.37632000000001" lon="15.10106">
    <ele>378.61000000000007</ele>
   </trkpt>
   <trkpt lat="46.376520000000006" lon="15.100900000000001">
    <ele>378.47</ele>
   </trkpt>
   <trkpt lat="46.37666" lon="15.100830000000002">
    <ele>377.92</ele>
   </trkpt>
   <trkpt lat="46.3768" lon="15.10082">
    <ele>377.8</ele>
   </trkpt>
   <trkpt lat="46.377030000000005" lon="15.100840000000002">
    <ele>377.74</ele>
   </trkpt>
   <trkpt lat="46.37745" lon="15.100950000000001">
    <ele>377.71000000000004</ele>
   </trkpt>
   <trkpt lat="46.37771" lon="15.101040000000001">
    <ele>378.39</ele>
   </trkpt>
   <trkpt lat="46.37792" lon="15.10119">
    <ele>379.22</ele>
   </trkpt>
   <trkpt lat="46.37807" lon="15.101320000000001">
    <ele>380.86</ele>
   </trkpt>
   <trkpt lat="46.37823" lon="15.101500000000001">
    <ele>382.68</ele>
   </trkpt>
   <trkpt lat="46.37832" lon="15.101680000000002">
    <ele>383.39</ele>
   </trkpt>
   <trkpt lat="46.37845" lon="15.102050000000002">
    <ele>384.64000000000004</ele>
   </trkpt>
   <trkpt lat="46.37859" lon="15.102190000000002">
    <ele>385.34000000000003</ele>
   </trkpt>
   <trkpt lat="46.3787" lon="15.102400000000001">
    <ele>386.63</ele>
   </trkpt>
   <trkpt lat="46.37883" lon="15.102730000000001">
    <ele>388.49000000000007</ele>
   </trkpt>
   <trkpt lat="46.378820000000005" lon="15.102910000000001">
    <ele>391.55</ele>
   </trkpt>
   <trkpt lat="46.37867000000001" lon="15.10321">
    <ele>393.56</ele>
   </trkpt>
   <trkpt lat="46.37866" lon="15.103270000000002">
    <ele>393.56</ele>
   </trkpt>
   <trkpt lat="46.37868" lon="15.10331">
    <ele>394.36</ele>
   </trkpt>
   <trkpt lat="46.378730000000004" lon="15.103340000000001">
    <ele>394.36</ele>
   </trkpt>
   <trkpt lat="46.379110000000004" lon="15.1034">
    <ele>398.83</ele>
   </trkpt>
   <trkpt lat="46.37937" lon="15.103410000000002">
    <ele>400.88</ele>
   </trkpt>
   <trkpt lat="46.37970000000001" lon="15.10345">
    <ele>404.70000000000005</ele>
   </trkpt>
   <trkpt lat="46.379810000000006" lon="15.103380000000001">
    <ele>405.39000000000004</ele>
   </trkpt>
   <trkpt lat="46.379900000000006" lon="15.10321">
    <ele>406.02000000000004</ele>
   </trkpt>
   <trkpt lat="46.38004" lon="15.102780000000001">
    <ele>407.15</ele>
   </trkpt>
   <trkpt lat="46.380210000000005" lon="15.102330000000002">
    <ele>408.86000000000007</ele>
   </trkpt>
   <trkpt lat="46.3806" lon="15.101490000000002">
    <ele>411.12</ele>
   </trkpt>
   <trkpt lat="46.38091000000001" lon="15.100980000000002">
    <ele>413.45000000000005</ele>
   </trkpt>
   <trkpt lat="46.381460000000004" lon="15.10059">
    <ele>415.16</ele>
   </trkpt>
   <trkpt lat="46.381640000000004" lon="15.100430000000001">
    <ele>416.03000000000003</ele>
   </trkpt>
   <trkpt lat="46.381870000000006" lon="15.1003">
    <ele>416.86</ele>
   </trkpt>
   <trkpt lat="46.381870000000006" lon="15.100290000000001">
    <ele>416.88</ele>
   </trkpt>
   <trkpt lat="46.381930000000004" lon="15.10035">
    <ele>416.88</ele>
   </trkpt>
   <trkpt lat="46.38195" lon="15.100470000000001">
    <ele>418.04</ele>
   </trkpt>
   <trkpt lat="46.381930000000004" lon="15.1011">
    <ele>423.16</ele>
   </trkpt>
   <trkpt lat="46.381890000000006" lon="15.10143">
    <ele>426.75</ele>
   </trkpt>
   <trkpt lat="46.381870000000006" lon="15.10148">
    <ele>426.75</ele>
   </trkpt>
   <trkpt lat="46.38172" lon="15.101680000000002">
    <ele>429.1</ele>
   </trkpt>
   <trkpt lat="46.381690000000006" lon="15.101750000000001">
    <ele>429.1</ele>
   </trkpt>
   <trkpt lat="46.381600000000006" lon="15.102290000000002">
    <ele>432.03000000000003</ele>
   </trkpt>
   <trkpt lat="46.38148" lon="15.10256">
    <ele>430.88000000000005</ele>
   </trkpt>
   <trkpt lat="46.3813" lon="15.102900000000002">
    <ele>427.81</ele>
   </trkpt>
   <trkpt lat="46.381280000000004" lon="15.102990000000002">
    <ele>426.81</ele>
   </trkpt>
   <trkpt lat="46.3813" lon="15.10316">
    <ele>426.08</ele>
   </trkpt>
   <trkpt lat="46.381550000000004" lon="15.104030000000002">
    <ele>429.33000000000004</ele>
   </trkpt>
   <trkpt lat="46.38154" lon="15.104230000000001">
    <ele>430.36</ele>
   </trkpt>
   <trkpt lat="46.38148" lon="15.10443">
    <ele>431.6700000000001</ele>
   </trkpt>
   <trkpt lat="46.381440000000005" lon="15.104910000000002">
    <ele>436.83000000000004</ele>
   </trkpt>
   <trkpt lat="46.381260000000005" lon="15.106060000000001">
    <ele>435.07</ele>
   </trkpt>
   <trkpt lat="46.381350000000005" lon="15.10655">
    <ele>436.81</ele>
   </trkpt>
   <trkpt lat="46.381420000000006" lon="15.106620000000001">
    <ele>437.13</ele>
   </trkpt>
   <trkpt lat="46.381510000000006" lon="15.10664">
    <ele>437.89000000000004</ele>
   </trkpt>
   <trkpt lat="46.38157" lon="15.10668">
    <ele>438.71000000000004</ele>
   </trkpt>
   <trkpt lat="46.38158000000001" lon="15.10669">
    <ele>438.82000000000005</ele>
   </trkpt>
   <trkpt lat="46.38203" lon="15.106430000000001">
    <ele>447.56</ele>
   </trkpt>
   <trkpt lat="46.382220000000004" lon="15.10621">
    <ele>454.31000000000006</ele>
   </trkpt>
   <trkpt lat="46.38244" lon="15.106100000000001">
    <ele>460.1000000000001</ele>
   </trkpt>
   <trkpt lat="46.38257" lon="15.105960000000001">
    <ele>463.02000000000004</ele>
   </trkpt>
   <trkpt lat="46.38317000000001" lon="15.1056">
    <ele>476.43</ele>
   </trkpt>
   <trkpt lat="46.383390000000006" lon="15.105430000000002">
    <ele>482.84000000000003</ele>
   </trkpt>
   <trkpt lat="46.383660000000006" lon="15.10532">
    <ele>488.1</ele>
   </trkpt>
   <trkpt lat="46.38367" lon="15.105390000000002">
    <ele>488.12000000000006</ele>
   </trkpt>
   <trkpt lat="46.38383" lon="15.105150000000002">
    <ele>488.72</ele>
   </trkpt>
   <trkpt lat="46.384280000000004" lon="15.10452">
    <ele>489.16</ele>
   </trkpt>
   <trkpt lat="46.38449000000001" lon="15.104190000000001">
    <ele>487.03000000000003</ele>
   </trkpt>
   <trkpt lat="46.384570000000004" lon="15.10392">
    <ele>486.95000000000005</ele>
   </trkpt>
   <trkpt lat="46.384620000000005" lon="15.103550000000002">
    <ele>486.1</ele>
   </trkpt>
   <trkpt lat="46.38474" lon="15.103330000000001">
    <ele>484.7</ele>
   </trkpt>
   <trkpt lat="46.384930000000004" lon="15.10307">
    <ele>482.14</ele>
   </trkpt>
   <trkpt lat="46.38521000206143" lon="15.102375003673222">
    <ele>465.96000000000004</ele>
   </trkpt>
   <trkpt lat="46.385490000000004" lon="15.101680000000002">
    <ele>456.62</ele>
   </trkpt>
   <trkpt lat="46.38559" lon="15.10157">
    <ele>454.33</ele>
   </trkpt>
   <trkpt lat="46.385560000000005" lon="15.101590000000002">
    <ele>454.62</ele>
   </trkpt>
   <trkpt lat="46.38559" lon="15.10157">
    <ele>454.02000000000004</ele>
   </trkpt>
   <trkpt lat="46.385630000000006" lon="15.101580000000002">
    <ele>454.02000000000004</ele>
   </trkpt>
   <trkpt lat="46.38575" lon="15.1018">
    <ele>451.49000000000007</ele>
   </trkpt>
   <trkpt lat="46.38590000000001" lon="15.102400000000001">
    <ele>443.43000000000006</ele>
   </trkpt>
   <trkpt lat="46.38597" lon="15.10251">
    <ele>441.51</ele>
   </trkpt>
   <trkpt lat="46.38598" lon="15.102240000000002">
    <ele>442.29</ele>
   </trkpt>
   <trkpt lat="46.386140000000005" lon="15.10242">
    <ele>442.27000000000004</ele>
   </trkpt>
   <trkpt lat="46.386410000000005" lon="15.102610000000002">
    <ele>441.45</ele>
   </trkpt>
   <trkpt lat="46.386680000000005" lon="15.102720000000001">
    <ele>440.73</ele>
   </trkpt>
   <trkpt lat="46.386860000000006" lon="15.102540000000001">
    <ele>443.25</ele>
   </trkpt>
   <trkpt lat="46.38693000000001" lon="15.102340000000002">
    <ele>444.95</ele>
   </trkpt>
   <trkpt lat="46.38702000000001" lon="15.102350000000001">
    <ele>446.13</ele>
   </trkpt>
   <trkpt lat="46.387170000000005" lon="15.102300000000001">
    <ele>448.35</ele>
   </trkpt>
   <trkpt lat="46.38739" lon="15.102300000000001">
    <ele>450.72</ele>
   </trkpt>
   <trkpt lat="46.38752" lon="15.10223">
    <ele>452.20000000000005</ele>
   </trkpt>
   <trkpt lat="46.38756" lon="15.102060000000002">
    <ele>452.77000000000004</ele>
   </trkpt>
   <trkpt lat="46.387530000000005" lon="15.101740000000001">
    <ele>455.71000000000004</ele>
   </trkpt>
   <trkpt lat="46.387530000000005" lon="15.101510000000001">
    <ele>458.59000000000003</ele>
   </trkpt>
   <trkpt lat="46.38761" lon="15.10101">
    <ele>460.99</ele>
   </trkpt>
   <trkpt lat="46.38763" lon="15.100940000000001">
    <ele>461.21000000000004</ele>
   </trkpt>
   <trkpt lat="46.38768" lon="15.10087">
    <ele>461.49</ele>
   </trkpt>
   <trkpt lat="46.387840000000004" lon="15.10072">
    <ele>461.74</ele>
   </trkpt>
   <trkpt lat="46.388070000000006" lon="15.100610000000001">
    <ele>462.22</ele>
   </trkpt>
   <trkpt lat="46.3883" lon="15.100530000000001">
    <ele>461.47</ele>
   </trkpt>
   <trkpt lat="46.388490000000004" lon="15.100380000000001">
    <ele>460.51000000000005</ele>
   </trkpt>
   <trkpt lat="46.38864" lon="15.100310000000002">
    <ele>459.90000000000003</ele>
   </trkpt>
   <trkpt lat="46.38902" lon="15.100220000000002">
    <ele>459.72</ele>
   </trkpt>
   <trkpt lat="46.389160000000004" lon="15.100150000000001">
    <ele>459.32000000000005</ele>
   </trkpt>
   <trkpt lat="46.38931" lon="15.100030000000002">
    <ele>459.22</ele>
   </trkpt>
   <trkpt lat="46.389630000000004" lon="15.099860000000001">
    <ele>460.46000000000004</ele>
   </trkpt>
   <trkpt lat="46.389790000000005" lon="15.099810000000002">
    <ele>461.17</ele>
   </trkpt>
   <trkpt lat="46.38987" lon="15.09983">
    <ele>460.39</ele>
   </trkpt>
   <trkpt lat="46.389970000000005" lon="15.099910000000001">
    <ele>458.55</ele>
   </trkpt>
   <trkpt lat="46.390640000000005" lon="15.100200000000001">
    <ele>453.42</ele>
   </trkpt>
   <trkpt lat="46.390800000000006" lon="15.100240000000001">
    <ele>453.86</ele>
   </trkpt>
   <trkpt lat="46.391000000000005" lon="15.100200000000001">
    <ele>456.28000000000003</ele>
   </trkpt>
   <trkpt lat="46.391130000000004" lon="15.10012">
    <ele>457.70000000000005</ele>
   </trkpt>
   <trkpt lat="46.39168" lon="15.10035">
    <ele>458.76000000000005</ele>
   </trkpt>
   <trkpt lat="46.39228000000001" lon="15.100320000000002">
    <ele>457.39</ele>
   </trkpt>
   <trkpt lat="46.392520000000005" lon="15.100360000000002">
    <ele>456.67</ele>
   </trkpt>
   <trkpt lat="46.393390000000004" lon="15.10012">
    <ele>457.34000000000003</ele>
   </trkpt>
   <trkpt lat="46.393710000000006" lon="15.099910000000001">
    <ele>459.28000000000003</ele>
   </trkpt>
   <trkpt lat="46.39415000002612" lon="15.099715001634069">
    <ele>459.66</ele>
   </trkpt>
   <trkpt lat="46.39459" lon="15.099520000000002">
    <ele>459.12</ele>
   </trkpt>
   <trkpt lat="46.39511" lon="15.099420000000002">
    <ele>457.91</ele>
   </trkpt>
   <trkpt lat="46.395250000000004" lon="15.099260000000001">
    <ele>455.63000000000005</ele>
   </trkpt>
   <trkpt lat="46.395340000000004" lon="15.09923">
    <ele>454.73</ele>
   </trkpt>
   <trkpt lat="46.395590000000006" lon="15.099290000000002">
    <ele>453.56</ele>
   </trkpt>
   <trkpt lat="46.395810000000004" lon="15.099280000000002">
    <ele>455.40000000000003</ele>
   </trkpt>
   <trkpt lat="46.395900000000005" lon="15.099310000000001">
    <ele>457.47</ele>
   </trkpt>
   <trkpt lat="46.395950000000006" lon="15.099350000000001">
    <ele>458.74</ele>
   </trkpt>
   <trkpt lat="46.39598" lon="15.099610000000002">
    <ele>467.74</ele>
   </trkpt>
   <trkpt lat="46.396" lon="15.09965">
    <ele>467.74</ele>
   </trkpt>
   <trkpt lat="46.395950000000006" lon="15.09983">
    <ele>473.64000000000004</ele>
   </trkpt>
   <trkpt lat="46.395970000000005" lon="15.099890000000002">
    <ele>473.64000000000004</ele>
   </trkpt>
   <trkpt lat="46.39640000000001" lon="15.099900000000002">
    <ele>486.50000000000006</ele>
   </trkpt>
   <trkpt lat="46.396550000000005" lon="15.099710000000002">
    <ele>489.74000000000007</ele>
   </trkpt>
   <trkpt lat="46.39665" lon="15.099540000000001">
    <ele>495.09000000000003</ele>
   </trkpt>
   <trkpt lat="46.39678000000001" lon="15.099430000000002">
    <ele>497.07000000000005</ele>
   </trkpt>
   <trkpt lat="46.396890000000006" lon="15.099260000000001">
    <ele>500.52000000000004</ele>
   </trkpt>
   <trkpt lat="46.39699" lon="15.099150000000002">
    <ele>503.28000000000003</ele>
   </trkpt>
   <trkpt lat="46.397110000000005" lon="15.098910000000002">
    <ele>506.78</ele>
   </trkpt>
   <trkpt lat="46.39739" lon="15.098590000000002">
    <ele>514.51</ele>
   </trkpt>
   <trkpt lat="46.39753" lon="15.09838">
    <ele>518.19</ele>
   </trkpt>
   <trkpt lat="46.397580000000005" lon="15.098390000000002">
    <ele>520.51</ele>
   </trkpt>
   <trkpt lat="46.397960000000005" lon="15.097900000000001">
    <ele>527.83</ele>
   </trkpt>
   <trkpt lat="46.39828000000001" lon="15.09763">
    <ele>532.3100000000001</ele>
   </trkpt>
   <trkpt lat="46.398430000000005" lon="15.09749">
    <ele>532.9</ele>
   </trkpt>
   <trkpt lat="46.39857000000001" lon="15.097480000000001">
    <ele>532.45</ele>
   </trkpt>
   <trkpt lat="46.398770000000006" lon="15.09767">
    <ele>533.0</ele>
   </trkpt>
   <trkpt lat="46.39875000000001" lon="15.097660000000001">
    <ele>532.9200000000001</ele>
   </trkpt>
   <trkpt lat="46.39878" lon="15.097690000000002">
    <ele>533.12</ele>
   </trkpt>
   <trkpt lat="46.398860000000006" lon="15.097700000000001">
    <ele>533.84</ele>
   </trkpt>
   <trkpt lat="46.39909" lon="15.097900000000001">
    <ele>536.48</ele>
   </trkpt>
   <trkpt lat="46.39963" lon="15.098510000000001">
    <ele>543.15</ele>
   </trkpt>
   <trkpt lat="46.39969000000001" lon="15.09866">
    <ele>543.76</ele>
   </trkpt>
   <trkpt lat="46.39976" lon="15.098930000000001">
    <ele>544.18</ele>
   </trkpt>
   <trkpt lat="46.399860000000004" lon="15.099160000000001">
    <ele>545.21</ele>
   </trkpt>
   <trkpt lat="46.40003" lon="15.099630000000001">
    <ele>544.1100000000001</ele>
   </trkpt>
   <trkpt lat="46.400240000000004" lon="15.100030000000002">
    <ele>546.86</ele>
   </trkpt>
   <trkpt lat="46.40026" lon="15.10035">
    <ele>549.52</ele>
   </trkpt>
   <trkpt lat="46.40034000000001" lon="15.100640000000002">
    <ele>550.9200000000001</ele>
   </trkpt>
   <trkpt lat="46.40035" lon="15.10086">
    <ele>552.34</ele>
   </trkpt>
   <trkpt lat="46.40046" lon="15.101210000000002">
    <ele>554.79</ele>
   </trkpt>
   <trkpt lat="46.40057" lon="15.10147">
    <ele>555.47</ele>
   </trkpt>
   <trkpt lat="46.40064" lon="15.101740000000001">
    <ele>556.6800000000001</ele>
   </trkpt>
   <trkpt lat="46.400760000000005" lon="15.102490000000001">
    <ele>562.55</ele>
   </trkpt>
   <trkpt lat="46.40095" lon="15.103390000000001">
    <ele>565.38</ele>
   </trkpt>
   <trkpt lat="46.401120000000006" lon="15.103890000000002">
    <ele>569.13</ele>
   </trkpt>
   <trkpt lat="46.401120000000006" lon="15.103880000000002">
    <ele>569.0500000000001</ele>
   </trkpt>
   <trkpt lat="46.40113" lon="15.10391">
    <ele>569.32</ele>
   </trkpt>
   <trkpt lat="46.40108" lon="15.10453">
    <ele>579.1</ele>
   </trkpt>
   <trkpt lat="46.40084" lon="15.105490000000001">
    <ele>585.74</ele>
   </trkpt>
   <trkpt lat="46.40084" lon="15.10556">
    <ele>586.1200000000001</ele>
   </trkpt>
   <trkpt lat="46.40093" lon="15.105710000000002">
    <ele>588.1800000000001</ele>
   </trkpt>
   <trkpt lat="46.400980000000004" lon="15.10589">
    <ele>590.7600000000001</ele>
   </trkpt>
   <trkpt lat="46.4003" lon="15.106090000000002">
    <ele>608.58</ele>
   </trkpt>
   <trkpt lat="46.39997" lon="15.106050000000002">
    <ele>614.46</ele>
   </trkpt>
   <trkpt lat="46.39988" lon="15.10612">
    <ele>615.96</ele>
   </trkpt>
   <trkpt lat="46.39979" lon="15.106410000000002">
    <ele>621.36</ele>
   </trkpt>
   <trkpt lat="46.39974" lon="15.106510000000002">
    <ele>621.36</ele>
   </trkpt>
   <trkpt lat="46.399620000000006" lon="15.10664">
    <ele>626.73</ele>
   </trkpt>
   <trkpt lat="46.399530000000006" lon="15.106610000000002">
    <ele>628.63</ele>
   </trkpt>
   <trkpt lat="46.399420000000006" lon="15.106530000000001">
    <ele>631.2500000000001</ele>
   </trkpt>
   <trkpt lat="46.39929" lon="15.106320000000002">
    <ele>632.9300000000001</ele>
   </trkpt>
   <trkpt lat="46.399150000000006" lon="15.10617">
    <ele>634.12</ele>
   </trkpt>
   <trkpt lat="46.398950000000006" lon="15.105990000000002">
    <ele>636.69</ele>
   </trkpt>
   <trkpt lat="46.398880000000005" lon="15.10579">
    <ele>640.72</ele>
   </trkpt>
   <trkpt lat="46.39891" lon="15.105080000000001">
    <ele>650.5300000000001</ele>
   </trkpt>
   <trkpt lat="46.398830000000004" lon="15.10481">
    <ele>652.87</ele>
   </trkpt>
   <trkpt lat="46.398740000000004" lon="15.104690000000002">
    <ele>656.0100000000001</ele>
   </trkpt>
   <trkpt lat="46.39857000000001" lon="15.104600000000001">
    <ele>657.3000000000001</ele>
   </trkpt>
   <trkpt lat="46.398520000000005" lon="15.104300000000002">
    <ele>653.15</ele>
   </trkpt>
   <trkpt lat="46.398520000000005" lon="15.104270000000001">
    <ele>652.8900000000001</ele>
   </trkpt>
   <trkpt lat="46.398520000000005" lon="15.104120000000002">
    <ele>650.94</ele>
   </trkpt>
   <trkpt lat="46.39838" lon="15.104090000000001">
    <ele>648.85</ele>
   </trkpt>
   <trkpt lat="46.398270000000004" lon="15.104130000000001">
    <ele>643.39</ele>
   </trkpt>
   <trkpt lat="46.39799000000001" lon="15.104350000000002">
    <ele>638.8100000000001</ele>
   </trkpt>
   <trkpt lat="46.397670000000005" lon="15.10471">
    <ele>628.26</ele>
   </trkpt>
   <trkpt lat="46.397130000000004" lon="15.105220000000001">
    <ele>616.73</ele>
   </trkpt>
   <trkpt lat="46.39681" lon="15.1056">
    <ele>605.23</ele>
   </trkpt>
   <trkpt lat="46.396480000000004" lon="15.10621">
    <ele>597.4200000000001</ele>
   </trkpt>
   <trkpt lat="46.39631000000001" lon="15.106440000000001">
    <ele>594.58</ele>
   </trkpt>
   <trkpt lat="46.395700000000005" lon="15.107040000000001">
    <ele>583.64</ele>
   </trkpt>
   <trkpt lat="46.395410000000005" lon="15.107410000000002">
    <ele>575.2</ele>
   </trkpt>
   <trkpt lat="46.39518" lon="15.107630000000002">
    <ele>571.46</ele>
   </trkpt>
   <trkpt lat="46.39497" lon="15.107780000000002">
    <ele>567.85</ele>
   </trkpt>
   <trkpt lat="46.39462" lon="15.107970000000002">
    <ele>561.86</ele>
   </trkpt>
   <trkpt lat="46.3943" lon="15.10833">
    <ele>549.69</ele>
   </trkpt>
   <trkpt lat="46.394110000000005" lon="15.108580000000002">
    <ele>545.58</ele>
   </trkpt>
   <trkpt lat="46.39403" lon="15.10865">
    <ele>543.61</ele>
   </trkpt>
   <trkpt lat="46.39396000000001" lon="15.10861">
    <ele>540.78</ele>
   </trkpt>
   <trkpt lat="46.39396000000001" lon="15.108210000000001">
    <ele>534.5000000000001</ele>
   </trkpt>
   <trkpt lat="46.39399" lon="15.107930000000001">
    <ele>530.32</ele>
   </trkpt>
   <trkpt lat="46.39401" lon="15.107830000000002">
    <ele>530.32</ele>
   </trkpt>
   <trkpt lat="46.39401" lon="15.107840000000001">
    <ele>530.47</ele>
   </trkpt>
   <trkpt lat="46.393980000000006" lon="15.107930000000001">
    <ele>531.87</ele>
   </trkpt>
   <trkpt lat="46.39369000000001" lon="15.10781">
    <ele>516.69</ele>
   </trkpt>
   <trkpt lat="46.39358000000001" lon="15.10823">
    <ele>517.69</ele>
   </trkpt>
   <trkpt lat="46.3933" lon="15.108770000000002">
    <ele>517.8900000000001</ele>
   </trkpt>
   <trkpt lat="46.392900000000004" lon="15.109440000000001">
    <ele>515.2800000000001</ele>
   </trkpt>
   <trkpt lat="46.393040000000006" lon="15.10964">
    <ele>514.6800000000001</ele>
   </trkpt>
   <trkpt lat="46.393040000000006" lon="15.110070000000002">
    <ele>516.9</ele>
   </trkpt>
   <trkpt lat="46.39293000000001" lon="15.110410000000002">
    <ele>517.6700000000001</ele>
   </trkpt>
   <trkpt lat="46.392680000000006" lon="15.110800000000001">
    <ele>515.4300000000001</ele>
   </trkpt>
   <trkpt lat="46.39266000000001" lon="15.110890000000001">
    <ele>514.58</ele>
   </trkpt>
   <trkpt lat="46.39264000000001" lon="15.11128">
    <ele>512.24</ele>
   </trkpt>
   <trkpt lat="46.392590000000006" lon="15.11152">
    <ele>511.4200000000001</ele>
   </trkpt>
   <trkpt lat="46.39256" lon="15.112110000000001">
    <ele>509.94000000000005</ele>
   </trkpt>
   <trkpt lat="46.392450000000004" lon="15.112670000000001">
    <ele>507.77000000000004</ele>
   </trkpt>
   <trkpt lat="46.392340000000004" lon="15.112900000000002">
    <ele>507.32</ele>
   </trkpt>
   <trkpt lat="46.39222" lon="15.113080000000002">
    <ele>505.84000000000003</ele>
   </trkpt>
   <trkpt lat="46.39209" lon="15.113330000000001">
    <ele>503.04</ele>
   </trkpt>
   <trkpt lat="46.39197" lon="15.113430000000001">
    <ele>502.06000000000006</ele>
   </trkpt>
   <trkpt lat="46.391830000000006" lon="15.113500000000002">
    <ele>499.76000000000005</ele>
   </trkpt>
   <trkpt lat="46.391560000000005" lon="15.11395">
    <ele>501.77000000000004</ele>
   </trkpt>
   <trkpt lat="46.39153" lon="15.114">
    <ele>502.31</ele>
   </trkpt>
   <trkpt lat="46.39152000000001" lon="15.114160000000002">
    <ele>502.65000000000003</ele>
   </trkpt>
   <trkpt lat="46.39155" lon="15.11433">
    <ele>506.43000000000006</ele>
   </trkpt>
   <trkpt lat="46.391540000000006" lon="15.114440000000002">
    <ele>507.0300000000001</ele>
   </trkpt>
   <trkpt lat="46.39141" lon="15.11517">
    <ele>507.5900000000001</ele>
   </trkpt>
   <trkpt lat="46.391400000000004" lon="15.11536">
    <ele>506.6</ele>
   </trkpt>
   <trkpt lat="46.39134000000001" lon="15.1155">
    <ele>506.7900000000001</ele>
   </trkpt>
   <trkpt lat="46.39128" lon="15.115570000000002">
    <ele>506.7900000000001</ele>
   </trkpt>
   <trkpt lat="46.391160000000006" lon="15.116050000000001">
    <ele>507.71</ele>
   </trkpt>
   <trkpt lat="46.39115" lon="15.116180000000002">
    <ele>507.6</ele>
   </trkpt>
   <trkpt lat="46.39119" lon="15.11649">
    <ele>505.55000000000007</ele>
   </trkpt>
   <trkpt lat="46.391270000000006" lon="15.116750000000001">
    <ele>503.99000000000007</ele>
   </trkpt>
   <trkpt lat="46.391420000000004" lon="15.117030000000002">
    <ele>502.6700000000001</ele>
   </trkpt>
   <trkpt lat="46.391490000000005" lon="15.1172">
    <ele>496.25</ele>
   </trkpt>
   <trkpt lat="46.39152000000001" lon="15.117350000000002">
    <ele>496.25</ele>
   </trkpt>
   <trkpt lat="46.391510000000004" lon="15.11748">
    <ele>494.16</ele>
   </trkpt>
   <trkpt lat="46.39152000000001" lon="15.117600000000001">
    <ele>493.50000000000006</ele>
   </trkpt>
   <trkpt lat="46.39159" lon="15.117860000000002">
    <ele>491.28000000000003</ele>
   </trkpt>
   <trkpt lat="46.391560000000005" lon="15.118070000000001">
    <ele>491.24000000000007</ele>
   </trkpt>
   <trkpt lat="46.39159" lon="15.118260000000001">
    <ele>491.77000000000004</ele>
   </trkpt>
   <trkpt lat="46.39155" lon="15.118390000000002">
    <ele>491.7900000000001</ele>
   </trkpt>
   <trkpt lat="46.391600000000004" lon="15.11865">
    <ele>491.78000000000003</ele>
   </trkpt>
   <trkpt lat="46.39159" lon="15.11874">
    <ele>492.16</ele>
   </trkpt>
   <trkpt lat="46.39152000000001" lon="15.118710000000002">
    <ele>492.52</ele>
   </trkpt>
   <trkpt lat="46.39143000000001" lon="15.118610000000002">
    <ele>494.26000000000005</ele>
   </trkpt>
   <trkpt lat="46.39137" lon="15.118450000000001">
    <ele>495.8</ele>
   </trkpt>
   <trkpt lat="46.39132" lon="15.118390000000002">
    <ele>497.54</ele>
   </trkpt>
   <trkpt lat="46.391290000000005" lon="15.11846">
    <ele>497.54</ele>
   </trkpt>
   <trkpt lat="46.39137" lon="15.118920000000001">
    <ele>504.53999999999996</ele>
   </trkpt>
   <trkpt lat="46.391380000000005" lon="15.11931">
    <ele>509.15</ele>
   </trkpt>
   <trkpt lat="46.39143000000001" lon="15.11944">
    <ele>512.0300000000001</ele>
   </trkpt>
   <trkpt lat="46.39143000000001" lon="15.119670000000001">
    <ele>515.42</ele>
   </trkpt>
   <trkpt lat="46.391450000000006" lon="15.11991">
    <ele>519.17</ele>
   </trkpt>
   <trkpt lat="46.391270000000006" lon="15.119850000000001">
    <ele>524.02</ele>
   </trkpt>
   <trkpt lat="46.391200000000005" lon="15.119710000000001">
    <ele>524.36</ele>
   </trkpt>
   <trkpt lat="46.391110000000005" lon="15.119370000000002">
    <ele>526.51</ele>
   </trkpt>
   <trkpt lat="46.39097" lon="15.119050000000001">
    <ele>530.82</ele>
   </trkpt>
   <trkpt lat="46.390840000000004" lon="15.118660000000002">
    <ele>532.33</ele>
   </trkpt>
   <trkpt lat="46.39076000000001" lon="15.118360000000001">
    <ele>534.6200000000001</ele>
   </trkpt>
   <trkpt lat="46.39067000000001" lon="15.118710000000002">
    <ele>544.1100000000001</ele>
   </trkpt>
   <trkpt lat="46.3907" lon="15.11893">
    <ele>551.91</ele>
   </trkpt>
   <trkpt lat="46.39061" lon="15.119520000000001">
    <ele>565.9000000000001</ele>
   </trkpt>
   <trkpt lat="46.39056" lon="15.11963">
    <ele>567.57</ele>
   </trkpt>
   <trkpt lat="46.39045" lon="15.12025">
    <ele>582.77</ele>
   </trkpt>
   <trkpt lat="46.39045" lon="15.12043">
    <ele>587.5</ele>
   </trkpt>
   <trkpt lat="46.39034" lon="15.120700000000001">
    <ele>594.86</ele>
   </trkpt>
   <trkpt lat="46.39031000000001" lon="15.120890000000001">
    <ele>598.1</ele>
   </trkpt>
   <trkpt lat="46.39025" lon="15.121080000000001">
    <ele>603.1800000000001</ele>
   </trkpt>
   <trkpt lat="46.39014" lon="15.121220000000001">
    <ele>614.85</ele>
   </trkpt>
   <trkpt lat="46.389970000000005" lon="15.12174">
    <ele>621.17</ele>
   </trkpt>
   <trkpt lat="46.389920000000004" lon="15.122000000000002">
    <ele>631.6700000000001</ele>
   </trkpt>
   <trkpt lat="46.389900000000004" lon="15.122340000000001">
    <ele>638.39</ele>
   </trkpt>
   <trkpt lat="46.389700000000005" lon="15.123280000000001">
    <ele>661.61</ele>
   </trkpt>
   <trkpt lat="46.389660000000006" lon="15.123590000000002">
    <ele>669.13</ele>
   </trkpt>
   <trkpt lat="46.389610000000005" lon="15.123820000000002">
    <ele>675.98</ele>
   </trkpt>
   <trkpt lat="46.38947" lon="15.124080000000001">
    <ele>679.96</ele>
   </trkpt>
   <trkpt lat="46.38936" lon="15.12442">
    <ele>684.46</ele>
   </trkpt>
   <trkpt lat="46.38929" lon="15.124570000000002">
    <ele>687.36</ele>
   </trkpt>
   <trkpt lat="46.38927" lon="15.124810000000002">
    <ele>692.94</ele>
   </trkpt>
   <trkpt lat="46.389030000000005" lon="15.125430000000001">
    <ele>704.76</ele>
   </trkpt>
   <trkpt lat="46.388830000000006" lon="15.126100000000001">
    <ele>713.59</ele>
   </trkpt>
   <trkpt lat="46.388725002239106" lon="15.126815001299969">
    <ele>718.6300000000001</ele>
   </trkpt>
   <trkpt lat="46.38862" lon="15.127530000000002">
    <ele>729.0600000000001</ele>
   </trkpt>
   <trkpt lat="46.388510000000004" lon="15.127930000000001">
    <ele>731.9300000000001</ele>
   </trkpt>
   <trkpt lat="46.38837" lon="15.128240000000002">
    <ele>731.5600000000001</ele>
   </trkpt>
   <trkpt lat="46.38832000000001" lon="15.1285">
    <ele>730.1700000000001</ele>
   </trkpt>
   <trkpt lat="46.38824" lon="15.128620000000002">
    <ele>729.72</ele>
   </trkpt>
   <trkpt lat="46.388110000000005" lon="15.1292">
    <ele>729.2400000000001</ele>
   </trkpt>
   <trkpt lat="46.387930000000004" lon="15.12944">
    <ele>731.0300000000001</ele>
   </trkpt>
   <trkpt lat="46.38787000000001" lon="15.129660000000001">
    <ele>733.7</ele>
   </trkpt>
   <trkpt lat="46.38774" lon="15.129920000000002">
    <ele>736.69</ele>
   </trkpt>
   <trkpt lat="46.387730000000005" lon="15.129930000000002">
    <ele>736.8</ele>
   </trkpt>
   <trkpt lat="46.387640000000005" lon="15.130450000000002">
    <ele>737.53</ele>
   </trkpt>
   <trkpt lat="46.38761" lon="15.13103">
    <ele>738.9100000000001</ele>
   </trkpt>
   <trkpt lat="46.387530000000005" lon="15.131150000000002">
    <ele>739.02</ele>
   </trkpt>
   <trkpt lat="46.387510000000006" lon="15.13122">
    <ele>739.2</ele>
   </trkpt>
   <trkpt lat="46.38768" lon="15.131310000000001">
    <ele>736.7300000000001</ele>
   </trkpt>
   <trkpt lat="46.38785" lon="15.131440000000001">
    <ele>731.3000000000001</ele>
   </trkpt>
   <trkpt lat="46.38787000000001" lon="15.131680000000001">
    <ele>728.75</ele>
   </trkpt>
   <trkpt lat="46.387840000000004" lon="15.131990000000002">
    <ele>727.99</ele>
   </trkpt>
   <trkpt lat="46.387730000000005" lon="15.132380000000001">
    <ele>731.1700000000001</ele>
   </trkpt>
   <trkpt lat="46.387620000000005" lon="15.13305">
    <ele>736.21</ele>
   </trkpt>
   <trkpt lat="46.387550000000005" lon="15.133600000000001">
    <ele>741.53</ele>
   </trkpt>
   <trkpt lat="46.38752" lon="15.134290000000002">
    <ele>751.11</ele>
   </trkpt>
   <trkpt lat="46.38745" lon="15.134430000000002">
    <ele>753.83</ele>
   </trkpt>
   <trkpt lat="46.3873" lon="15.13455">
    <ele>759.8300000000002</ele>
   </trkpt>
   <trkpt lat="46.38716" lon="15.134990000000002">
    <ele>770.7400000000001</ele>
   </trkpt>
   <trkpt lat="46.38711000000001" lon="15.13535">
    <ele>777.17</ele>
   </trkpt>
   <trkpt lat="46.38714" lon="15.135380000000001">
    <ele>777.17</ele>
   </trkpt>
   <trkpt lat="46.387240000000006" lon="15.135750000000002">
    <ele>782.72</ele>
   </trkpt>
   <trkpt lat="46.38721" lon="15.13597">
    <ele>783.7400000000001</ele>
   </trkpt>
   <trkpt lat="46.38721" lon="15.136510000000001">
    <ele>783.48</ele>
   </trkpt>
   <trkpt lat="46.38714" lon="15.136630000000002">
    <ele>783.2600000000001</ele>
   </trkpt>
   <trkpt lat="46.38721" lon="15.136690000000002">
    <ele>782.6500000000001</ele>
   </trkpt>
   <trkpt lat="46.38729000000001" lon="15.13713">
    <ele>778.23</ele>
   </trkpt>
   <trkpt lat="46.38738" lon="15.137310000000001">
    <ele>773.7400000000001</ele>
   </trkpt>
   <trkpt lat="46.387550000000005" lon="15.13793">
    <ele>769.46</ele>
   </trkpt>
   <trkpt lat="46.38758000000001" lon="15.138160000000001">
    <ele>769.6800000000001</ele>
   </trkpt>
   <trkpt lat="46.38756" lon="15.138280000000002">
    <ele>769.66</ele>
   </trkpt>
   <trkpt lat="46.38749000000001" lon="15.138340000000001">
    <ele>768.99</ele>
   </trkpt>
   <trkpt lat="46.38727" lon="15.138470000000002">
    <ele>764.5400000000001</ele>
   </trkpt>
   <trkpt lat="46.38732" lon="15.138810000000001">
    <ele>759.7600000000001</ele>
   </trkpt>
   <trkpt lat="46.387370000000004" lon="15.139030000000002">
    <ele>757.39</ele>
   </trkpt>
   <trkpt lat="46.38734" lon="15.13911">
    <ele>753.4300000000001</ele>
   </trkpt>
   <trkpt lat="46.38692" lon="15.13943">
    <ele>740.87</ele>
   </trkpt>
   <trkpt lat="46.386880000000005" lon="15.139450000000002">
    <ele>740.0300000000001</ele>
   </trkpt>
   <trkpt lat="46.38669" lon="15.13957">
    <ele>735.6100000000001</ele>
   </trkpt>
   <trkpt lat="46.38649" lon="15.139660000000001">
    <ele>730.4600000000002</ele>
   </trkpt>
   <trkpt lat="46.386320000000005" lon="15.139690000000002">
    <ele>726.09</ele>
   </trkpt>
   <trkpt lat="46.386050000000004" lon="15.13958">
    <ele>722.3900000000001</ele>
   </trkpt>
   <trkpt lat="46.38617500209814" lon="15.138885001630367">
    <ele>731.08</ele>
   </trkpt>
   <trkpt lat="46.386300000000006" lon="15.138190000000002">
    <ele>738.97</ele>
   </trkpt>
   <trkpt lat="46.38633" lon="15.13789">
    <ele>742.0600000000001</ele>
   </trkpt>
   <trkpt lat="46.386390000000006" lon="15.137200000000002">
    <ele>748.82</ele>
   </trkpt>
   <trkpt lat="46.386340000000004" lon="15.136170000000002">
    <ele>756.45</ele>
   </trkpt>
   <trkpt lat="46.386500000000005" lon="15.134990000000002">
    <ele>763.38</ele>
   </trkpt>
   <trkpt lat="46.386680000000005" lon="15.134350000000001">
    <ele>761.8800000000001</ele>
   </trkpt>
   <trkpt lat="46.38698" lon="15.13385">
    <ele>756.2500000000001</ele>
   </trkpt>
   <trkpt lat="46.387080000000005" lon="15.13357">
    <ele>752.4000000000001</ele>
   </trkpt>
   <trkpt lat="46.387100000000004" lon="15.133410000000001">
    <ele>749.07</ele>
   </trkpt>
   <trkpt lat="46.38709" lon="15.133040000000001">
    <ele>745.35</ele>
   </trkpt>
   <trkpt lat="46.38714" lon="15.132750000000001">
    <ele>742.62</ele>
   </trkpt>
   <trkpt lat="46.38705" lon="15.13258">
    <ele>740.5500000000001</ele>
   </trkpt>
   <trkpt lat="46.386810000000004" lon="15.1324">
    <ele>735.07</ele>
   </trkpt>
   <trkpt lat="46.38674" lon="15.13245">
    <ele>730.71</ele>
   </trkpt>
   <trkpt lat="46.38638" lon="15.13282">
    <ele>717.7500000000001</ele>
   </trkpt>
   <trkpt lat="46.386250000000004" lon="15.13301">
    <ele>716.61</ele>
   </trkpt>
   <trkpt lat="46.386120000000005" lon="15.133090000000001">
    <ele>711.9100000000001</ele>
   </trkpt>
   <trkpt lat="46.38588000000001" lon="15.133580000000002">
    <ele>705.1</ele>
   </trkpt>
   <trkpt lat="46.385560000000005" lon="15.134010000000002">
    <ele>699.16</ele>
   </trkpt>
   <trkpt lat="46.38541" lon="15.134330000000002">
    <ele>693.5100000000001</ele>
   </trkpt>
   <trkpt lat="46.385090000000005" lon="15.134770000000001">
    <ele>686.46</ele>
   </trkpt>
   <trkpt lat="46.38499" lon="15.134900000000002">
    <ele>683.6700000000001</ele>
   </trkpt>
   <trkpt lat="46.384820000000005" lon="15.134970000000001">
    <ele>679.44</ele>
   </trkpt>
   <trkpt lat="46.384730000000005" lon="15.134920000000001">
    <ele>675.86</ele>
   </trkpt>
   <trkpt lat="46.384730000000005" lon="15.13484">
    <ele>674.76</ele>
   </trkpt>
   <trkpt lat="46.384780000000006" lon="15.13474">
    <ele>673.7500000000001</ele>
   </trkpt>
   <trkpt lat="46.384800000000006" lon="15.134620000000002">
    <ele>671.8400000000001</ele>
   </trkpt>
   <trkpt lat="46.38465" lon="15.134440000000001">
    <ele>665.3500000000001</ele>
   </trkpt>
   <trkpt lat="46.384550000000004" lon="15.134430000000002">
    <ele>660.1700000000001</ele>
   </trkpt>
   <trkpt lat="46.38447" lon="15.134470000000002">
    <ele>658.5000000000001</ele>
   </trkpt>
   <trkpt lat="46.38436" lon="15.134490000000001">
    <ele>655.44</ele>
   </trkpt>
   <trkpt lat="46.38429000000001" lon="15.134630000000001">
    <ele>652.8000000000001</ele>
   </trkpt>
   <trkpt lat="46.384220000000006" lon="15.13469">
    <ele>649.21</ele>
   </trkpt>
   <trkpt lat="46.38401" lon="15.13479">
    <ele>640.72</ele>
   </trkpt>
   <trkpt lat="46.38382000000001" lon="15.134970000000001">
    <ele>636.19</ele>
   </trkpt>
   <trkpt lat="46.38367" lon="15.13503">
    <ele>633.78</ele>
   </trkpt>
   <trkpt lat="46.38362" lon="15.135190000000001">
    <ele>630.33</ele>
   </trkpt>
   <trkpt lat="46.38354" lon="15.135270000000002">
    <ele>626.29</ele>
   </trkpt>
   <trkpt lat="46.383480000000006" lon="15.13545">
    <ele>623.07</ele>
   </trkpt>
   <trkpt lat="46.38344000000001" lon="15.135670000000001">
    <ele>620.38</ele>
   </trkpt>
   <trkpt lat="46.38338" lon="15.135460000000002">
    <ele>618.4000000000001</ele>
   </trkpt>
   <trkpt lat="46.38333" lon="15.135550000000002">
    <ele>617.6700000000001</ele>
   </trkpt>
   <trkpt lat="46.38331" lon="15.135670000000001">
    <ele>616.01</ele>
   </trkpt>
   <trkpt lat="46.38322" lon="15.135930000000002">
    <ele>611.34</ele>
   </trkpt>
   <trkpt lat="46.38318" lon="15.135950000000001">
    <ele>611.34</ele>
   </trkpt>
   <trkpt lat="46.38311" lon="15.136050000000001">
    <ele>606.32</ele>
   </trkpt>
   <trkpt lat="46.383010000000006" lon="15.13611">
    <ele>606.32</ele>
   </trkpt>
   <trkpt lat="46.38291" lon="15.136220000000002">
    <ele>602.3900000000001</ele>
   </trkpt>
   <trkpt lat="46.382830000000006" lon="15.136190000000001">
    <ele>600.45</ele>
   </trkpt>
   <trkpt lat="46.382740000000005" lon="15.136140000000001">
    <ele>596.71</ele>
   </trkpt>
   <trkpt lat="46.382580000000004" lon="15.135830000000002">
    <ele>593.1200000000001</ele>
   </trkpt>
   <trkpt lat="46.38252000000001" lon="15.135790000000002">
    <ele>592.71</ele>
   </trkpt>
   <trkpt lat="46.38246" lon="15.13564">
    <ele>592.61</ele>
   </trkpt>
   <trkpt lat="46.38251" lon="15.134920000000001">
    <ele>587.52</ele>
   </trkpt>
   <trkpt lat="46.38221" lon="15.134720000000002">
    <ele>589.2400000000001</ele>
   </trkpt>
   <trkpt lat="46.382110000000004" lon="15.1347">
    <ele>589.5400000000001</ele>
   </trkpt>
   <trkpt lat="46.382020000000004" lon="15.134710000000002">
    <ele>589.61</ele>
   </trkpt>
   <trkpt lat="46.38195" lon="15.13475">
    <ele>589.7</ele>
   </trkpt>
   <trkpt lat="46.381660000000004" lon="15.13526">
    <ele>591.5400000000001</ele>
   </trkpt>
   <trkpt lat="46.38161" lon="15.135370000000002">
    <ele>591.6700000000001</ele>
   </trkpt>
   <trkpt lat="46.381350000000005" lon="15.135550000000002">
    <ele>590.0600000000001</ele>
   </trkpt>
   <trkpt lat="46.381170000000004" lon="15.135140000000002">
    <ele>588.1</ele>
   </trkpt>
   <trkpt lat="46.381220000000006" lon="15.135000000000002">
    <ele>586.9700000000001</ele>
   </trkpt>
   <trkpt lat="46.380990000000004" lon="15.134490000000001">
    <ele>580.37</ele>
   </trkpt>
   <trkpt lat="46.38096" lon="15.13446">
    <ele>580.37</ele>
   </trkpt>
   <trkpt lat="46.380840000000006" lon="15.134400000000001">
    <ele>577.99</ele>
   </trkpt>
   <trkpt lat="46.380630000000004" lon="15.134390000000002">
    <ele>575.38</ele>
   </trkpt>
   <trkpt lat="46.3804" lon="15.134350000000001">
    <ele>573.71</ele>
   </trkpt>
   <trkpt lat="46.38022" lon="15.13427">
    <ele>571.35</ele>
   </trkpt>
   <trkpt lat="46.3796" lon="15.13428">
    <ele>568.9200000000001</ele>
   </trkpt>
   <trkpt lat="46.37948" lon="15.13432">
    <ele>567.6500000000001</ele>
   </trkpt>
   <trkpt lat="46.379180000000005" lon="15.134480000000002">
    <ele>562.5100000000001</ele>
   </trkpt>
   <trkpt lat="46.379070000000006" lon="15.134520000000002">
    <ele>560.71</ele>
   </trkpt>
   <trkpt lat="46.378930000000004" lon="15.13446">
    <ele>557.37</ele>
   </trkpt>
   <trkpt lat="46.37868" lon="15.13432">
    <ele>554.23</ele>
   </trkpt>
   <trkpt lat="46.37854" lon="15.134220000000001">
    <ele>551.88</ele>
   </trkpt>
   <trkpt lat="46.37812" lon="15.134030000000001">
    <ele>544.86</ele>
   </trkpt>
   <trkpt lat="46.37796" lon="15.134060000000002">
    <ele>541.13</ele>
   </trkpt>
   <trkpt lat="46.37792" lon="15.1339">
    <ele>538.82</ele>
   </trkpt>
   <trkpt lat="46.37800000000001" lon="15.13352">
    <ele>535.5600000000001</ele>
   </trkpt>
   <trkpt lat="46.37801" lon="15.133360000000001">
    <ele>531.61</ele>
   </trkpt>
   <trkpt lat="46.377990000000004" lon="15.13324">
    <ele>531.61</ele>
   </trkpt>
   <trkpt lat="46.377860000000005" lon="15.13301">
    <ele>527.87</ele>
   </trkpt>
   <trkpt lat="46.377750000000006" lon="15.13296">
    <ele>526.99</ele>
   </trkpt>
   <trkpt lat="46.37756" lon="15.132940000000001">
    <ele>525.24</ele>
   </trkpt>
   <trkpt lat="46.377460000000006" lon="15.132900000000001">
    <ele>522.44</ele>
   </trkpt>
   <trkpt lat="46.37729" lon="15.132760000000001">
    <ele>520.6800000000001</ele>
   </trkpt>
   <trkpt lat="46.3768" lon="15.132470000000001">
    <ele>520.23</ele>
   </trkpt>
   <trkpt lat="46.376430000000006" lon="15.132410000000002">
    <ele>525.2900000000001</ele>
   </trkpt>
   <trkpt lat="46.37623000000001" lon="15.1324">
    <ele>527.5600000000001</ele>
   </trkpt>
   <trkpt lat="46.37615" lon="15.132370000000002">
    <ele>528.8900000000001</ele>
   </trkpt>
   <trkpt lat="46.376070000000006" lon="15.13231">
    <ele>529.82</ele>
   </trkpt>
   <trkpt lat="46.37597" lon="15.13216">
    <ele>532.2600000000001</ele>
   </trkpt>
   <trkpt lat="46.37586" lon="15.13212">
    <ele>532.4100000000001</ele>
   </trkpt>
   <trkpt lat="46.375710000000005" lon="15.132090000000002">
    <ele>534.48</ele>
   </trkpt>
   <trkpt lat="46.375600000000006" lon="15.132180000000002">
    <ele>535.6899999999999</ele>
   </trkpt>
   <trkpt lat="46.37545" lon="15.132230000000002">
    <ele>537.7</ele>
   </trkpt>
   <trkpt lat="46.375350000000005" lon="15.13221">
    <ele>538.7700000000001</ele>
   </trkpt>
   <trkpt lat="46.37518" lon="15.132140000000001">
    <ele>539.3800000000001</ele>
   </trkpt>
   <trkpt lat="46.37516" lon="15.13212">
    <ele>539.2800000000001</ele>
   </trkpt>
   <trkpt lat="46.37518" lon="15.132140000000001">
    <ele>539.34</ele>
   </trkpt>
   <trkpt lat="46.375080000000004" lon="15.131990000000002">
    <ele>537.9200000000001</ele>
   </trkpt>
   <trkpt lat="46.37498" lon="15.131760000000002">
    <ele>533.75</ele>
   </trkpt>
   <trkpt lat="46.374840000000006" lon="15.131590000000001">
    <ele>531.6800000000001</ele>
   </trkpt>
   <trkpt lat="46.37476" lon="15.131390000000001">
    <ele>528.96</ele>
   </trkpt>
   <trkpt lat="46.374590000000005" lon="15.131240000000002">
    <ele>526.97</ele>
   </trkpt>
   <trkpt lat="46.374370000000006" lon="15.131150000000002">
    <ele>525.1600000000001</ele>
   </trkpt>
   <trkpt lat="46.374030000000005" lon="15.13085">
    <ele>522.7700000000001</ele>
   </trkpt>
   <trkpt lat="46.37370000000001" lon="15.130720000000002">
    <ele>521.12</ele>
   </trkpt>
   <trkpt lat="46.373560000000005" lon="15.130640000000001">
    <ele>520.75</ele>
   </trkpt>
   <trkpt lat="46.373380000000004" lon="15.13047">
    <ele>518.3000000000001</ele>
   </trkpt>
   <trkpt lat="46.37306" lon="15.12987">
    <ele>507.62000000000006</ele>
   </trkpt>
   <trkpt lat="46.37292" lon="15.12972">
    <ele>505.28000000000003</ele>
   </trkpt>
   <trkpt lat="46.372730000000004" lon="15.129460000000002">
    <ele>501.61</ele>
   </trkpt>
   <trkpt lat="46.37261" lon="15.129430000000001">
    <ele>500.21000000000004</ele>
   </trkpt>
   <trkpt lat="46.37256000000001" lon="15.12935">
    <ele>500.21000000000004</ele>
   </trkpt>
   <trkpt lat="46.37257" lon="15.12925">
    <ele>499.86</ele>
   </trkpt>
   <trkpt lat="46.372710000000005" lon="15.128820000000001">
    <ele>498.2300000000001</ele>
   </trkpt>
   <trkpt lat="46.37306" lon="15.128060000000001">
    <ele>480.41</ele>
   </trkpt>
   <trkpt lat="46.373160000000006" lon="15.128020000000001">
    <ele>479.95000000000005</ele>
   </trkpt>
   <trkpt lat="46.372910000000005" lon="15.127340000000002">
    <ele>472.31000000000006</ele>
   </trkpt>
   <trkpt lat="46.37283" lon="15.127250000000002">
    <ele>472.32</ele>
   </trkpt>
   <trkpt lat="46.372730000000004" lon="15.127080000000001">
    <ele>471.65</ele>
   </trkpt>
   <trkpt lat="46.37214500274253" lon="15.126274991264895">
    <ele>466.1</ele>
   </trkpt>
   <trkpt lat="46.37156" lon="15.125470000000002">
    <ele>461.99</ele>
   </trkpt>
   <trkpt lat="46.37127" lon="15.124830000000001">
    <ele>460.66</ele>
   </trkpt>
   <trkpt lat="46.37113" lon="15.124550000000001">
    <ele>457.34000000000003</ele>
   </trkpt>
   <trkpt lat="46.37097000000001" lon="15.124410000000001">
    <ele>456.05</ele>
   </trkpt>
   <trkpt lat="46.37039" lon="15.12409">
    <ele>451.62</ele>
   </trkpt>
   <trkpt lat="46.370270000000005" lon="15.123990000000001">
    <ele>451.18</ele>
   </trkpt>
   <trkpt lat="46.37017" lon="15.123850000000001">
    <ele>449.49000000000007</ele>
   </trkpt>
   <trkpt lat="46.370090000000005" lon="15.123180000000001">
    <ele>448.29</ele>
   </trkpt>
   <trkpt lat="46.37004" lon="15.12301">
    <ele>447.48</ele>
   </trkpt>
   <trkpt lat="46.369980000000005" lon="15.122660000000002">
    <ele>448.15000000000003</ele>
   </trkpt>
   <trkpt lat="46.36997" lon="15.122520000000002">
    <ele>447.03000000000003</ele>
   </trkpt>
   <trkpt lat="46.36984" lon="15.122140000000002">
    <ele>445.53000000000003</ele>
   </trkpt>
   <trkpt lat="46.36983" lon="15.122040000000002">
    <ele>445.8</ele>
   </trkpt>
   <trkpt lat="46.3699" lon="15.121390000000002">
    <ele>444.78</ele>
   </trkpt>
   <trkpt lat="46.369960000000006" lon="15.12114">
    <ele>444.07</ele>
   </trkpt>
   <trkpt lat="46.370160000000006" lon="15.12057">
    <ele>440.52000000000004</ele>
   </trkpt>
   <trkpt lat="46.37039500134379" lon="15.120015002384823">
    <ele>434.36</ele>
   </trkpt>
   <trkpt lat="46.370630000000006" lon="15.119460000000002">
    <ele>428.31</ele>
   </trkpt>
   <trkpt lat="46.370540000000005" lon="15.119670000000001">
    <ele>432.62000000000006</ele>
   </trkpt>
   <trkpt lat="46.37033" lon="15.119470000000002">
    <ele>438.58000000000004</ele>
   </trkpt>
   <trkpt lat="46.370270000000005" lon="15.119370000000002">
    <ele>439.33000000000004</ele>
   </trkpt>
   <trkpt lat="46.37017" lon="15.118950000000002">
    <ele>438.42</ele>
   </trkpt>
   <trkpt lat="46.370090000000005" lon="15.11875">
    <ele>438.27000000000004</ele>
   </trkpt>
   <trkpt lat="46.370000000000005" lon="15.118450000000001">
    <ele>438.05000000000007</ele>
   </trkpt>
   <trkpt lat="46.369930000000004" lon="15.118200000000002">
    <ele>437.2300000000001</ele>
   </trkpt>
   <trkpt lat="46.369910000000004" lon="15.118030000000001">
    <ele>436.1</ele>
   </trkpt>
   <trkpt lat="46.36985000000001" lon="15.117820000000002">
    <ele>434.8</ele>
   </trkpt>
   <trkpt lat="46.36981" lon="15.11752">
    <ele>432.37</ele>
   </trkpt>
   <trkpt lat="46.36979" lon="15.117130000000001">
    <ele>427.08</ele>
   </trkpt>
   <trkpt lat="46.36976000000001" lon="15.116970000000002">
    <ele>424.37</ele>
   </trkpt>
   <trkpt lat="46.36981" lon="15.116610000000001">
    <ele>419.71000000000004</ele>
   </trkpt>
   <trkpt lat="46.369780000000006" lon="15.11635">
    <ele>417.75</ele>
   </trkpt>
   <trkpt lat="46.36965000000001" lon="15.115950000000002">
    <ele>415.44</ele>
   </trkpt>
   <trkpt lat="46.369580000000006" lon="15.115820000000001">
    <ele>414.46000000000004</ele>
   </trkpt>
   <trkpt lat="46.36959" lon="15.11583">
    <ele>414.63000000000005</ele>
   </trkpt>
   <trkpt lat="46.36941" lon="15.115570000000002">
    <ele>413.33000000000004</ele>
   </trkpt>
   <trkpt lat="46.369330000000005" lon="15.115630000000001">
    <ele>413.05</ele>
   </trkpt>
   <trkpt lat="46.36909000000001" lon="15.115610000000002">
    <ele>413.7</ele>
   </trkpt>
   <trkpt lat="46.36887" lon="15.115470000000002">
    <ele>413.03</ele>
   </trkpt>
   <trkpt lat="46.368660000000006" lon="15.115540000000001">
    <ele>412.74000000000007</ele>
   </trkpt>
   <trkpt lat="46.36849" lon="15.115710000000002">
    <ele>413.52000000000004</ele>
   </trkpt>
   <trkpt lat="46.36824000000001" lon="15.116010000000001">
    <ele>415.66</ele>
   </trkpt>
   <trkpt lat="46.368" lon="15.116230000000002">
    <ele>417.82</ele>
   </trkpt>
   <trkpt lat="46.367830000000005" lon="15.11649">
    <ele>420.21000000000004</ele>
   </trkpt>
   <trkpt lat="46.367470000000004" lon="15.116760000000001">
    <ele>427.89000000000004</ele>
   </trkpt>
   <trkpt lat="46.367290000000004" lon="15.116970000000002">
    <ele>432.50000000000006</ele>
   </trkpt>
   <trkpt lat="46.36721000000001" lon="15.117030000000002">
    <ele>434.84000000000003</ele>
   </trkpt>
   <trkpt lat="46.3671" lon="15.117040000000001">
    <ele>436.92</ele>
   </trkpt>
   <trkpt lat="46.36674000000001" lon="15.116980000000002">
    <ele>441.62</ele>
   </trkpt>
   <trkpt lat="46.36661" lon="15.116880000000002">
    <ele>441.23</ele>
   </trkpt>
   <trkpt lat="46.366620000000005" lon="15.116890000000001">
    <ele>441.50000000000006</ele>
   </trkpt>
   <trkpt lat="46.36648" lon="15.116830000000002">
    <ele>434.15000000000003</ele>
   </trkpt>
   <trkpt lat="46.3665" lon="15.116740000000002">
    <ele>434.52</ele>
   </trkpt>
   <trkpt lat="46.3665" lon="15.11658">
    <ele>436.22</ele>
   </trkpt>
   <trkpt lat="46.366530000000004" lon="15.116420000000002">
    <ele>436.98</ele>
   </trkpt>
   <trkpt lat="46.36677" lon="15.115450000000001">
    <ele>438.24</ele>
   </trkpt>
   <trkpt lat="46.366870000000006" lon="15.11466">
    <ele>433.79</ele>
   </trkpt>
   <trkpt lat="46.366910000000004" lon="15.114510000000001">
    <ele>433.79</ele>
   </trkpt>
   <trkpt lat="46.36697" lon="15.114400000000002">
    <ele>433.27000000000004</ele>
   </trkpt>
   <trkpt lat="46.36708" lon="15.11428">
    <ele>432.69</ele>
   </trkpt>
   <trkpt lat="46.36735" lon="15.114090000000001">
    <ele>432.42</ele>
   </trkpt>
   <trkpt lat="46.36741000000001" lon="15.114">
    <ele>432.66</ele>
   </trkpt>
   <trkpt lat="46.36742" lon="15.114090000000001">
    <ele>432.6700000000001</ele>
   </trkpt>
   <trkpt lat="46.36755" lon="15.114080000000001">
    <ele>433.18</ele>
   </trkpt>
   <trkpt lat="46.36766" lon="15.113970000000002">
    <ele>433.31</ele>
   </trkpt>
   <trkpt lat="46.36778" lon="15.113690000000002">
    <ele>432.03000000000003</ele>
   </trkpt>
   <trkpt lat="46.36793" lon="15.113470000000001">
    <ele>431.3</ele>
   </trkpt>
   <trkpt lat="46.368300000000005" lon="15.113050000000001">
    <ele>431.78000000000003</ele>
   </trkpt>
   <trkpt lat="46.36853000000001" lon="15.112860000000001">
    <ele>432.36</ele>
   </trkpt>
   <trkpt lat="46.368790000000004" lon="15.11273">
    <ele>433.37</ele>
   </trkpt>
   <trkpt lat="46.36892" lon="15.112580000000001">
    <ele>433.9</ele>
   </trkpt>
   <trkpt lat="46.36907" lon="15.11227">
    <ele>435.39000000000004</ele>
   </trkpt>
   <trkpt lat="46.36920000186488" lon="15.11162000142962">
    <ele>437.32000000000005</ele>
   </trkpt>
   <trkpt lat="46.369330000000005" lon="15.110970000000002">
    <ele>436.39000000000004</ele>
   </trkpt>
   <trkpt lat="46.36945" lon="15.11086">
    <ele>435.97</ele>
   </trkpt>
   <trkpt lat="46.36954" lon="15.110850000000001">
    <ele>435.38000000000005</ele>
   </trkpt>
   <trkpt lat="46.370090000000005" lon="15.11091">
    <ele>432.15000000000003</ele>
   </trkpt>
   <trkpt lat="46.370470000000005" lon="15.110890000000001">
    <ele>429.05</ele>
   </trkpt>
   <trkpt lat="46.370920000000005" lon="15.11067">
    <ele>428.63</ele>
   </trkpt>
   <trkpt lat="46.371210000000005" lon="15.110460000000002">
    <ele>427.26000000000005</ele>
   </trkpt>
   <trkpt lat="46.371300000000005" lon="15.110320000000002">
    <ele>426.7</ele>
   </trkpt>
   <trkpt lat="46.37145" lon="15.109050000000002">
    <ele>422.48</ele>
   </trkpt>
   <trkpt lat="46.371610000000004" lon="15.108200000000002">
    <ele>413.07000000000005</ele>
   </trkpt>
   <trkpt lat="46.372130000000006" lon="15.107750000000001">
    <ele>405.24</ele>
   </trkpt>
   <trkpt lat="46.372350000000004" lon="15.107420000000001">
    <ele>400.14000000000004</ele>
   </trkpt>
   <trkpt lat="46.37257" lon="15.10696">
    <ele>394.63000000000005</ele>
   </trkpt>
   <trkpt lat="46.37257" lon="15.106410000000002">
    <ele>390.13000000000005</ele>
   </trkpt>
   <trkpt lat="46.372870000000006" lon="15.106370000000002">
    <ele>388.14000000000004</ele>
   </trkpt>
   <trkpt lat="46.37286" lon="15.106270000000002">
    <ele>387.82000000000005</ele>
   </trkpt>
   <trkpt lat="46.37274" lon="15.10588">
    <ele>386.16</ele>
   </trkpt>
   <trkpt lat="46.37297" lon="15.105580000000002">
    <ele>383.59000000000003</ele>
   </trkpt>
   <trkpt lat="46.373050000000006" lon="15.105640000000001">
    <ele>382.94000000000005</ele>
   </trkpt>
   <trkpt lat="46.373070000000006" lon="15.105580000000002">
    <ele>382.94000000000005</ele>
   </trkpt>
   <trkpt lat="46.373380000000004" lon="15.105310000000001">
    <ele>381.51</ele>
   </trkpt>
   <trkpt lat="46.373520000000006" lon="15.105250000000002">
    <ele>381.51</ele>
   </trkpt>
   <trkpt lat="46.37382" lon="15.105050000000002">
    <ele>380.74</ele>
   </trkpt>
   <trkpt lat="46.373740000000005" lon="15.10443">
    <ele>380.41</ele>
   </trkpt>
   <trkpt lat="46.37369" lon="15.104090000000001">
    <ele>380.18</ele>
   </trkpt>
   <trkpt lat="46.37357" lon="15.10364">
    <ele>380.23</ele>
   </trkpt>
   <trkpt lat="46.373560000000005" lon="15.10349">
    <ele>380.57</ele>
   </trkpt>
   <trkpt lat="46.37369" lon="15.10251">
    <ele>378.1</ele>
   </trkpt>
   <trkpt lat="46.37415000000001" lon="15.102640000000001">
    <ele>376.36</ele>
   </trkpt>
   <trkpt lat="46.37429" lon="15.102610000000002">
    <ele>375.98</ele>
   </trkpt>
   <trkpt lat="46.37429" lon="15.102590000000001">
    <ele>375.88000000000005</ele>
   </trkpt>
   <trkpt lat="46.37407" lon="15.101970000000001">
    <ele>374.33000000000004</ele>
   </trkpt>
   <trkpt lat="46.37406000000001" lon="15.10106">
    <ele>373.50000000000006</ele>
   </trkpt>
   <trkpt lat="46.37418" lon="15.10072">
    <ele>372.94000000000005</ele>
   </trkpt>
   <trkpt lat="46.37416" lon="15.100460000000002">
    <ele>372.83000000000004</ele>
   </trkpt>
   <trkpt lat="46.37417000000001" lon="15.100340000000001">
    <ele>372.8</ele>
   </trkpt>
   <trkpt lat="46.37424" lon="15.100240000000001">
    <ele>372.83000000000004</ele>
   </trkpt>
   <trkpt lat="46.37438" lon="15.099870000000001">
    <ele>373.13</ele>
   </trkpt>
   <trkpt lat="46.37467" lon="15.099490000000001">
    <ele>372.4</ele>
   </trkpt>
   <trkpt lat="46.37471" lon="15.09932">
    <ele>372.03000000000003</ele>
   </trkpt>
   <trkpt lat="46.37473000000001" lon="15.0988">
    <ele>370.82000000000005</ele>
   </trkpt>
   <trkpt lat="46.374700000000004" lon="15.09866">
    <ele>371.03000000000003</ele>
   </trkpt>
   <trkpt lat="46.37449" lon="15.09824">
    <ele>372.64000000000004</ele>
   </trkpt>
   <trkpt lat="46.37442" lon="15.097980000000002">
    <ele>372.39000000000004</ele>
   </trkpt>
   <trkpt lat="46.374410000000005" lon="15.097320000000002">
    <ele>370.03000000000003</ele>
   </trkpt>
   <trkpt lat="46.37424" lon="15.09716">
    <ele>369.33000000000004</ele>
   </trkpt>
   <trkpt lat="46.374190000000006" lon="15.097050000000001">
    <ele>369.3</ele>
   </trkpt>
   <trkpt lat="46.374140000000004" lon="15.09683">
    <ele>369.45000000000005</ele>
   </trkpt>
   <trkpt lat="46.374030000000005" lon="15.095600000000001">
    <ele>369.85</ele>
   </trkpt>
   <trkpt lat="46.37395" lon="15.09533">
    <ele>369.6</ele>
   </trkpt>
   <trkpt lat="46.37397000000001" lon="15.095360000000001">
    <ele>369.62</ele>
   </trkpt>
   <trkpt lat="46.37389" lon="15.09519">
    <ele>369.4</ele>
   </trkpt>
   <trkpt lat="46.37382" lon="15.095110000000002">
    <ele>369.26000000000005</ele>
   </trkpt>
   <trkpt lat="46.37370000000001" lon="15.095070000000002">
    <ele>369.23</ele>
   </trkpt>
   <trkpt lat="46.37353" lon="15.095070000000002">
    <ele>369.31</ele>
   </trkpt>
   <trkpt lat="46.373430000000006" lon="15.095030000000001">
    <ele>369.31</ele>
   </trkpt>
   <trkpt lat="46.372800000000005" lon="15.0943">
    <ele>368.79</ele>
   </trkpt>
   <trkpt lat="46.37257" lon="15.094100000000001">
    <ele>368.84000000000003</ele>
   </trkpt>
   <trkpt lat="46.372240000000005" lon="15.093760000000001">
    <ele>369.07</ele>
   </trkpt>
   <trkpt lat="46.372150000000005" lon="15.093570000000001">
    <ele>369.01</ele>
   </trkpt>
   <trkpt lat="46.372110000000006" lon="15.093380000000002">
    <ele>369.03000000000003</ele>
   </trkpt>
   <trkpt lat="46.37212" lon="15.092760000000002">
    <ele>369.57</ele>
   </trkpt>
   <trkpt lat="46.37209000000001" lon="15.092600000000001">
    <ele>369.57</ele>
   </trkpt>
   <trkpt lat="46.371880000000004" lon="15.092110000000002">
    <ele>370.39000000000004</ele>
   </trkpt>
   <trkpt lat="46.37153000000001" lon="15.091450000000002">
    <ele>370.22</ele>
   </trkpt>
   <trkpt lat="46.3714" lon="15.091320000000001">
    <ele>369.94000000000005</ele>
   </trkpt>
   <trkpt lat="46.37126000000001" lon="15.09125">
    <ele>369.71000000000004</ele>
   </trkpt>
   <trkpt lat="46.37091" lon="15.091120000000002">
    <ele>369.24</ele>
   </trkpt>
   <trkpt lat="46.3708" lon="15.09106">
    <ele>369.54</ele>
   </trkpt>
   <trkpt lat="46.3706" lon="15.090910000000001">
    <ele>369.79</ele>
   </trkpt>
   <trkpt lat="46.370610000000006" lon="15.090600000000002">
    <ele>369.44000000000005</ele>
   </trkpt>
   <trkpt lat="46.37059000000001" lon="15.090380000000001">
    <ele>369.44000000000005</ele>
   </trkpt>
   <trkpt lat="46.370520000000006" lon="15.090190000000002">
    <ele>369.42</ele>
   </trkpt>
   <trkpt lat="46.37031" lon="15.089810000000002">
    <ele>369.51</ele>
   </trkpt>
   <trkpt lat="46.370340000000006" lon="15.089870000000001">
    <ele>369.49</ele>
   </trkpt>
   <trkpt lat="46.3703" lon="15.08979">
    <ele>369.49</ele>
   </trkpt>
   <trkpt lat="46.37023000000001" lon="15.08956">
    <ele>369.55</ele>
   </trkpt>
   <trkpt lat="46.37015" lon="15.08941">
    <ele>369.73</ele>
   </trkpt>
   <trkpt lat="46.370140000000006" lon="15.089260000000001">
    <ele>369.79</ele>
   </trkpt>
   <trkpt lat="46.36988" lon="15.08867">
    <ele>372.1</ele>
   </trkpt>
   <trkpt lat="46.36979" lon="15.088400000000002">
    <ele>372.51</ele>
   </trkpt>
   <trkpt lat="46.36972" lon="15.08792">
    <ele>372.9</ele>
   </trkpt>
   <trkpt lat="46.369640000000004" lon="15.087110000000001">
    <ele>372.94000000000005</ele>
   </trkpt>
   <trkpt lat="46.36966" lon="15.08683">
    <ele>372.93</ele>
   </trkpt>
   <trkpt lat="46.36948" lon="15.08674">
    <ele>373.15000000000003</ele>
   </trkpt>
   <trkpt lat="46.36923" lon="15.086680000000001">
    <ele>373.09000000000003</ele>
   </trkpt>
  </trkseg>
 </trk>
</gpx>
