<?xml version='1.0' encoding='UTF-8'?>
<gpx version="1.1" creator="https://www.komoot.de" xmlns="http://www.topografix.com/GPX/1/1" xmlns:xsi="http://www.w3.org/2001/XMLSchema-instance" xsi:schemaLocation="http://www.topografix.com/GPX/1/1 http://www.topografix.com/GPX/1/1/gpx.xsd">
  <metadata>
    <name>JELKA</name>
    <author>
      <link href="https://www.komoot.de">
        <text>komoot</text>
        <type>text/html</type>
      </link>
    </author>
  </metadata>
  <trk>
    <name>JELKA</name>
    <type>hike</type>
    <trkseg>
      <trkpt lat="46.453895" lon="15.332607">
        <ele>1478.062849</ele>
        <time>2026-08-24T13:31:05.310Z</time>
      </trkpt>
      <trkpt lat="46.453896" lon="15.332613">
        <ele>1478.062849</ele>
        <time>2026-08-24T13:31:05.770Z</time>
      </trkpt>
      <trkpt lat="46.453912" lon="15.332724">
        <ele>1478.062849</ele>
        <time>2026-08-24T13:31:14.131Z</time>
      </trkpt>
      <trkpt lat="46.453900" lon="15.332900">
        <ele>1478.062849</ele>
        <time>2026-08-24T13:31:27.271Z</time>
      </trkpt>
      <trkpt lat="46.454079" lon="15.332732">
        <ele>1478.062849</ele>
        <time>2026-08-24T13:31:50.175Z</time>
      </trkpt>
      <trkpt lat="46.454557" lon="15.333026">
        <ele>1478.053518</ele>
        <time>2026-08-24T13:32:46.066Z</time>
      </trkpt>
      <trkpt lat="46.454692" lon="15.333130">
        <ele>1478.015187</ele>
        <time>2026-08-24T13:33:02.474Z</time>
      </trkpt>
      <trkpt lat="46.454748" lon="15.333913">
        <ele>1477.879173</ele>
        <time>2026-08-24T13:33:59.653Z</time>
      </trkpt>
      <trkpt lat="46.454904" lon="15.335059">
        <ele>1477.677338</ele>
        <time>2026-08-24T13:35:21.737Z</time>
      </trkpt>
      <trkpt lat="46.454871" lon="15.336117">
        <ele>1479.473669</ele>
        <time>2026-08-24T13:36:44.421Z</time>
      </trkpt>
      <trkpt lat="46.455057" lon="15.336856">
        <ele>1481.629492</ele>
        <time>2026-08-24T13:37:47.139Z</time>
      </trkpt>
      <trkpt lat="46.455133" lon="15.337224">
        <ele>1482.682171</ele>
        <time>2026-08-24T13:38:17.616Z</time>
      </trkpt>
      <trkpt lat="46.455170" lon="15.337549">
        <ele>1483.584771</ele>
        <time>2026-08-24T13:38:43.749Z</time>
      </trkpt>
      <trkpt lat="46.455297" lon="15.337972">
        <ele>1484.849215</ele>
        <time>2026-08-24T13:39:20.407Z</time>
      </trkpt>
      <trkpt lat="46.455610" lon="15.338628">
        <ele>1487.038589</ele>
        <time>2026-08-24T13:40:23.051Z</time>
      </trkpt>
      <trkpt lat="46.455811" lon="15.338991">
        <ele>1488.316368</ele>
        <time>2026-08-24T13:40:58.974Z</time>
      </trkpt>
      <trkpt lat="46.455935" lon="15.339199">
        <ele>1489.071057</ele>
        <time>2026-08-24T13:41:20.360Z</time>
      </trkpt>
      <trkpt lat="46.456183" lon="15.340504">
        <ele>1493.022727</ele>
        <time>2026-08-24T13:43:06.492Z</time>
      </trkpt>
      <trkpt lat="46.456191" lon="15.340769">
        <ele>1493.952288</ele>
        <time>2026-08-24T13:43:27.939Z</time>
      </trkpt>
      <trkpt lat="46.456147" lon="15.341148">
        <ele>1495.299189</ele>
        <time>2026-08-24T13:43:59.681Z</time>
      </trkpt>
      <trkpt lat="46.456157" lon="15.341519">
        <ele>1496.600322</ele>
        <time>2026-08-24T13:44:30.399Z</time>
      </trkpt>
      <trkpt lat="46.456176" lon="15.341755">
        <ele>1497.432992</ele>
        <time>2026-08-24T13:44:50.047Z</time>
      </trkpt>
      <trkpt lat="46.456245" lon="15.342083">
        <ele>1498.634835</ele>
        <time>2026-08-24T13:45:18.207Z</time>
      </trkpt>
      <trkpt lat="46.456266" lon="15.342419">
        <ele>1499.817153</ele>
        <time>2026-08-24T13:45:45.802Z</time>
      </trkpt>
      <trkpt lat="46.456331" lon="15.342660">
        <ele>1500.724133</ele>
        <time>2026-08-24T13:46:06.737Z</time>
      </trkpt>
      <trkpt lat="46.456357" lon="15.343056">
        <ele>1501.732590</ele>
        <time>2026-08-24T13:46:38.634Z</time>
      </trkpt>
      <trkpt lat="46.456368" lon="15.343674">
        <ele>1503.095706</ele>
        <time>2026-08-24T13:47:28.206Z</time>
      </trkpt>
      <trkpt lat="46.456169" lon="15.344356">
        <ele>1504.728813</ele>
        <time>2026-08-24T13:48:25.386Z</time>
      </trkpt>
      <trkpt lat="46.456137" lon="15.344657">
        <ele>1505.400363</ele>
        <time>2026-08-24T13:48:48.346Z</time>
      </trkpt>
      <trkpt lat="46.456184" lon="15.344869">
        <ele>1505.891424</ele>
        <time>2026-08-24T13:49:04.797Z</time>
      </trkpt>
      <trkpt lat="46.456166" lon="15.345430">
        <ele>1506.559479</ele>
        <time>2026-08-24T13:49:45.032Z</time>
      </trkpt>
      <trkpt lat="46.456237" lon="15.345635">
        <ele>1506.085996</ele>
        <time>2026-08-24T13:50:01.200Z</time>
      </trkpt>
      <trkpt lat="46.456354" lon="15.345793">
        <ele>1505.607322</ele>
        <time>2026-08-24T13:50:17.572Z</time>
      </trkpt>
      <trkpt lat="46.456421" lon="15.345703">
        <ele>1505.333882</ele>
        <time>2026-08-24T13:50:26.855Z</time>
      </trkpt>
      <trkpt lat="46.456513" lon="15.345674">
        <ele>1505.051881</ele>
        <time>2026-08-24T13:50:36.443Z</time>
      </trkpt>
      <trkpt lat="46.456650" lon="15.345690">
        <ele>1504.640183</ele>
        <time>2026-08-24T13:50:50.281Z</time>
      </trkpt>
      <trkpt lat="46.456809" lon="15.345607">
        <ele>1504.134051</ele>
        <time>2026-08-24T13:51:07.815Z</time>
      </trkpt>
      <trkpt lat="46.456893" lon="15.345405">
        <ele>1503.647161</ele>
        <time>2026-08-24T13:51:25.044Z</time>
      </trkpt>
      <trkpt lat="46.456985" lon="15.345396">
        <ele>1503.370958</ele>
        <time>2026-08-24T13:51:34.891Z</time>
      </trkpt>
      <trkpt lat="46.457113" lon="15.345319">
        <ele>1502.955925</ele>
        <time>2026-08-24T13:51:50.090Z</time>
      </trkpt>
      <trkpt lat="46.457157" lon="15.345262">
        <ele>1502.779274</ele>
        <time>2026-08-24T13:51:56.592Z</time>
      </trkpt>
      <trkpt lat="46.457423" lon="15.345134">
        <ele>1501.939855</ele>
        <time>2026-08-24T13:52:28.489Z</time>
      </trkpt>
      <trkpt lat="46.457569" lon="15.345135">
        <ele>1501.502519</ele>
        <time>2026-08-24T13:52:45.505Z</time>
      </trkpt>
      <trkpt lat="46.458033" lon="15.345366">
        <ele>1496.504408</ele>
        <time>2026-08-24T13:53:43.744Z</time>
      </trkpt>
      <trkpt lat="46.458205" lon="15.345352">
        <ele>1494.700888</ele>
        <time>2026-08-24T13:54:04.413Z</time>
      </trkpt>
      <trkpt lat="46.458366" lon="15.345276">
        <ele>1492.928476</ele>
        <time>2026-08-24T13:54:25.077Z</time>
      </trkpt>
      <trkpt lat="46.458537" lon="15.345149">
        <ele>1490.917554</ele>
        <time>2026-08-24T13:54:48.762Z</time>
      </trkpt>
      <trkpt lat="46.458735" lon="15.345061">
        <ele>1488.749685</ele>
        <time>2026-08-24T13:55:14.366Z</time>
      </trkpt>
      <trkpt lat="46.459097" lon="15.344745">
        <ele>1484.327414</ele>
        <time>2026-08-24T13:56:06.478Z</time>
      </trkpt>
      <trkpt lat="46.459373" lon="15.344333">
        <ele>1479.802571</ele>
        <time>2026-08-24T13:56:54.696Z</time>
      </trkpt>
      <trkpt lat="46.459616" lon="15.344130">
        <ele>1476.408939</ele>
        <time>2026-08-24T13:57:28.553Z</time>
      </trkpt>
      <trkpt lat="46.459864" lon="15.344057">
        <ele>1473.345967</ele>
        <time>2026-08-24T13:57:58.922Z</time>
      </trkpt>
      <trkpt lat="46.459986" lon="15.344072">
        <ele>1471.863948</ele>
        <time>2026-08-24T13:58:13.604Z</time>
      </trkpt>
      <trkpt lat="46.460024" lon="15.344035">
        <ele>1471.310099</ele>
        <time>2026-08-24T13:58:19.129Z</time>
      </trkpt>
      <trkpt lat="46.460450" lon="15.343920">
        <ele>1466.065242</ele>
        <time>2026-08-24T13:59:12.074Z</time>
      </trkpt>
      <trkpt lat="46.460586" lon="15.344007">
        <ele>1464.266303</ele>
        <time>2026-08-24T13:59:30.683Z</time>
      </trkpt>
      <trkpt lat="46.460711" lon="15.343987">
        <ele>1462.744096</ele>
        <time>2026-08-24T13:59:46.628Z</time>
      </trkpt>
      <trkpt lat="46.460799" lon="15.344059">
        <ele>1461.521383</ele>
        <time>2026-08-24T13:59:59.605Z</time>
      </trkpt>
      <trkpt lat="46.460913" lon="15.344304">
        <ele>1458.119066</ele>
        <time>2026-08-24T14:00:26.175Z</time>
      </trkpt>
      <trkpt lat="46.461122" lon="15.344523">
        <ele>1453.365373</ele>
        <time>2026-08-24T14:01:00.691Z</time>
      </trkpt>
      <trkpt lat="46.461235" lon="15.344736">
        <ele>1449.949927</ele>
        <time>2026-08-24T14:01:26.716Z</time>
      </trkpt>
      <trkpt lat="46.461370" lon="15.344750">
        <ele>1447.453846</ele>
        <time>2026-08-24T14:01:46.291Z</time>
      </trkpt>
      <trkpt lat="46.461539" lon="15.345010">
        <ele>1442.912444</ele>
        <time>2026-08-24T14:02:22.324Z</time>
      </trkpt>
      <trkpt lat="46.461856" lon="15.345121">
        <ele>1436.898516</ele>
        <time>2026-08-24T14:03:10.490Z</time>
      </trkpt>
      <trkpt lat="46.462176" lon="15.345113">
        <ele>1430.996045</ele>
        <time>2026-08-24T14:03:58.435Z</time>
      </trkpt>
      <trkpt lat="46.462225" lon="15.345153">
        <ele>1429.959291</ele>
        <time>2026-08-24T14:04:06.729Z</time>
      </trkpt>
      <trkpt lat="46.462393" lon="15.345167">
        <ele>1427.033646</ele>
        <time>2026-08-24T14:04:31.330Z</time>
      </trkpt>
      <trkpt lat="46.462740" lon="15.345075">
        <ele>1421.941322</ele>
        <time>2026-08-24T14:05:20.689Z</time>
      </trkpt>
      <trkpt lat="46.462951" lon="15.344869">
        <ele>1418.270473</ele>
        <time>2026-08-24T14:05:54.043Z</time>
      </trkpt>
      <trkpt lat="46.462987" lon="15.344957">
        <ele>1417.252689</ele>
        <time>2026-08-24T14:06:03.236Z</time>
      </trkpt>
      <trkpt lat="46.463028" lon="15.344969">
        <ele>1416.648883</ele>
        <time>2026-08-24T14:06:08.640Z</time>
      </trkpt>
      <trkpt lat="46.463235" lon="15.344869">
        <ele>1413.499416</ele>
        <time>2026-08-24T14:06:36.355Z</time>
      </trkpt>
      <trkpt lat="46.463489" lon="15.344813">
        <ele>1409.790499</ele>
        <time>2026-08-24T14:07:08.417Z</time>
      </trkpt>
      <trkpt lat="46.463782" lon="15.344813">
        <ele>1405.560603</ele>
        <time>2026-08-24T14:07:44.629Z</time>
      </trkpt>
      <trkpt lat="46.464314" lon="15.344888">
        <ele>1399.952089</ele>
        <time>2026-08-24T14:08:49.219Z</time>
      </trkpt>
      <trkpt lat="46.464562" lon="15.344977">
        <ele>1398.275914</ele>
        <time>2026-08-24T14:09:18.962Z</time>
      </trkpt>
      <trkpt lat="46.465038" lon="15.345038">
        <ele>1395.140600</ele>
        <time>2026-08-24T14:10:13.142Z</time>
      </trkpt>
      <trkpt lat="46.465369" lon="15.344980">
        <ele>1392.953054</ele>
        <time>2026-08-24T14:10:49.840Z</time>
      </trkpt>
      <trkpt lat="46.465609" lon="15.344996">
        <ele>1391.376687</ele>
        <time>2026-08-24T14:11:16.299Z</time>
      </trkpt>
      <trkpt lat="46.466112" lon="15.344926">
        <ele>1389.673716</ele>
        <time>2026-08-24T14:12:10.315Z</time>
      </trkpt>
      <trkpt lat="46.466259" lon="15.344937">
        <ele>1389.551726</ele>
        <time>2026-08-24T14:12:25.741Z</time>
      </trkpt>
      <trkpt lat="46.466321" lon="15.345000">
        <ele>1389.489008</ele>
        <time>2026-08-24T14:12:33.540Z</time>
      </trkpt>
      <trkpt lat="46.466575" lon="15.344628">
        <ele>1389.190001</ele>
        <time>2026-08-24T14:13:11.095Z</time>
      </trkpt>
      <trkpt lat="46.467080" lon="15.344185">
        <ele>1388.701012</ele>
        <time>2026-08-24T14:14:10.337Z</time>
      </trkpt>
      <trkpt lat="46.467315" lon="15.344489">
        <ele>1388.440159</ele>
        <time>2026-08-24T14:14:42.977Z</time>
      </trkpt>
      <trkpt lat="46.467422" lon="15.344327">
        <ele>1388.875871</ele>
        <time>2026-08-24T14:14:59.730Z</time>
      </trkpt>
      <trkpt lat="46.467568" lon="15.344379">
        <ele>1389.425754</ele>
        <time>2026-08-24T14:15:16.519Z</time>
      </trkpt>
      <trkpt lat="46.467810" lon="15.344526">
        <ele>1390.385310</ele>
        <time>2026-08-24T14:15:46.127Z</time>
      </trkpt>
      <trkpt lat="46.468499" lon="15.345170">
        <ele>1393.382677</ele>
        <time>2026-08-24T14:17:21.096Z</time>
      </trkpt>
      <trkpt lat="46.468754" lon="15.345334">
        <ele>1394.402847</ele>
        <time>2026-08-24T14:17:53.552Z</time>
      </trkpt>
      <trkpt lat="46.469055" lon="15.345690">
        <ele>1395.511821</ele>
        <time>2026-08-24T14:18:37.676Z</time>
      </trkpt>
      <trkpt lat="46.469626" lon="15.345814">
        <ele>1396.829748</ele>
        <time>2026-08-24T14:19:41.422Z</time>
      </trkpt>
      <trkpt lat="46.470031" lon="15.346175">
        <ele>1397.914561</ele>
        <time>2026-08-24T14:20:32.236Z</time>
      </trkpt>
      <trkpt lat="46.470115" lon="15.346176">
        <ele>1398.106315</ele>
        <time>2026-08-24T14:20:40.984Z</time>
      </trkpt>
      <trkpt lat="46.470222" lon="15.346109">
        <ele>1398.372310</ele>
        <time>2026-08-24T14:20:53.101Z</time>
      </trkpt>
      <trkpt lat="46.470361" lon="15.345916">
        <ele>1398.811339</ele>
        <time>2026-08-24T14:21:12.970Z</time>
      </trkpt>
      <trkpt lat="46.470544" lon="15.345741">
        <ele>1399.184397</ele>
        <time>2026-08-24T14:21:35.492Z</time>
      </trkpt>
      <trkpt lat="46.470754" lon="15.345650">
        <ele>1399.382321</ele>
        <time>2026-08-24T14:21:57.992Z</time>
      </trkpt>
      <trkpt lat="46.470945" lon="15.345669">
        <ele>1399.555223</ele>
        <time>2026-08-24T14:22:17.481Z</time>
      </trkpt>
      <trkpt lat="46.471179" lon="15.345629">
        <ele>1399.768014</ele>
        <time>2026-08-24T14:22:41.572Z</time>
      </trkpt>
      <trkpt lat="46.471824" lon="15.345618">
        <ele>1400.350572</ele>
        <time>2026-08-24T14:23:48.071Z</time>
      </trkpt>
      <trkpt lat="46.472088" lon="15.345492">
        <ele>1400.601549</ele>
        <time>2026-08-24T14:24:17.024Z</time>
      </trkpt>
      <trkpt lat="46.472363" lon="15.345527">
        <ele>1400.753175</ele>
        <time>2026-08-24T14:24:45.957Z</time>
      </trkpt>
      <trkpt lat="46.472646" lon="15.345481">
        <ele>1400.809837</ele>
        <time>2026-08-24T14:25:15.679Z</time>
      </trkpt>
      <trkpt lat="46.472945" lon="15.345503">
        <ele>1400.869407</ele>
        <time>2026-08-24T14:25:46.808Z</time>
      </trkpt>
      <trkpt lat="46.473315" lon="15.345376">
        <ele>1400.945057</ele>
        <time>2026-08-24T14:26:25.711Z</time>
      </trkpt>
      <trkpt lat="46.473590" lon="15.345320">
        <ele>1401.000311</ele>
        <time>2026-08-24T14:26:53.640Z</time>
      </trkpt>
      <trkpt lat="46.473872" lon="15.345334">
        <ele>1401.056455</ele>
        <time>2026-08-24T14:27:22.490Z</time>
      </trkpt>
      <trkpt lat="46.474093" lon="15.345279">
        <ele>1400.882603</ele>
        <time>2026-08-24T14:27:45.546Z</time>
      </trkpt>
      <trkpt lat="46.474305" lon="15.345109">
        <ele>1400.333038</ele>
        <time>2026-08-24T14:28:10.604Z</time>
      </trkpt>
      <trkpt lat="46.474415" lon="15.344971">
        <ele>1400.003160</ele>
        <time>2026-08-24T14:28:25.765Z</time>
      </trkpt>
      <trkpt lat="46.474454" lon="15.344952">
        <ele>1399.909811</ele>
        <time>2026-08-24T14:28:30.135Z</time>
      </trkpt>
      <trkpt lat="46.474691" lon="15.345031">
        <ele>1399.358011</ele>
        <time>2026-08-24T14:28:55.587Z</time>
      </trkpt>
      <trkpt lat="46.474835" lon="15.345033">
        <ele>1399.031224</ele>
        <time>2026-08-24T14:29:10.737Z</time>
      </trkpt>
      <trkpt lat="46.474963" lon="15.345206">
        <ele>1398.634408</ele>
        <time>2026-08-24T14:29:29.205Z</time>
      </trkpt>
      <trkpt lat="46.475042" lon="15.345374">
        <ele>1398.316497</ele>
        <time>2026-08-24T14:29:44.045Z</time>
      </trkpt>
      <trkpt lat="46.475256" lon="15.345448">
        <ele>1397.817299</ele>
        <time>2026-08-24T14:30:07.386Z</time>
      </trkpt>
      <trkpt lat="46.475504" lon="15.345452">
        <ele>1397.254491</ele>
        <time>2026-08-24T14:30:33.675Z</time>
      </trkpt>
      <trkpt lat="46.475687" lon="15.345520">
        <ele>1396.799229</ele>
        <time>2026-08-24T14:30:53.637Z</time>
      </trkpt>
      <trkpt lat="46.475918" lon="15.345557">
        <ele>1396.192148</ele>
        <time>2026-08-24T14:31:18.024Z</time>
      </trkpt>
      <trkpt lat="46.476185" lon="15.345539">
        <ele>1395.493936</ele>
        <time>2026-08-24T14:31:46.072Z</time>
      </trkpt>
      <trkpt lat="46.476536" lon="15.345663">
        <ele>1394.550305</ele>
        <time>2026-08-24T14:32:24.206Z</time>
      </trkpt>
      <trkpt lat="46.476615" lon="15.345742">
        <ele>1394.299741</ele>
        <time>2026-08-24T14:32:34.303Z</time>
      </trkpt>
      <trkpt lat="46.476689" lon="15.345884">
        <ele>1393.979400</ele>
        <time>2026-08-24T14:32:47.174Z</time>
      </trkpt>
      <trkpt lat="46.477015" lon="15.346206">
        <ele>1392.949491</ele>
        <time>2026-08-24T14:33:28.738Z</time>
      </trkpt>
      <trkpt lat="46.477462" lon="15.346192">
        <ele>1392.009481</ele>
        <time>2026-08-24T14:34:16.012Z</time>
      </trkpt>
      <trkpt lat="46.477594" lon="15.346012">
        <ele>1391.743042</ele>
        <time>2026-08-24T14:34:35.209Z</time>
      </trkpt>
      <trkpt lat="46.477892" lon="15.346005">
        <ele>1391.304504</ele>
        <time>2026-08-24T14:35:06.747Z</time>
      </trkpt>
      <trkpt lat="46.478121" lon="15.345903">
        <ele>1390.952057</ele>
        <time>2026-08-24T14:35:32.038Z</time>
      </trkpt>
      <trkpt lat="46.478268" lon="15.345709">
        <ele>1390.659781</ele>
        <time>2026-08-24T14:35:52.849Z</time>
      </trkpt>
      <trkpt lat="46.478533" lon="15.345776">
        <ele>1390.263991</ele>
        <time>2026-08-24T14:36:20.715Z</time>
      </trkpt>
      <trkpt lat="46.478750" lon="15.345906">
        <ele>1389.918591</ele>
        <time>2026-08-24T14:36:44.417Z</time>
      </trkpt>
      <trkpt lat="46.479117" lon="15.345822">
        <ele>1390.542804</ele>
        <time>2026-08-24T14:37:22.978Z</time>
      </trkpt>
      <trkpt lat="46.479091" lon="15.345701">
        <ele>1390.942033</ele>
        <time>2026-08-24T14:37:31.680Z</time>
      </trkpt>
      <trkpt lat="46.479098" lon="15.345633">
        <ele>1391.158588</ele>
        <time>2026-08-24T14:37:36.419Z</time>
      </trkpt>
      <trkpt lat="46.479158" lon="15.345525">
        <ele>1391.595647</ele>
        <time>2026-08-24T14:37:45.987Z</time>
      </trkpt>
      <trkpt lat="46.479206" lon="15.345486">
        <ele>1391.847219</ele>
        <time>2026-08-24T14:37:51.495Z</time>
      </trkpt>
      <trkpt lat="46.479241" lon="15.345424">
        <ele>1392.099727</ele>
        <time>2026-08-24T14:37:57.024Z</time>
      </trkpt>
      <trkpt lat="46.479264" lon="15.345364">
        <ele>1392.316012</ele>
        <time>2026-08-24T14:38:01.761Z</time>
      </trkpt>
      <trkpt lat="46.479284" lon="15.345274">
        <ele>1392.613873</ele>
        <time>2026-08-24T14:38:08.284Z</time>
      </trkpt>
      <trkpt lat="46.479316" lon="15.345208">
        <ele>1392.868105</ele>
        <time>2026-08-24T14:38:13.853Z</time>
      </trkpt>
      <trkpt lat="46.479344" lon="15.345156">
        <ele>1393.076012</ele>
        <time>2026-08-24T14:38:18.408Z</time>
      </trkpt>
      <trkpt lat="46.479376" lon="15.345086">
        <ele>1393.340645</ele>
        <time>2026-08-24T14:38:24.205Z</time>
      </trkpt>
      <trkpt lat="46.479405" lon="15.345032">
        <ele>1393.556332</ele>
        <time>2026-08-24T14:38:28.931Z</time>
      </trkpt>
      <trkpt lat="46.479417" lon="15.344955">
        <ele>1393.804986</ele>
        <time>2026-08-24T14:38:34.379Z</time>
      </trkpt>
      <trkpt lat="46.479443" lon="15.344872">
        <ele>1394.092181</ele>
        <time>2026-08-24T14:38:40.671Z</time>
      </trkpt>
      <trkpt lat="46.479475" lon="15.344816">
        <ele>1394.321379</ele>
        <time>2026-08-24T14:38:45.693Z</time>
      </trkpt>
      <trkpt lat="46.479495" lon="15.344743">
        <ele>1394.568830</ele>
        <time>2026-08-24T14:38:51.115Z</time>
      </trkpt>
      <trkpt lat="46.479483" lon="15.344667">
        <ele>1394.814412</ele>
        <time>2026-08-24T14:38:56.494Z</time>
      </trkpt>
      <trkpt lat="46.479507" lon="15.344598">
        <ele>1395.057886</ele>
        <time>2026-08-24T14:39:01.829Z</time>
      </trkpt>
      <trkpt lat="46.479544" lon="15.344540">
        <ele>1395.306905</ele>
        <time>2026-08-24T14:39:07.285Z</time>
      </trkpt>
      <trkpt lat="46.479573" lon="15.344487">
        <ele>1395.520116</ele>
        <time>2026-08-24T14:39:11.955Z</time>
      </trkpt>
      <trkpt lat="46.479672" lon="15.344415">
        <ele>1396.026538</ele>
        <time>2026-08-24T14:39:23.053Z</time>
      </trkpt>
      <trkpt lat="46.479713" lon="15.344368">
        <ele>1396.265452</ele>
        <time>2026-08-24T14:39:28.288Z</time>
      </trkpt>
      <trkpt lat="46.479766" lon="15.344314">
        <ele>1396.561578</ele>
        <time>2026-08-24T14:39:34.779Z</time>
      </trkpt>
      <trkpt lat="46.479813" lon="15.344275">
        <ele>1396.809168</ele>
        <time>2026-08-24T14:39:40.205Z</time>
      </trkpt>
      <trkpt lat="46.479853" lon="15.344231">
        <ele>1397.038683</ele>
        <time>2026-08-24T14:39:45.236Z</time>
      </trkpt>
      <trkpt lat="46.479908" lon="15.344178">
        <ele>1397.340590</ele>
        <time>2026-08-24T14:39:51.856Z</time>
      </trkpt>
      <trkpt lat="46.479947" lon="15.344129">
        <ele>1397.576465</ele>
        <time>2026-08-24T14:39:57.026Z</time>
      </trkpt>
      <trkpt lat="46.479980" lon="15.344072">
        <ele>1397.811011</ele>
        <time>2026-08-24T14:40:02.169Z</time>
      </trkpt>
      <trkpt lat="46.480021" lon="15.344013">
        <ele>1398.078500</ele>
        <time>2026-08-24T14:40:07.958Z</time>
      </trkpt>
      <trkpt lat="46.480086" lon="15.343900">
        <ele>1398.550685</ele>
        <time>2026-08-24T14:40:18.123Z</time>
      </trkpt>
      <trkpt lat="46.480128" lon="15.343855">
        <ele>1398.793761</ele>
        <time>2026-08-24T14:40:23.356Z</time>
      </trkpt>
      <trkpt lat="46.480166" lon="15.343801">
        <ele>1399.041366</ele>
        <time>2026-08-24T14:40:28.687Z</time>
      </trkpt>
      <trkpt lat="46.480232" lon="15.343764">
        <ele>1399.370846</ele>
        <time>2026-08-24T14:40:35.779Z</time>
      </trkpt>
      <trkpt lat="46.480271" lon="15.343724">
        <ele>1399.593206</ele>
        <time>2026-08-24T14:40:40.566Z</time>
      </trkpt>
      <trkpt lat="46.480297" lon="15.343660">
        <ele>1399.831506</ele>
        <time>2026-08-24T14:40:45.694Z</time>
      </trkpt>
      <trkpt lat="46.480302" lon="15.343588">
        <ele>1400.063576</ele>
        <time>2026-08-24T14:40:50.689Z</time>
      </trkpt>
      <trkpt lat="46.480336" lon="15.343531">
        <ele>1400.305416</ele>
        <time>2026-08-24T14:40:55.894Z</time>
      </trkpt>
      <trkpt lat="46.480390" lon="15.343539">
        <ele>1400.558207</ele>
        <time>2026-08-24T14:41:01.334Z</time>
      </trkpt>
      <trkpt lat="46.480390" lon="15.343480">
        <ele>1400.747416</ele>
        <time>2026-08-24T14:41:05.404Z</time>
      </trkpt>
      <trkpt lat="46.480749" lon="15.343478">
        <ele>1402.419345</ele>
        <time>2026-08-24T14:41:47.699Z</time>
      </trkpt>
      <trkpt lat="46.480958" lon="15.343437">
        <ele>1403.401530</ele>
        <time>2026-08-24T14:42:11.518Z</time>
      </trkpt>
      <trkpt lat="46.481047" lon="15.343451">
        <ele>1403.818440</ele>
        <time>2026-08-24T14:42:21.600Z</time>
      </trkpt>
      <trkpt lat="46.481142" lon="15.343531">
        <ele>1404.329872</ele>
        <time>2026-08-24T14:42:33.774Z</time>
      </trkpt>
      <trkpt lat="46.481471" lon="15.343614">
        <ele>1405.885021</ele>
        <time>2026-08-24T14:43:10.928Z</time>
      </trkpt>
      <trkpt lat="46.481575" lon="15.343588">
        <ele>1406.290090</ele>
        <time>2026-08-24T14:43:22.636Z</time>
      </trkpt>
      <trkpt lat="46.481856" lon="15.343426">
        <ele>1406.652248</ele>
        <time>2026-08-24T14:43:55.664Z</time>
      </trkpt>
      <trkpt lat="46.482002" lon="15.343457">
        <ele>1406.828999</ele>
        <time>2026-08-24T14:44:11.517Z</time>
      </trkpt>
      <trkpt lat="46.482257" lon="15.343389">
        <ele>1407.139566</ele>
        <time>2026-08-24T14:44:38.969Z</time>
      </trkpt>
      <trkpt lat="46.482590" lon="15.343195">
        <ele>1407.569361</ele>
        <time>2026-08-24T14:45:16.352Z</time>
      </trkpt>
      <trkpt lat="46.482768" lon="15.343205">
        <ele>1407.782744</ele>
        <time>2026-08-24T14:45:34.808Z</time>
      </trkpt>
      <trkpt lat="46.482852" lon="15.343272">
        <ele>1407.897543</ele>
        <time>2026-08-24T14:45:44.762Z</time>
      </trkpt>
      <trkpt lat="46.483394" lon="15.343512">
        <ele>1407.994646</ele>
        <time>2026-08-24T14:46:41.608Z</time>
      </trkpt>
      <trkpt lat="46.483710" lon="15.343708">
        <ele>1406.924420</ele>
        <time>2026-08-24T14:47:16.939Z</time>
      </trkpt>
      <trkpt lat="46.483774" lon="15.343747">
        <ele>1406.708248</ele>
        <time>2026-08-24T14:47:24.156Z</time>
      </trkpt>
      <trkpt lat="46.483968" lon="15.343727">
        <ele>1406.102490</ele>
        <time>2026-08-24T14:47:44.616Z</time>
      </trkpt>
      <trkpt lat="46.484034" lon="15.343801">
        <ele>1405.842792</ele>
        <time>2026-08-24T14:47:53.395Z</time>
      </trkpt>
      <trkpt lat="46.484232" lon="15.344236">
        <ele>1404.724484</ele>
        <time>2026-08-24T14:48:31.718Z</time>
      </trkpt>
      <trkpt lat="46.484378" lon="15.344465">
        <ele>1404.055175</ele>
        <time>2026-08-24T14:48:55.040Z</time>
      </trkpt>
      <trkpt lat="46.484504" lon="15.344609">
        <ele>1403.555795</ele>
        <time>2026-08-24T14:49:12.774Z</time>
      </trkpt>
      <trkpt lat="46.484731" lon="15.344709">
        <ele>1402.816965</ele>
        <time>2026-08-24T14:49:39.416Z</time>
      </trkpt>
      <trkpt lat="46.484968" lon="15.344666">
        <ele>1401.396614</ele>
        <time>2026-08-24T14:50:06.414Z</time>
      </trkpt>
      <trkpt lat="46.485045" lon="15.344701">
        <ele>1400.915469</ele>
        <time>2026-08-24T14:50:15.641Z</time>
      </trkpt>
      <trkpt lat="46.485339" lon="15.344982">
        <ele>1398.816637</ele>
        <time>2026-08-24T14:50:55.472Z</time>
      </trkpt>
      <trkpt lat="46.485671" lon="15.345220">
        <ele>1396.608747</ele>
        <time>2026-08-24T14:51:37.282Z</time>
      </trkpt>
      <trkpt lat="46.485835" lon="15.345261">
        <ele>1395.616367</ele>
        <time>2026-08-24T14:51:55.966Z</time>
      </trkpt>
      <trkpt lat="46.486166" lon="15.345246">
        <ele>1393.641522</ele>
        <time>2026-08-24T14:52:33.227Z</time>
      </trkpt>
      <trkpt lat="46.486330" lon="15.345292">
        <ele>1392.645454</ele>
        <time>2026-08-24T14:52:51.826Z</time>
      </trkpt>
      <trkpt lat="46.486448" lon="15.345390">
        <ele>1391.902693</ele>
        <time>2026-08-24T14:53:07.047Z</time>
      </trkpt>
      <trkpt lat="46.486582" lon="15.345425">
        <ele>1391.309565</ele>
        <time>2026-08-24T14:53:22.048Z</time>
      </trkpt>
      <trkpt lat="46.487040" lon="15.345280">
        <ele>1389.267459</ele>
        <time>2026-08-24T14:54:13.426Z</time>
      </trkpt>
      <trkpt lat="46.487394" lon="15.345422">
        <ele>1387.667541</ele>
        <time>2026-08-24T14:54:53.333Z</time>
      </trkpt>
      <trkpt lat="46.487555" lon="15.345429">
        <ele>1386.965839</ele>
        <time>2026-08-24T14:55:10.697Z</time>
      </trkpt>
      <trkpt lat="46.487699" lon="15.345481">
        <ele>1386.319412</ele>
        <time>2026-08-24T14:55:26.586Z</time>
      </trkpt>
      <trkpt lat="46.487845" lon="15.345596">
        <ele>1385.595858</ele>
        <time>2026-08-24T14:55:44.369Z</time>
      </trkpt>
      <trkpt lat="46.488179" lon="15.345752">
        <ele>1384.085095</ele>
        <time>2026-08-24T14:56:22.114Z</time>
      </trkpt>
      <trkpt lat="46.488322" lon="15.345916">
        <ele>1383.367782</ele>
        <time>2026-08-24T14:56:42.031Z</time>
      </trkpt>
      <trkpt lat="46.488746" lon="15.346280">
        <ele>1381.428778</ele>
        <time>2026-08-24T14:57:35.428Z</time>
      </trkpt>
      <trkpt lat="46.488966" lon="15.346549">
        <ele>1380.296628</ele>
        <time>2026-08-24T14:58:06.186Z</time>
      </trkpt>
      <trkpt lat="46.488966" lon="15.346549">
        <ele>1380.296628</ele>
        <time>2026-08-24T14:58:06.227Z</time>
      </trkpt>
      <trkpt lat="46.489151" lon="15.346663">
        <ele>1379.505475</ele>
        <time>2026-08-24T14:58:26.345Z</time>
      </trkpt>
      <trkpt lat="46.489239" lon="15.346676">
        <ele>1379.157246</ele>
        <time>2026-08-24T14:58:35.200Z</time>
      </trkpt>
      <trkpt lat="46.489825" lon="15.346974">
        <ele>1376.225968</ele>
        <time>2026-08-24T14:59:37.373Z</time>
      </trkpt>
      <trkpt lat="46.489901" lon="15.347647">
        <ele>1372.407717</ele>
        <time>2026-08-24T15:00:24.430Z</time>
      </trkpt>
      <trkpt lat="46.489678" lon="15.347968">
        <ele>1369.854622</ele>
        <time>2026-08-24T15:00:55.905Z</time>
      </trkpt>
      <trkpt lat="46.489678" lon="15.347968">
        <ele>1369.854622</ele>
        <time>2026-08-24T15:00:55.905Z</time>
      </trkpt>
      <trkpt lat="46.488710" lon="15.348834">
        <ele>1359.942389</ele>
        <time>2026-08-24T15:03:13.529Z</time>
      </trkpt>
      <trkpt lat="46.488398" lon="15.349035">
        <ele>1356.209395</ele>
        <time>2026-08-24T15:03:55.647Z</time>
      </trkpt>
      <trkpt lat="46.488169" lon="15.349253">
        <ele>1353.214758</ele>
        <time>2026-08-24T15:04:29.078Z</time>
      </trkpt>
      <trkpt lat="46.487882" lon="15.349619">
        <ele>1349.037556</ele>
        <time>2026-08-24T15:05:15.491Z</time>
      </trkpt>
      <trkpt lat="46.487457" lon="15.350297">
        <ele>1342.040057</ele>
        <time>2026-08-24T15:06:31.698Z</time>
      </trkpt>
      <trkpt lat="46.487215" lon="15.350767">
        <ele>1337.064592</ele>
        <time>2026-08-24T15:07:20.670Z</time>
      </trkpt>
      <trkpt lat="46.487034" lon="15.350950">
        <ele>1334.349115</ele>
        <time>2026-08-24T15:07:47.586Z</time>
      </trkpt>
      <trkpt lat="46.486860" lon="15.351066">
        <ele>1331.991730</ele>
        <time>2026-08-24T15:08:11.280Z</time>
      </trkpt>
      <trkpt lat="46.486524" lon="15.351377">
        <ele>1327.085835</ele>
        <time>2026-08-24T15:09:01.108Z</time>
      </trkpt>
      <trkpt lat="46.486330" lon="15.351434">
        <ele>1324.648722</ele>
        <time>2026-08-24T15:09:26.307Z</time>
      </trkpt>
      <trkpt lat="46.486185" lon="15.351529">
        <ele>1322.690082</ele>
        <time>2026-08-24T15:09:46.591Z</time>
      </trkpt>
      <trkpt lat="46.486079" lon="15.351529">
        <ele>1321.384903</ele>
        <time>2026-08-24T15:10:00.049Z</time>
      </trkpt>
      <trkpt lat="46.485897" lon="15.351596">
        <ele>1319.161926</ele>
        <time>2026-08-24T15:10:24.111Z</time>
      </trkpt>
      <trkpt lat="46.485498" lon="15.351567">
        <ele>1314.507503</ele>
        <time>2026-08-24T15:11:14.773Z</time>
      </trkpt>
      <trkpt lat="46.485213" lon="15.351819">
        <ele>1310.620106</ele>
        <time>2026-08-24T15:11:56.279Z</time>
      </trkpt>
      <trkpt lat="46.485160" lon="15.352002">
        <ele>1309.027510</ele>
        <time>2026-08-24T15:12:13.042Z</time>
      </trkpt>
      <trkpt lat="46.485036" lon="15.352162">
        <ele>1307.095021</ele>
        <time>2026-08-24T15:12:33.284Z</time>
      </trkpt>
      <trkpt lat="46.484797" lon="15.352236">
        <ele>1304.247943</ele>
        <time>2026-08-24T15:13:02.718Z</time>
      </trkpt>
      <trkpt lat="46.484635" lon="15.352343">
        <ele>1302.174523</ele>
        <time>2026-08-24T15:13:23.884Z</time>
      </trkpt>
      <trkpt lat="46.484469" lon="15.352289">
        <ele>1300.192596</ele>
        <time>2026-08-24T15:13:44.054Z</time>
      </trkpt>
      <trkpt lat="46.484162" lon="15.352509">
        <ele>1297.000492</ele>
        <time>2026-08-24T15:14:24.147Z</time>
      </trkpt>
      <trkpt lat="46.484070" lon="15.352586">
        <ele>1296.039700</ele>
        <time>2026-08-24T15:14:36.560Z</time>
      </trkpt>
      <trkpt lat="46.483743" lon="15.352710">
        <ele>1292.981681</ele>
        <time>2026-08-24T15:15:16.118Z</time>
      </trkpt>
      <trkpt lat="46.483395" lon="15.353083">
        <ele>1289.068136</ele>
        <time>2026-08-24T15:16:07.332Z</time>
      </trkpt>
      <trkpt lat="46.483268" lon="15.353335">
        <ele>1287.122466</ele>
        <time>2026-08-24T15:16:32.865Z</time>
      </trkpt>
      <trkpt lat="46.483209" lon="15.353485">
        <ele>1286.046172</ele>
        <time>2026-08-24T15:16:46.967Z</time>
      </trkpt>
      <trkpt lat="46.483100" lon="15.354244">
        <ele>1281.596577</ele>
        <time>2026-08-24T15:17:49.985Z</time>
      </trkpt>
      <trkpt lat="46.483087" lon="15.354737">
        <ele>1279.036634</ele>
        <time>2026-08-24T15:18:30.036Z</time>
      </trkpt>
      <trkpt lat="46.482990" lon="15.354740">
        <ele>1278.305514</ele>
        <time>2026-08-24T15:18:41.414Z</time>
      </trkpt>
      <trkpt lat="46.482920" lon="15.354784">
        <ele>1277.730734</ele>
        <time>2026-08-24T15:18:50.336Z</time>
      </trkpt>
      <trkpt lat="46.482901" lon="15.354883">
        <ele>1277.197463</ele>
        <time>2026-08-24T15:18:58.595Z</time>
      </trkpt>
      <trkpt lat="46.483071" lon="15.355236">
        <ele>1274.962287</ele>
        <time>2026-08-24T15:19:33.026Z</time>
      </trkpt>
      <trkpt lat="46.483376" lon="15.355757">
        <ele>1271.413971</ele>
        <time>2026-08-24T15:20:26.491Z</time>
      </trkpt>
      <trkpt lat="46.483475" lon="15.356017">
        <ele>1269.927169</ele>
        <time>2026-08-24T15:20:49.263Z</time>
      </trkpt>
      <trkpt lat="46.483474" lon="15.356266">
        <ele>1269.668920</ele>
        <time>2026-08-24T15:21:08.219Z</time>
      </trkpt>
      <trkpt lat="46.483432" lon="15.356445">
        <ele>1269.472792</ele>
        <time>2026-08-24T15:21:22.433Z</time>
      </trkpt>
      <trkpt lat="46.483217" lon="15.356781">
        <ele>1268.997076</ele>
        <time>2026-08-24T15:21:56.363Z</time>
      </trkpt>
      <trkpt lat="46.482947" lon="15.357495">
        <ele>1268.152241</ele>
        <time>2026-08-24T15:22:53.514Z</time>
      </trkpt>
      <trkpt lat="46.482836" lon="15.357672">
        <ele>1267.903944</ele>
        <time>2026-08-24T15:23:10.450Z</time>
      </trkpt>
      <trkpt lat="46.482541" lon="15.357827">
        <ele>1267.431424</ele>
        <time>2026-08-24T15:23:43.435Z</time>
      </trkpt>
      <trkpt lat="46.482029" lon="15.357878">
        <ele>1268.032498</ele>
        <time>2026-08-24T15:24:37.859Z</time>
      </trkpt>
      <trkpt lat="46.481915" lon="15.357926">
        <ele>1268.282224</ele>
        <time>2026-08-24T15:24:50.715Z</time>
      </trkpt>
      <trkpt lat="46.481647" lon="15.358125">
        <ele>1268.915507</ele>
        <time>2026-08-24T15:25:23.290Z</time>
      </trkpt>
      <trkpt lat="46.480997" lon="15.358321">
        <ele>1270.312231</ele>
        <time>2026-08-24T15:26:34.806Z</time>
      </trkpt>
      <trkpt lat="46.480969" lon="15.358240">
        <ele>1270.443537</ele>
        <time>2026-08-24T15:26:41.515Z</time>
      </trkpt>
      <trkpt lat="46.480468" lon="15.357517">
        <ele>1272.222284</ele>
        <time>2026-08-24T15:27:58.162Z</time>
      </trkpt>
      <trkpt lat="46.480157" lon="15.356952">
        <ele>1273.605998</ele>
        <time>2026-08-24T15:28:54.832Z</time>
      </trkpt>
      <trkpt lat="46.479811" lon="15.356486">
        <ele>1274.916960</ele>
        <time>2026-08-24T15:29:48.014Z</time>
      </trkpt>
      <trkpt lat="46.479493" lon="15.355955">
        <ele>1276.031631</ele>
        <time>2026-08-24T15:30:40.104Z</time>
      </trkpt>
      <trkpt lat="46.478998" lon="15.355631">
        <ele>1276.145722</ele>
        <time>2026-08-24T15:31:35.383Z</time>
      </trkpt>
      <trkpt lat="46.478686" lon="15.355512">
        <ele>1276.213505</ele>
        <time>2026-08-24T15:32:07.868Z</time>
      </trkpt>
      <trkpt lat="46.478536" lon="15.355526">
        <ele>1276.245089</ele>
        <time>2026-08-24T15:32:22.996Z</time>
      </trkpt>
      <trkpt lat="46.478325" lon="15.355617">
        <ele>1276.291340</ele>
        <time>2026-08-24T15:32:45.295Z</time>
      </trkpt>
      <trkpt lat="46.478163" lon="15.355620">
        <ele>1276.325384</ele>
        <time>2026-08-24T15:33:01.631Z</time>
      </trkpt>
      <trkpt lat="46.477981" lon="15.355478">
        <ele>1276.368797</ele>
        <time>2026-08-24T15:33:22.593Z</time>
      </trkpt>
      <trkpt lat="46.477766" lon="15.355218">
        <ele>1276.316806</ele>
        <time>2026-08-24T15:33:50.867Z</time>
      </trkpt>
      <trkpt lat="46.477635" lon="15.354992">
        <ele>1276.231427</ele>
        <time>2026-08-24T15:34:11.342Z</time>
      </trkpt>
      <trkpt lat="46.477354" lon="15.354646">
        <ele>1276.076800</ele>
        <time>2026-08-24T15:34:48.362Z</time>
      </trkpt>
      <trkpt lat="46.477245" lon="15.354539">
        <ele>1276.021580</ele>
        <time>2026-08-24T15:35:01.586Z</time>
      </trkpt>
      <trkpt lat="46.477153" lon="15.354523">
        <ele>1275.982691</ele>
        <time>2026-08-24T15:35:10.949Z</time>
      </trkpt>
      <trkpt lat="46.477072" lon="15.354595">
        <ele>1275.942832</ele>
        <time>2026-08-24T15:35:20.503Z</time>
      </trkpt>
      <trkpt lat="46.477007" lon="15.354737">
        <ele>1275.893550</ele>
        <time>2026-08-24T15:35:32.288Z</time>
      </trkpt>
      <trkpt lat="46.476935" lon="15.354925">
        <ele>1275.831376</ele>
        <time>2026-08-24T15:35:47.202Z</time>
      </trkpt>
      <trkpt lat="46.476865" lon="15.355282">
        <ele>1275.724092</ele>
        <time>2026-08-24T15:36:13.089Z</time>
      </trkpt>
      <trkpt lat="46.476787" lon="15.355448">
        <ele>1275.666009</ele>
        <time>2026-08-24T15:36:27.166Z</time>
      </trkpt>
      <trkpt lat="46.476669" lon="15.355459">
        <ele>1275.658521</ele>
        <time>2026-08-24T15:36:39.248Z</time>
      </trkpt>
      <trkpt lat="46.476479" lon="15.355336">
        <ele>1275.761345</ele>
        <time>2026-08-24T15:37:00.554Z</time>
      </trkpt>
      <trkpt lat="46.476037" lon="15.355240">
        <ele>1275.982249</ele>
        <time>2026-08-24T15:37:45.856Z</time>
      </trkpt>
      <trkpt lat="46.475618" lon="15.354952">
        <ele>1276.211386</ele>
        <time>2026-08-24T15:38:32.797Z</time>
      </trkpt>
      <trkpt lat="46.475496" lon="15.354931">
        <ele>1276.272111</ele>
        <time>2026-08-24T15:38:45.549Z</time>
      </trkpt>
      <trkpt lat="46.474994" lon="15.355250">
        <ele>1276.645252</ele>
        <time>2026-08-24T15:39:43.401Z</time>
      </trkpt>
      <trkpt lat="46.474744" lon="15.355301">
        <ele>1277.471886</ele>
        <time>2026-08-24T15:40:10.837Z</time>
      </trkpt>
      <trkpt lat="46.474551" lon="15.355381">
        <ele>1278.129086</ele>
        <time>2026-08-24T15:40:33.094Z</time>
      </trkpt>
      <trkpt lat="46.474301" lon="15.355416">
        <ele>1278.951477</ele>
        <time>2026-08-24T15:41:01.346Z</time>
      </trkpt>
      <trkpt lat="46.474007" lon="15.355784">
        <ele>1280.222449</ele>
        <time>2026-08-24T15:41:45.329Z</time>
      </trkpt>
      <trkpt lat="46.473864" lon="15.355813">
        <ele>1280.695230</ele>
        <time>2026-08-24T15:42:01.710Z</time>
      </trkpt>
      <trkpt lat="46.473740" lon="15.355780">
        <ele>1281.108016</ele>
        <time>2026-08-24T15:42:16.156Z</time>
      </trkpt>
      <trkpt lat="46.473619" lon="15.355799">
        <ele>1281.506527</ele>
        <time>2026-08-24T15:42:29.952Z</time>
      </trkpt>
      <trkpt lat="46.473296" lon="15.355948">
        <ele>1282.597612</ele>
        <time>2026-08-24T15:43:08.358Z</time>
      </trkpt>
      <trkpt lat="46.473032" lon="15.355979">
        <ele>1283.384893</ele>
        <time>2026-08-24T15:43:38.390Z</time>
      </trkpt>
      <trkpt lat="46.472851" lon="15.356042">
        <ele>1283.938144</ele>
        <time>2026-08-24T15:43:59.521Z</time>
      </trkpt>
      <trkpt lat="46.472647" lon="15.356016">
        <ele>1284.546850</ele>
        <time>2026-08-24T15:44:22.474Z</time>
      </trkpt>
      <trkpt lat="46.472573" lon="15.355936">
        <ele>1284.821080</ele>
        <time>2026-08-24T15:44:32.657Z</time>
      </trkpt>
      <trkpt lat="46.471959" lon="15.355601">
        <ele>1286.770741</ele>
        <time>2026-08-24T15:45:44.297Z</time>
      </trkpt>
      <trkpt lat="46.471844" lon="15.355616">
        <ele>1287.113947</ele>
        <time>2026-08-24T15:45:56.823Z</time>
      </trkpt>
      <trkpt lat="46.471585" lon="15.355559">
        <ele>1287.858196</ele>
        <time>2026-08-24T15:46:25.156Z</time>
      </trkpt>
      <trkpt lat="46.471312" lon="15.355638">
        <ele>1288.470065</ele>
        <time>2026-08-24T15:46:55.117Z</time>
      </trkpt>
      <trkpt lat="46.470814" lon="15.355876">
        <ele>1289.622463</ele>
        <time>2026-08-24T15:47:51.207Z</time>
      </trkpt>
      <trkpt lat="46.470556" lon="15.355846">
        <ele>1290.191375</ele>
        <time>2026-08-24T15:48:18.801Z</time>
      </trkpt>
      <trkpt lat="46.470034" lon="15.355641">
        <ele>1291.379985</ele>
        <time>2026-08-24T15:49:16.704Z</time>
      </trkpt>
      <trkpt lat="46.469593" lon="15.355358">
        <ele>1293.201810</ele>
        <time>2026-08-24T15:50:09.430Z</time>
      </trkpt>
      <trkpt lat="46.469493" lon="15.355080">
        <ele>1294.175163</ele>
        <time>2026-08-24T15:50:33.713Z</time>
      </trkpt>
      <trkpt lat="46.469471" lon="15.354895">
        <ele>1294.757805</ele>
        <time>2026-08-24T15:50:48.542Z</time>
      </trkpt>
      <trkpt lat="46.469526" lon="15.354550">
        <ele>1295.856819</ele>
        <time>2026-08-24T15:51:17.038Z</time>
      </trkpt>
      <trkpt lat="46.469666" lon="15.354223">
        <ele>1297.051753</ele>
        <time>2026-08-24T15:51:48.707Z</time>
      </trkpt>
      <trkpt lat="46.469718" lon="15.353785">
        <ele>1298.431126</ele>
        <time>2026-08-24T15:52:25.843Z</time>
      </trkpt>
      <trkpt lat="46.469707" lon="15.353481">
        <ele>1299.375886</ele>
        <time>2026-08-24T15:52:51.069Z</time>
      </trkpt>
      <trkpt lat="46.469727" lon="15.353141">
        <ele>1300.520418</ele>
        <time>2026-08-24T15:53:18.983Z</time>
      </trkpt>
      <trkpt lat="46.469706" lon="15.353034">
        <ele>1300.913632</ele>
        <time>2026-08-24T15:53:28.071Z</time>
      </trkpt>
      <trkpt lat="46.469640" lon="15.352933">
        <ele>1301.405686</ele>
        <time>2026-08-24T15:53:39.349Z</time>
      </trkpt>
      <trkpt lat="46.469546" lon="15.352890">
        <ele>1301.911414</ele>
        <time>2026-08-24T15:53:51.067Z</time>
      </trkpt>
      <trkpt lat="46.469379" lon="15.352874">
        <ele>1302.770227</ele>
        <time>2026-08-24T15:54:10.823Z</time>
      </trkpt>
      <trkpt lat="46.469277" lon="15.352896">
        <ele>1303.299376</ele>
        <time>2026-08-24T15:54:22.929Z</time>
      </trkpt>
      <trkpt lat="46.469083" lon="15.353088">
        <ele>1304.504149</ele>
        <time>2026-08-24T15:54:50.537Z</time>
      </trkpt>
      <trkpt lat="46.468958" lon="15.353209">
        <ele>1305.275064</ele>
        <time>2026-08-24T15:55:08.056Z</time>
      </trkpt>
      <trkpt lat="46.468844" lon="15.353269">
        <ele>1305.897296</ele>
        <time>2026-08-24T15:55:22.262Z</time>
      </trkpt>
      <trkpt lat="46.468627" lon="15.353290">
        <ele>1307.013287</ele>
        <time>2026-08-24T15:55:47.525Z</time>
      </trkpt>
      <trkpt lat="46.468398" lon="15.353202">
        <ele>1308.228846</ele>
        <time>2026-08-24T15:56:15.004Z</time>
      </trkpt>
      <trkpt lat="46.467954" lon="15.353133">
        <ele>1310.459290</ele>
        <time>2026-08-24T15:57:07.280Z</time>
      </trkpt>
      <trkpt lat="46.467771" lon="15.353184">
        <ele>1311.375904</ele>
        <time>2026-08-24T15:57:29.706Z</time>
      </trkpt>
      <trkpt lat="46.467636" lon="15.353126">
        <ele>1312.068435</ele>
        <time>2026-08-24T15:57:46.835Z</time>
      </trkpt>
      <trkpt lat="46.467562" lon="15.353032">
        <ele>1312.552097</ele>
        <time>2026-08-24T15:57:58.798Z</time>
      </trkpt>
      <trkpt lat="46.467322" lon="15.352997">
        <ele>1313.738601</ele>
        <time>2026-08-24T15:58:28.171Z</time>
      </trkpt>
      <trkpt lat="46.467072" lon="15.353056">
        <ele>1314.984496</ele>
        <time>2026-08-24T15:58:58.398Z</time>
      </trkpt>
      <trkpt lat="46.466569" lon="15.352874">
        <ele>1317.534441</ele>
        <time>2026-08-24T15:59:57.947Z</time>
      </trkpt>
      <trkpt lat="46.466154" lon="15.352929">
        <ele>1319.510293</ele>
        <time>2026-08-24T16:00:43.789Z</time>
      </trkpt>
      <trkpt lat="46.465804" lon="15.353017">
        <ele>1321.180963</ele>
        <time>2026-08-24T16:01:22.251Z</time>
      </trkpt>
      <trkpt lat="46.465559" lon="15.353124">
        <ele>1322.384289</ele>
        <time>2026-08-24T16:01:50.531Z</time>
      </trkpt>
      <trkpt lat="46.465491" lon="15.353135">
        <ele>1322.706095</ele>
        <time>2026-08-24T16:01:58.257Z</time>
      </trkpt>
      <trkpt lat="46.465205" lon="15.353030">
        <ele>1324.093592</ele>
        <time>2026-08-24T16:02:32.146Z</time>
      </trkpt>
      <trkpt lat="46.464978" lon="15.353118">
        <ele>1325.198656</ele>
        <time>2026-08-24T16:03:00.710Z</time>
      </trkpt>
      <trkpt lat="46.464898" lon="15.353239">
        <ele>1325.742015</ele>
        <time>2026-08-24T16:03:15.112Z</time>
      </trkpt>
      <trkpt lat="46.464912" lon="15.353354">
        <ele>1326.120349</ele>
        <time>2026-08-24T16:03:25.418Z</time>
      </trkpt>
      <trkpt lat="46.464884" lon="15.353467">
        <ele>1326.649443</ele>
        <time>2026-08-24T16:03:36.018Z</time>
      </trkpt>
      <trkpt lat="46.464816" lon="15.353560">
        <ele>1327.488936</ele>
        <time>2026-08-24T16:03:48.303Z</time>
      </trkpt>
      <trkpt lat="46.464605" lon="15.353596">
        <ele>1329.398059</ele>
        <time>2026-08-24T16:04:16.224Z</time>
      </trkpt>
      <trkpt lat="46.464349" lon="15.353533">
        <ele>1331.731326</ele>
        <time>2026-08-24T16:04:50.797Z</time>
      </trkpt>
      <trkpt lat="46.464196" lon="15.353519">
        <ele>1333.108933</ele>
        <time>2026-08-24T16:05:11.572Z</time>
      </trkpt>
      <trkpt lat="46.464105" lon="15.353544">
        <ele>1333.941183</ele>
        <time>2026-08-24T16:05:23.989Z</time>
      </trkpt>
      <trkpt lat="46.463965" lon="15.353747">
        <ele>1335.719257</ele>
        <time>2026-08-24T16:05:50.794Z</time>
      </trkpt>
      <trkpt lat="46.463850" lon="15.353791">
        <ele>1336.787948</ele>
        <time>2026-08-24T16:06:07.048Z</time>
      </trkpt>
      <trkpt lat="46.463803" lon="15.353878">
        <ele>1337.472324</ele>
        <time>2026-08-24T16:06:17.431Z</time>
      </trkpt>
      <trkpt lat="46.463726" lon="15.353931">
        <ele>1338.238086</ele>
        <time>2026-08-24T16:06:28.812Z</time>
      </trkpt>
      <trkpt lat="46.463666" lon="15.354084">
        <ele>1339.327847</ele>
        <time>2026-08-24T16:06:44.958Z</time>
      </trkpt>
      <trkpt lat="46.463696" lon="15.354153">
        <ele>1339.832907</ele>
        <time>2026-08-24T16:06:52.339Z</time>
      </trkpt>
      <trkpt lat="46.463759" lon="15.354197">
        <ele>1340.461138</ele>
        <time>2026-08-24T16:07:01.426Z</time>
      </trkpt>
      <trkpt lat="46.463825" lon="15.354367">
        <ele>1341.669029</ele>
        <time>2026-08-24T16:07:18.738Z</time>
      </trkpt>
      <trkpt lat="46.463822" lon="15.354825">
        <ele>1343.574869</ele>
        <time>2026-08-24T16:07:57.975Z</time>
      </trkpt>
      <trkpt lat="46.463746" lon="15.355212">
        <ele>1344.900112</ele>
        <time>2026-08-24T16:08:31.239Z</time>
      </trkpt>
      <trkpt lat="46.463713" lon="15.355629">
        <ele>1346.282402</ele>
        <time>2026-08-24T16:09:05.412Z</time>
      </trkpt>
      <trkpt lat="46.463746" lon="15.355947">
        <ele>1347.341451</ele>
        <time>2026-08-24T16:09:31.308Z</time>
      </trkpt>
      <trkpt lat="46.463677" lon="15.356205">
        <ele>1348.252885</ele>
        <time>2026-08-24T16:09:52.981Z</time>
      </trkpt>
      <trkpt lat="46.463589" lon="15.356400">
        <ele>1349.020604</ele>
        <time>2026-08-24T16:10:11.006Z</time>
      </trkpt>
      <trkpt lat="46.463780" lon="15.357259">
        <ele>1352.051060</ele>
        <time>2026-08-24T16:11:17.859Z</time>
      </trkpt>
      <trkpt lat="46.463622" lon="15.357104">
        <ele>1353.023011</ele>
        <time>2026-08-24T16:11:38.510Z</time>
      </trkpt>
      <trkpt lat="46.463366" lon="15.356526">
        <ele>1355.435611</ele>
        <time>2026-08-24T16:12:31.499Z</time>
      </trkpt>
      <trkpt lat="46.463318" lon="15.356094">
        <ele>1356.971928</ele>
        <time>2026-08-24T16:13:06.519Z</time>
      </trkpt>
      <trkpt lat="46.463109" lon="15.355689">
        <ele>1358.748628</ele>
        <time>2026-08-24T16:13:48.865Z</time>
      </trkpt>
      <trkpt lat="46.462982" lon="15.355244">
        <ele>1360.562980</ele>
        <time>2026-08-24T16:14:31.957Z</time>
      </trkpt>
      <trkpt lat="46.462835" lon="15.355000">
        <ele>1362.608967</ele>
        <time>2026-08-24T16:15:01.497Z</time>
      </trkpt>
      <trkpt lat="46.462632" lon="15.354890">
        <ele>1364.594406</ele>
        <time>2026-08-24T16:15:30.450Z</time>
      </trkpt>
      <trkpt lat="46.462582" lon="15.354667">
        <ele>1366.074608</ele>
        <time>2026-08-24T16:15:52.629Z</time>
      </trkpt>
      <trkpt lat="46.462484" lon="15.354714">
        <ele>1367.020314</ele>
        <time>2026-08-24T16:16:02.985Z</time>
      </trkpt>
      <trkpt lat="46.462433" lon="15.354706">
        <ele>1367.490347</ele>
        <time>2026-08-24T16:16:08.139Z</time>
      </trkpt>
      <trkpt lat="46.462377" lon="15.354721">
        <ele>1368.012136</ele>
        <time>2026-08-24T16:16:13.872Z</time>
      </trkpt>
      <trkpt lat="46.462279" lon="15.354798">
        <ele>1369.033193</ele>
        <time>2026-08-24T16:16:25.076Z</time>
      </trkpt>
      <trkpt lat="46.462223" lon="15.354858">
        <ele>1369.670938</ele>
        <time>2026-08-24T16:16:32.079Z</time>
      </trkpt>
      <trkpt lat="46.462177" lon="15.354904">
        <ele>1370.182757</ele>
        <time>2026-08-24T16:16:37.691Z</time>
      </trkpt>
      <trkpt lat="46.462128" lon="15.354944">
        <ele>1370.697860</ele>
        <time>2026-08-24T16:16:43.345Z</time>
      </trkpt>
      <trkpt lat="46.462069" lon="15.354998">
        <ele>1371.336950</ele>
        <time>2026-08-24T16:16:50.355Z</time>
      </trkpt>
      <trkpt lat="46.462018" lon="15.355034">
        <ele>1371.856577</ele>
        <time>2026-08-24T16:16:56.051Z</time>
      </trkpt>
      <trkpt lat="46.461961" lon="15.355045">
        <ele>1372.383462</ele>
        <time>2026-08-24T16:17:01.833Z</time>
      </trkpt>
      <trkpt lat="46.461911" lon="15.355075">
        <ele>1372.879200</ele>
        <time>2026-08-24T16:17:07.264Z</time>
      </trkpt>
      <trkpt lat="46.461859" lon="15.355085">
        <ele>1373.359838</ele>
        <time>2026-08-24T16:17:12.533Z</time>
      </trkpt>
      <trkpt lat="46.461803" lon="15.355075">
        <ele>1373.876834</ele>
        <time>2026-08-24T16:17:18.202Z</time>
      </trkpt>
      <trkpt lat="46.461695" lon="15.355035">
        <ele>1374.898136</ele>
        <time>2026-08-24T16:17:29.389Z</time>
      </trkpt>
      <trkpt lat="46.461643" lon="15.355030">
        <ele>1375.375656</ele>
        <time>2026-08-24T16:17:34.619Z</time>
      </trkpt>
      <trkpt lat="46.461572" lon="15.355027">
        <ele>1376.026504</ele>
        <time>2026-08-24T16:17:41.740Z</time>
      </trkpt>
      <trkpt lat="46.461536" lon="15.355055">
        <ele>1376.400732</ele>
        <time>2026-08-24T16:17:45.837Z</time>
      </trkpt>
      <trkpt lat="46.461483" lon="15.355090">
        <ele>1376.887982</ele>
        <time>2026-08-24T16:17:51.674Z</time>
      </trkpt>
      <trkpt lat="46.461381" lon="15.355102">
        <ele>1377.567316</ele>
        <time>2026-08-24T16:18:01.924Z</time>
      </trkpt>
      <trkpt lat="46.461321" lon="15.355113">
        <ele>1377.968782</ele>
        <time>2026-08-24T16:18:07.981Z</time>
      </trkpt>
      <trkpt lat="46.461158" lon="15.355098">
        <ele>1379.053008</ele>
        <time>2026-08-24T16:18:24.340Z</time>
      </trkpt>
      <trkpt lat="46.461106" lon="15.355104">
        <ele>1379.399292</ele>
        <time>2026-08-24T16:18:29.565Z</time>
      </trkpt>
      <trkpt lat="46.460996" lon="15.355111">
        <ele>1380.130214</ele>
        <time>2026-08-24T16:18:40.597Z</time>
      </trkpt>
      <trkpt lat="46.460943" lon="15.355105">
        <ele>1380.483116</ele>
        <time>2026-08-24T16:18:45.923Z</time>
      </trkpt>
      <trkpt lat="46.460900" lon="15.355065">
        <ele>1380.822143</ele>
        <time>2026-08-24T16:18:51.043Z</time>
      </trkpt>
      <trkpt lat="46.460854" lon="15.355032">
        <ele>1381.162760</ele>
        <time>2026-08-24T16:18:56.186Z</time>
      </trkpt>
      <trkpt lat="46.460746" lon="15.354979">
        <ele>1381.919561</ele>
        <time>2026-08-24T16:19:07.615Z</time>
      </trkpt>
      <trkpt lat="46.460703" lon="15.354961">
        <ele>1382.216641</ele>
        <time>2026-08-24T16:19:12.102Z</time>
      </trkpt>
      <trkpt lat="46.460646" lon="15.354922">
        <ele>1382.634950</ele>
        <time>2026-08-24T16:19:18.417Z</time>
      </trkpt>
      <trkpt lat="46.460592" lon="15.354906">
        <ele>1383.000813</ele>
        <time>2026-08-24T16:19:23.941Z</time>
      </trkpt>
      <trkpt lat="46.460491" lon="15.354904">
        <ele>1383.671351</ele>
        <time>2026-08-24T16:19:34.065Z</time>
      </trkpt>
      <trkpt lat="46.460356" lon="15.354941">
        <ele>1384.583363</ele>
        <time>2026-08-24T16:19:47.833Z</time>
      </trkpt>
      <trkpt lat="46.460332" lon="15.354757">
        <ele>1385.439725</ele>
        <time>2026-08-24T16:20:03.640Z</time>
      </trkpt>
      <trkpt lat="46.460341" lon="15.354584">
        <ele>1386.233087</ele>
        <time>2026-08-24T16:20:18.292Z</time>
      </trkpt>
      <trkpt lat="46.460311" lon="15.354289">
        <ele>1387.596710</ele>
        <time>2026-08-24T16:20:43.303Z</time>
      </trkpt>
      <trkpt lat="46.460342" lon="15.354002">
        <ele>1388.984319</ele>
        <time>2026-08-24T16:21:08.143Z</time>
      </trkpt>
      <trkpt lat="46.460311" lon="15.353748">
        <ele>1390.482840</ele>
        <time>2026-08-24T16:21:30.543Z</time>
      </trkpt>
      <trkpt lat="46.460261" lon="15.353621">
        <ele>1391.332605</ele>
        <time>2026-08-24T16:21:43.301Z</time>
      </trkpt>
      <trkpt lat="46.460142" lon="15.353442">
        <ele>1392.777731</ele>
        <time>2026-08-24T16:22:05.959Z</time>
      </trkpt>
      <trkpt lat="46.459965" lon="15.353316">
        <ele>1394.440205</ele>
        <time>2026-08-24T16:22:32.497Z</time>
      </trkpt>
      <trkpt lat="46.459721" lon="15.352857">
        <ele>1397.808296</ele>
        <time>2026-08-24T16:23:24.268Z</time>
      </trkpt>
      <trkpt lat="46.459684" lon="15.352736">
        <ele>1398.577362</ele>
        <time>2026-08-24T16:23:35.767Z</time>
      </trkpt>
      <trkpt lat="46.459583" lon="15.352487">
        <ele>1400.256014</ele>
        <time>2026-08-24T16:24:00.643Z</time>
      </trkpt>
      <trkpt lat="46.459549" lon="15.352227">
        <ele>1401.793405</ele>
        <time>2026-08-24T16:24:23.834Z</time>
      </trkpt>
      <trkpt lat="46.459379" lon="15.352018">
        <ele>1403.672089</ele>
        <time>2026-08-24T16:24:52.834Z</time>
      </trkpt>
      <trkpt lat="46.459379" lon="15.352018">
        <ele>1403.672089</ele>
        <time>2026-08-24T16:24:52.875Z</time>
      </trkpt>
      <trkpt lat="46.459290" lon="15.352003">
        <ele>1404.438115</ele>
        <time>2026-08-24T16:25:01.868Z</time>
      </trkpt>
      <trkpt lat="46.459213" lon="15.351911">
        <ele>1405.294997</ele>
        <time>2026-08-24T16:25:11.889Z</time>
      </trkpt>
      <trkpt lat="46.459172" lon="15.351839">
        <ele>1405.847915</ele>
        <time>2026-08-24T16:25:18.351Z</time>
      </trkpt>
      <trkpt lat="46.459145" lon="15.351798">
        <ele>1406.183641</ele>
        <time>2026-08-24T16:25:22.280Z</time>
      </trkpt>
      <trkpt lat="46.459115" lon="15.351767">
        <ele>1406.500046</ele>
        <time>2026-08-24T16:25:25.979Z</time>
      </trkpt>
      <trkpt lat="46.459066" lon="15.351715">
        <ele>1407.021572</ele>
        <time>2026-08-24T16:25:32.072Z</time>
      </trkpt>
      <trkpt lat="46.459006" lon="15.351670">
        <ele>1407.601849</ele>
        <time>2026-08-24T16:25:38.861Z</time>
      </trkpt>
      <trkpt lat="46.458957" lon="15.351622">
        <ele>1408.109763</ele>
        <time>2026-08-24T16:25:44.797Z</time>
      </trkpt>
      <trkpt lat="46.458936" lon="15.351566">
        <ele>1408.487156</ele>
        <time>2026-08-24T16:25:49.209Z</time>
      </trkpt>
      <trkpt lat="46.458911" lon="15.351525">
        <ele>1408.811246</ele>
        <time>2026-08-24T16:25:52.999Z</time>
      </trkpt>
      <trkpt lat="46.458885" lon="15.351480">
        <ele>1409.158883</ele>
        <time>2026-08-24T16:25:57.061Z</time>
      </trkpt>
      <trkpt lat="46.458840" lon="15.351293">
        <ele>1410.331323</ele>
        <time>2026-08-24T16:26:10.758Z</time>
      </trkpt>
      <trkpt lat="46.458767" lon="15.351177">
        <ele>1411.261295</ele>
        <time>2026-08-24T16:26:21.618Z</time>
      </trkpt>
      <trkpt lat="46.458678" lon="15.351044">
        <ele>1412.358796</ele>
        <time>2026-08-24T16:26:34.430Z</time>
      </trkpt>
      <trkpt lat="46.458616" lon="15.350938">
        <ele>1413.181863</ele>
        <time>2026-08-24T16:26:44.039Z</time>
      </trkpt>
      <trkpt lat="46.458570" lon="15.350936">
        <ele>1413.577284</ele>
        <time>2026-08-24T16:26:48.652Z</time>
      </trkpt>
      <trkpt lat="46.458535" lon="15.350890">
        <ele>1413.982958</ele>
        <time>2026-08-24T16:26:53.389Z</time>
      </trkpt>
      <trkpt lat="46.458442" lon="15.350841">
        <ele>1414.833044</ele>
        <time>2026-08-24T16:27:03.312Z</time>
      </trkpt>
      <trkpt lat="46.458321" lon="15.350802">
        <ele>1415.898025</ele>
        <time>2026-08-24T16:27:15.750Z</time>
      </trkpt>
      <trkpt lat="46.458215" lon="15.350811">
        <ele>1416.810360</ele>
        <time>2026-08-24T16:27:26.408Z</time>
      </trkpt>
      <trkpt lat="46.458198" lon="15.350660">
        <ele>1417.715995</ele>
        <time>2026-08-24T16:27:36.987Z</time>
      </trkpt>
      <trkpt lat="46.457462" lon="15.350833">
        <ele>1424.236737</ele>
        <time>2026-08-24T16:29:14.466Z</time>
      </trkpt>
      <trkpt lat="46.456287" lon="15.350737">
        <ele>1434.590104</ele>
        <time>2026-08-24T16:31:47.803Z</time>
      </trkpt>
      <trkpt lat="46.456060" lon="15.350774">
        <ele>1435.960588</ele>
        <time>2026-08-24T16:32:17.609Z</time>
      </trkpt>
      <trkpt lat="46.455855" lon="15.350868">
        <ele>1437.016723</ele>
        <time>2026-08-24T16:32:45.212Z</time>
      </trkpt>
      <trkpt lat="46.455291" lon="15.351223">
        <ele>1440.036706</ele>
        <time>2026-08-24T16:33:59.834Z</time>
      </trkpt>
      <trkpt lat="46.455114" lon="15.351292">
        <ele>1440.937049</ele>
        <time>2026-08-24T16:34:20.593Z</time>
      </trkpt>
      <trkpt lat="46.454570" lon="15.351395">
        <ele>1443.632142</ele>
        <time>2026-08-24T16:35:19.081Z</time>
      </trkpt>
      <trkpt lat="46.454594" lon="15.351562">
        <ele>1443.998281</ele>
        <time>2026-08-24T16:35:30.848Z</time>
      </trkpt>
      <trkpt lat="46.454461" lon="15.351586">
        <ele>1444.027587</ele>
        <time>2026-08-24T16:35:44.270Z</time>
      </trkpt>
      <trkpt lat="46.454374" lon="15.351600">
        <ele>1444.046728</ele>
        <time>2026-08-24T16:35:53.039Z</time>
      </trkpt>
      <trkpt lat="46.454327" lon="15.351601">
        <ele>1444.057006</ele>
        <time>2026-08-24T16:35:57.786Z</time>
      </trkpt>
      <trkpt lat="46.454274" lon="15.351601">
        <ele>1444.068596</ele>
        <time>2026-08-24T16:36:03.036Z</time>
      </trkpt>
      <trkpt lat="46.454217" lon="15.351608">
        <ele>1444.081104</ele>
        <time>2026-08-24T16:36:08.766Z</time>
      </trkpt>
      <trkpt lat="46.454172" lon="15.351615">
        <ele>1444.091001</ele>
        <time>2026-08-24T16:36:13.342Z</time>
      </trkpt>
      <trkpt lat="46.454102" lon="15.351610">
        <ele>1444.106326</ele>
        <time>2026-08-24T16:36:20.321Z</time>
      </trkpt>
      <trkpt lat="46.454024" lon="15.351616">
        <ele>1444.123406</ele>
        <time>2026-08-24T16:36:28.110Z</time>
      </trkpt>
      <trkpt lat="46.453981" lon="15.351666">
        <ele>1444.135454</ele>
        <time>2026-08-24T16:36:33.663Z</time>
      </trkpt>
      <trkpt lat="46.453928" lon="15.351684">
        <ele>1444.147356</ele>
        <time>2026-08-24T16:36:39.066Z</time>
      </trkpt>
      <trkpt lat="46.453901" lon="15.351690">
        <ele>1444.153329</ele>
        <time>2026-08-24T16:36:41.778Z</time>
      </trkpt>
      <trkpt lat="46.453875" lon="15.351702">
        <ele>1444.159295</ele>
        <time>2026-08-24T16:36:44.504Z</time>
      </trkpt>
      <trkpt lat="46.453840" lon="15.351710">
        <ele>1444.167043</ele>
        <time>2026-08-24T16:36:48.092Z</time>
      </trkpt>
      <trkpt lat="46.453806" lon="15.351685">
        <ele>1444.175377</ele>
        <time>2026-08-24T16:36:51.855Z</time>
      </trkpt>
      <trkpt lat="46.453788" lon="15.351693">
        <ele>1444.179493</ele>
        <time>2026-08-24T16:36:53.772Z</time>
      </trkpt>
      <trkpt lat="46.453781" lon="15.351662">
        <ele>1444.184408</ele>
        <time>2026-08-24T16:36:56.021Z</time>
      </trkpt>
      <trkpt lat="46.453729" lon="15.351673">
        <ele>1444.195899</ele>
        <time>2026-08-24T16:37:01.280Z</time>
      </trkpt>
      <trkpt lat="46.453676" lon="15.351670">
        <ele>1444.207497</ele>
        <time>2026-08-24T16:37:06.589Z</time>
      </trkpt>
      <trkpt lat="46.453626" lon="15.351649">
        <ele>1444.218879</ele>
        <time>2026-08-24T16:37:11.798Z</time>
      </trkpt>
      <trkpt lat="46.453582" lon="15.351620">
        <ele>1444.229446</ele>
        <time>2026-08-24T16:37:16.635Z</time>
      </trkpt>
      <trkpt lat="46.453542" lon="15.351582">
        <ele>1444.239899</ele>
        <time>2026-08-24T16:37:21.419Z</time>
      </trkpt>
      <trkpt lat="46.453530" lon="15.351477">
        <ele>1444.255933</ele>
        <time>2026-08-24T16:37:28.758Z</time>
      </trkpt>
      <trkpt lat="46.453503" lon="15.351407">
        <ele>1444.268019</ele>
        <time>2026-08-24T16:37:34.289Z</time>
      </trkpt>
      <trkpt lat="46.453487" lon="15.351323">
        <ele>1444.281148</ele>
        <time>2026-08-24T16:37:40.298Z</time>
      </trkpt>
      <trkpt lat="46.453482" lon="15.351250">
        <ele>1444.292200</ele>
        <time>2026-08-24T16:37:45.356Z</time>
      </trkpt>
      <trkpt lat="46.453466" lon="15.351172">
        <ele>1444.304461</ele>
        <time>2026-08-24T16:37:50.967Z</time>
      </trkpt>
      <trkpt lat="46.453437" lon="15.351096">
        <ele>1444.317549</ele>
        <time>2026-08-24T16:37:56.957Z</time>
      </trkpt>
      <trkpt lat="46.453335" lon="15.350909">
        <ele>1444.353481</ele>
        <time>2026-08-24T16:38:13.402Z</time>
      </trkpt>
      <trkpt lat="46.453333" lon="15.350838">
        <ele>1444.364186</ele>
        <time>2026-08-24T16:38:18.301Z</time>
      </trkpt>
      <trkpt lat="46.453302" lon="15.350785">
        <ele>1444.374660</ele>
        <time>2026-08-24T16:38:23.095Z</time>
      </trkpt>
      <trkpt lat="46.453232" lon="15.350683">
        <ele>1444.476844</ele>
        <time>2026-08-24T16:38:33.022Z</time>
      </trkpt>
      <trkpt lat="46.453189" lon="15.350630">
        <ele>1444.557173</ele>
        <time>2026-08-24T16:38:38.667Z</time>
      </trkpt>
      <trkpt lat="46.453159" lon="15.350554">
        <ele>1444.643104</ele>
        <time>2026-08-24T16:38:44.706Z</time>
      </trkpt>
      <trkpt lat="46.453111" lon="15.350504">
        <ele>1444.727236</ele>
        <time>2026-08-24T16:38:50.619Z</time>
      </trkpt>
      <trkpt lat="46.453054" lon="15.350461">
        <ele>1444.818711</ele>
        <time>2026-08-24T16:38:57.048Z</time>
      </trkpt>
      <trkpt lat="46.453027" lon="15.350408">
        <ele>1444.883378</ele>
        <time>2026-08-24T16:39:01.593Z</time>
      </trkpt>
      <trkpt lat="46.452983" lon="15.350252">
        <ele>1445.048752</ele>
        <time>2026-08-24T16:39:13.215Z</time>
      </trkpt>
      <trkpt lat="46.452967" lon="15.350175">
        <ele>1445.127654</ele>
        <time>2026-08-24T16:39:18.762Z</time>
      </trkpt>
      <trkpt lat="46.452954" lon="15.350095">
        <ele>1445.208292</ele>
        <time>2026-08-24T16:39:24.429Z</time>
      </trkpt>
      <trkpt lat="46.452935" lon="15.350029">
        <ele>1445.278468</ele>
        <time>2026-08-24T16:39:29.361Z</time>
      </trkpt>
      <trkpt lat="46.452921" lon="15.349952">
        <ele>1445.356595</ele>
        <time>2026-08-24T16:39:34.853Z</time>
      </trkpt>
      <trkpt lat="46.452901" lon="15.349884">
        <ele>1445.429132</ele>
        <time>2026-08-24T16:39:39.950Z</time>
      </trkpt>
      <trkpt lat="46.452886" lon="15.349790">
        <ele>1445.523793</ele>
        <time>2026-08-24T16:39:46.603Z</time>
      </trkpt>
      <trkpt lat="46.452870" lon="15.349718">
        <ele>1445.598013</ele>
        <time>2026-08-24T16:39:51.820Z</time>
      </trkpt>
      <trkpt lat="46.452857" lon="15.349647">
        <ele>1445.670086</ele>
        <time>2026-08-24T16:39:56.885Z</time>
      </trkpt>
      <trkpt lat="46.452867" lon="15.349585">
        <ele>1445.732556</ele>
        <time>2026-08-24T16:40:01.276Z</time>
      </trkpt>
      <trkpt lat="46.452865" lon="15.349514">
        <ele>1445.802269</ele>
        <time>2026-08-24T16:40:06.176Z</time>
      </trkpt>
      <trkpt lat="46.452849" lon="15.349410">
        <ele>1445.906812</ele>
        <time>2026-08-24T16:40:13.523Z</time>
      </trkpt>
      <trkpt lat="46.452831" lon="15.349330">
        <ele>1445.989377</ele>
        <time>2026-08-24T16:40:19.326Z</time>
      </trkpt>
      <trkpt lat="46.452817" lon="15.349258">
        <ele>1446.062772</ele>
        <time>2026-08-24T16:40:24.485Z</time>
      </trkpt>
      <trkpt lat="46.452775" lon="15.349102">
        <ele>1446.227089</ele>
        <time>2026-08-24T16:40:36.034Z</time>
      </trkpt>
      <trkpt lat="46.452750" lon="15.349025">
        <ele>1446.310598</ele>
        <time>2026-08-24T16:40:41.904Z</time>
      </trkpt>
      <trkpt lat="46.452745" lon="15.348957">
        <ele>1446.377689</ele>
        <time>2026-08-24T16:40:46.620Z</time>
      </trkpt>
      <trkpt lat="46.452724" lon="15.348875">
        <ele>1446.463515</ele>
        <time>2026-08-24T16:40:52.653Z</time>
      </trkpt>
      <trkpt lat="46.452706" lon="15.348784">
        <ele>1446.556398</ele>
        <time>2026-08-24T16:40:59.182Z</time>
      </trkpt>
      <trkpt lat="46.452699" lon="15.348621">
        <ele>1446.716621</ele>
        <time>2026-08-24T16:41:10.446Z</time>
      </trkpt>
      <trkpt lat="46.452689" lon="15.348543">
        <ele>1446.794458</ele>
        <time>2026-08-24T16:41:15.918Z</time>
      </trkpt>
      <trkpt lat="46.452683" lon="15.348460">
        <ele>1446.876333</ele>
        <time>2026-08-24T16:41:21.674Z</time>
      </trkpt>
      <trkpt lat="46.452687" lon="15.348378">
        <ele>1446.985215</ele>
        <time>2026-08-24T16:41:27.343Z</time>
      </trkpt>
      <trkpt lat="46.452672" lon="15.348230">
        <ele>1447.428211</ele>
        <time>2026-08-24T16:41:37.661Z</time>
      </trkpt>
      <trkpt lat="46.452666" lon="15.348156">
        <ele>1447.648863</ele>
        <time>2026-08-24T16:41:42.801Z</time>
      </trkpt>
      <trkpt lat="46.452662" lon="15.348080">
        <ele>1447.874581</ele>
        <time>2026-08-24T16:41:48.060Z</time>
      </trkpt>
      <trkpt lat="46.452647" lon="15.347991">
        <ele>1448.145913</ele>
        <time>2026-08-24T16:41:54.381Z</time>
      </trkpt>
      <trkpt lat="46.452647" lon="15.347905">
        <ele>1448.400589</ele>
        <time>2026-08-24T16:42:00.314Z</time>
      </trkpt>
      <trkpt lat="46.452649" lon="15.347829">
        <ele>1448.625816</ele>
        <time>2026-08-24T16:42:05.562Z</time>
      </trkpt>
      <trkpt lat="46.452642" lon="15.347752">
        <ele>1448.855816</ele>
        <time>2026-08-24T16:42:10.922Z</time>
      </trkpt>
      <trkpt lat="46.452652" lon="15.347675">
        <ele>1449.087856</ele>
        <time>2026-08-24T16:42:16.329Z</time>
      </trkpt>
      <trkpt lat="46.452663" lon="15.347608">
        <ele>1449.291822</ele>
        <time>2026-08-24T16:42:21.082Z</time>
      </trkpt>
      <trkpt lat="46.452683" lon="15.347452">
        <ele>1449.761722</ele>
        <time>2026-08-24T16:42:32.033Z</time>
      </trkpt>
      <trkpt lat="46.452690" lon="15.347382">
        <ele>1449.971189</ele>
        <time>2026-08-24T16:42:36.914Z</time>
      </trkpt>
      <trkpt lat="46.452722" lon="15.347210">
        <ele>1450.498785</ele>
        <time>2026-08-24T16:42:49.209Z</time>
      </trkpt>
      <trkpt lat="46.452732" lon="15.347132">
        <ele>1450.733735</ele>
        <time>2026-08-24T16:42:54.684Z</time>
      </trkpt>
      <trkpt lat="46.452740" lon="15.347048">
        <ele>1450.984854</ele>
        <time>2026-08-24T16:43:00.536Z</time>
      </trkpt>
      <trkpt lat="46.452754" lon="15.346975">
        <ele>1451.209251</ele>
        <time>2026-08-24T16:43:05.765Z</time>
      </trkpt>
      <trkpt lat="46.452782" lon="15.346891">
        <ele>1451.485589</ele>
        <time>2026-08-24T16:43:12.204Z</time>
      </trkpt>
      <trkpt lat="46.452795" lon="15.346807">
        <ele>1451.740541</ele>
        <time>2026-08-24T16:43:18.145Z</time>
      </trkpt>
      <trkpt lat="46.452814" lon="15.346733">
        <ele>1451.974403</ele>
        <time>2026-08-24T16:43:23.595Z</time>
      </trkpt>
      <trkpt lat="46.452838" lon="15.346682">
        <ele>1452.157301</ele>
        <time>2026-08-24T16:43:27.858Z</time>
      </trkpt>
      <trkpt lat="46.452856" lon="15.346600">
        <ele>1452.412158</ele>
        <time>2026-08-24T16:43:33.797Z</time>
      </trkpt>
      <trkpt lat="46.452870" lon="15.346509">
        <ele>1452.688277</ele>
        <time>2026-08-24T16:43:40.232Z</time>
      </trkpt>
      <trkpt lat="46.452878" lon="15.346421">
        <ele>1452.951133</ele>
        <time>2026-08-24T16:43:46.358Z</time>
      </trkpt>
      <trkpt lat="46.452888" lon="15.346342">
        <ele>1453.188995</ele>
        <time>2026-08-24T16:43:51.901Z</time>
      </trkpt>
      <trkpt lat="46.452900" lon="15.346265">
        <ele>1453.422779</ele>
        <time>2026-08-24T16:43:57.350Z</time>
      </trkpt>
      <trkpt lat="46.452920" lon="15.346200">
        <ele>1453.633590</ele>
        <time>2026-08-24T16:44:02.263Z</time>
      </trkpt>
      <trkpt lat="46.452949" lon="15.346125">
        <ele>1453.888279</ele>
        <time>2026-08-24T16:44:08.197Z</time>
      </trkpt>
      <trkpt lat="46.452979" lon="15.346041">
        <ele>1454.168467</ele>
        <time>2026-08-24T16:44:14.730Z</time>
      </trkpt>
      <trkpt lat="46.452987" lon="15.345961">
        <ele>1454.407856</ele>
        <time>2026-08-24T16:44:20.308Z</time>
      </trkpt>
      <trkpt lat="46.452989" lon="15.345884">
        <ele>1454.636040</ele>
        <time>2026-08-24T16:44:25.625Z</time>
      </trkpt>
      <trkpt lat="46.453002" lon="15.345814">
        <ele>1454.728413</ele>
        <time>2026-08-24T16:44:30.628Z</time>
      </trkpt>
      <trkpt lat="46.453012" lon="15.345730">
        <ele>1454.805987</ele>
        <time>2026-08-24T16:44:36.508Z</time>
      </trkpt>
      <trkpt lat="46.453013" lon="15.345647">
        <ele>1454.881530</ele>
        <time>2026-08-24T16:44:42.234Z</time>
      </trkpt>
      <trkpt lat="46.453020" lon="15.345568">
        <ele>1454.954013</ele>
        <time>2026-08-24T16:44:47.732Z</time>
      </trkpt>
      <trkpt lat="46.453052" lon="15.345403">
        <ele>1455.110001</ele>
        <time>2026-08-24T16:44:59.560Z</time>
      </trkpt>
      <trkpt lat="46.453051" lon="15.345332">
        <ele>1455.174625</ele>
        <time>2026-08-24T16:45:04.462Z</time>
      </trkpt>
      <trkpt lat="46.453061" lon="15.345269">
        <ele>1455.233458</ele>
        <time>2026-08-24T16:45:08.922Z</time>
      </trkpt>
      <trkpt lat="46.453114" lon="15.345022">
        <ele>1455.468880</ele>
        <time>2026-08-24T16:45:26.779Z</time>
      </trkpt>
      <trkpt lat="46.453127" lon="15.344953">
        <ele>1455.533977</ele>
        <time>2026-08-24T16:45:31.718Z</time>
      </trkpt>
      <trkpt lat="46.453137" lon="15.344868">
        <ele>1455.612447</ele>
        <time>2026-08-24T16:45:37.670Z</time>
      </trkpt>
      <trkpt lat="46.453151" lon="15.344614">
        <ele>1455.844329</ele>
        <time>2026-08-24T16:45:55.256Z</time>
      </trkpt>
      <trkpt lat="46.453166" lon="15.344547">
        <ele>1455.908438</ele>
        <time>2026-08-24T16:46:00.116Z</time>
      </trkpt>
      <trkpt lat="46.453200" lon="15.344495">
        <ele>1455.973677</ele>
        <time>2026-08-24T16:46:05.063Z</time>
      </trkpt>
      <trkpt lat="46.453208" lon="15.344407">
        <ele>1456.054452</ele>
        <time>2026-08-24T16:46:11.186Z</time>
      </trkpt>
      <trkpt lat="46.453233" lon="15.344325">
        <ele>1456.136053</ele>
        <time>2026-08-24T16:46:17.370Z</time>
      </trkpt>
      <trkpt lat="46.453264" lon="15.344183">
        <ele>1456.271607</ele>
        <time>2026-08-24T16:46:27.642Z</time>
      </trkpt>
      <trkpt lat="46.453287" lon="15.344111">
        <ele>1456.343828</ele>
        <time>2026-08-24T16:46:33.116Z</time>
      </trkpt>
      <trkpt lat="46.453368" lon="15.343902">
        <ele>1456.562047</ele>
        <time>2026-08-24T16:46:49.650Z</time>
      </trkpt>
      <trkpt lat="46.453390" lon="15.343838">
        <ele>1456.627135</ele>
        <time>2026-08-24T16:46:54.582Z</time>
      </trkpt>
      <trkpt lat="46.453431" lon="15.343697">
        <ele>1456.766406</ele>
        <time>2026-08-24T16:47:05.137Z</time>
      </trkpt>
      <trkpt lat="46.453463" lon="15.343624">
        <ele>1456.845144</ele>
        <time>2026-08-24T16:47:11.108Z</time>
      </trkpt>
      <trkpt lat="46.453492" lon="15.343563">
        <ele>1456.912588</ele>
        <time>2026-08-24T16:47:16.228Z</time>
      </trkpt>
      <trkpt lat="46.453518" lon="15.343496">
        <ele>1456.982565</ele>
        <time>2026-08-24T16:47:21.538Z</time>
      </trkpt>
      <trkpt lat="46.453561" lon="15.343354">
        <ele>1456.326955</ele>
        <time>2026-08-24T16:47:32.259Z</time>
      </trkpt>
      <trkpt lat="46.453583" lon="15.343293">
        <ele>1455.713080</ele>
        <time>2026-08-24T16:47:37.015Z</time>
      </trkpt>
      <trkpt lat="46.453615" lon="15.343228">
        <ele>1455.000802</ele>
        <time>2026-08-24T16:47:42.538Z</time>
      </trkpt>
      <trkpt lat="46.453627" lon="15.343159">
        <ele>1454.366318</ele>
        <time>2026-08-24T16:47:47.461Z</time>
      </trkpt>
      <trkpt lat="46.453638" lon="15.343015">
        <ele>1453.074586</ele>
        <time>2026-08-24T16:47:57.481Z</time>
      </trkpt>
      <trkpt lat="46.453607" lon="15.342782">
        <ele>1450.958838</ele>
        <time>2026-08-24T16:48:13.919Z</time>
      </trkpt>
      <trkpt lat="46.453593" lon="15.342696">
        <ele>1450.170970</ele>
        <time>2026-08-24T16:48:20.042Z</time>
      </trkpt>
      <trkpt lat="46.453556" lon="15.342566">
        <ele>1448.916912</ele>
        <time>2026-08-24T16:48:29.790Z</time>
      </trkpt>
      <trkpt lat="46.453530" lon="15.342515">
        <ele>1448.351255</ele>
        <time>2026-08-24T16:48:34.201Z</time>
      </trkpt>
      <trkpt lat="46.453435" lon="15.342446">
        <ele>1446.976514</ele>
        <time>2026-08-24T16:48:44.927Z</time>
      </trkpt>
      <trkpt lat="46.453419" lon="15.342441">
        <ele>1446.764710</ele>
        <time>2026-08-24T16:48:46.589Z</time>
      </trkpt>
      <trkpt lat="46.453367" lon="15.342413">
        <ele>1446.046955</ele>
        <time>2026-08-24T16:48:52.212Z</time>
      </trkpt>
      <trkpt lat="46.453241" lon="15.342353">
        <ele>1444.330856</ele>
        <time>2026-08-24T16:49:05.683Z</time>
      </trkpt>
      <trkpt lat="46.453127" lon="15.342313">
        <ele>1442.813066</ele>
        <time>2026-08-24T16:49:17.611Z</time>
      </trkpt>
      <trkpt lat="46.453064" lon="15.342294">
        <ele>1441.980357</ele>
        <time>2026-08-24T16:49:24.152Z</time>
      </trkpt>
      <trkpt lat="46.453011" lon="15.342267">
        <ele>1441.253455</ele>
        <time>2026-08-24T16:49:29.860Z</time>
      </trkpt>
      <trkpt lat="46.452970" lon="15.342240">
        <ele>1440.670811</ele>
        <time>2026-08-24T16:49:34.434Z</time>
      </trkpt>
      <trkpt lat="46.452923" lon="15.342232">
        <ele>1440.058406</ele>
        <time>2026-08-24T16:49:39.242Z</time>
      </trkpt>
      <trkpt lat="46.452878" lon="15.342206">
        <ele>1439.431611</ele>
        <time>2026-08-24T16:49:44.166Z</time>
      </trkpt>
      <trkpt lat="46.452808" lon="15.342178">
        <ele>1438.491957</ele>
        <time>2026-08-24T16:49:51.530Z</time>
      </trkpt>
      <trkpt lat="46.452773" lon="15.342153">
        <ele>1437.987141</ele>
        <time>2026-08-24T16:49:55.489Z</time>
      </trkpt>
      <trkpt lat="46.452728" lon="15.342109">
        <ele>1437.284977</ele>
        <time>2026-08-24T16:50:00.987Z</time>
      </trkpt>
      <trkpt lat="46.452665" lon="15.341998">
        <ele>1436.002737</ele>
        <time>2026-08-24T16:50:11.015Z</time>
      </trkpt>
      <trkpt lat="46.452634" lon="15.341923">
        <ele>1435.222935</ele>
        <time>2026-08-24T16:50:17.103Z</time>
      </trkpt>
      <trkpt lat="46.452594" lon="15.341888">
        <ele>1434.618502</ele>
        <time>2026-08-24T16:50:21.825Z</time>
      </trkpt>
      <trkpt lat="46.452549" lon="15.341835">
        <ele>1433.868547</ele>
        <time>2026-08-24T16:50:27.681Z</time>
      </trkpt>
      <trkpt lat="46.452510" lon="15.341770">
        <ele>1433.765774</ele>
        <time>2026-08-24T16:50:33.668Z</time>
      </trkpt>
      <trkpt lat="46.452473" lon="15.341719">
        <ele>1433.758371</ele>
        <time>2026-08-24T16:50:38.814Z</time>
      </trkpt>
      <trkpt lat="46.452432" lon="15.341677">
        <ele>1433.751091</ele>
        <time>2026-08-24T16:50:43.868Z</time>
      </trkpt>
      <trkpt lat="46.452408" lon="15.341656">
        <ele>1433.747025</ele>
        <time>2026-08-24T16:50:46.685Z</time>
      </trkpt>
      <trkpt lat="46.452381" lon="15.341561">
        <ele>1433.736754</ele>
        <time>2026-08-24T16:50:53.796Z</time>
      </trkpt>
      <trkpt lat="46.452329" lon="15.341528">
        <ele>1433.728520</ele>
        <time>2026-08-24T16:50:59.513Z</time>
      </trkpt>
      <trkpt lat="46.452386" lon="15.341334">
        <ele>1433.707440</ele>
        <time>2026-08-24T16:51:15.592Z</time>
      </trkpt>
      <trkpt lat="46.452534" lon="15.341001">
        <ele>1433.667831</ele>
        <time>2026-08-24T16:51:44.450Z</time>
      </trkpt>
      <trkpt lat="46.452723" lon="15.340329">
        <ele>1433.595282</ele>
        <time>2026-08-24T16:52:38.922Z</time>
      </trkpt>
      <trkpt lat="46.452794" lon="15.339800">
        <ele>1433.541414</ele>
        <time>2026-08-24T16:53:28.758Z</time>
      </trkpt>
      <trkpt lat="46.452889" lon="15.339354">
        <ele>1434.303616</ele>
        <time>2026-08-24T16:54:11.451Z</time>
      </trkpt>
      <trkpt lat="46.452917" lon="15.338883">
        <ele>1436.424845</ele>
        <time>2026-08-24T16:54:53.172Z</time>
      </trkpt>
      <trkpt lat="46.452908" lon="15.338561">
        <ele>1437.870847</ele>
        <time>2026-08-24T16:55:20.660Z</time>
      </trkpt>
      <trkpt lat="46.452812" lon="15.338020">
        <ele>1440.377540</ele>
        <time>2026-08-24T16:56:06.842Z</time>
      </trkpt>
      <trkpt lat="46.452534" lon="15.337398">
        <ele>1443.704308</ele>
        <time>2026-08-24T16:57:07.408Z</time>
      </trkpt>
      <trkpt lat="46.452402" lon="15.336945">
        <ele>1446.085265</ele>
        <time>2026-08-24T16:57:46.844Z</time>
      </trkpt>
      <trkpt lat="46.452391" lon="15.336775">
        <ele>1447.046131</ele>
        <time>2026-08-24T16:58:00.462Z</time>
      </trkpt>
      <trkpt lat="46.452542" lon="15.336418">
        <ele>1449.403496</ele>
        <time>2026-08-24T16:58:34.873Z</time>
      </trkpt>
      <trkpt lat="46.452579" lon="15.336255">
        <ele>1450.369262</ele>
        <time>2026-08-24T16:58:49.538Z</time>
      </trkpt>
      <trkpt lat="46.452584" lon="15.336081">
        <ele>1451.349275</ele>
        <time>2026-08-24T16:59:04.680Z</time>
      </trkpt>
      <trkpt lat="46.452573" lon="15.335960">
        <ele>1452.036089</ele>
        <time>2026-08-24T16:59:15.484Z</time>
      </trkpt>
      <trkpt lat="46.452427" lon="15.335468">
        <ele>1455.050662</ele>
        <time>2026-08-24T17:00:04.298Z</time>
      </trkpt>
      <trkpt lat="46.452440" lon="15.335216">
        <ele>1456.472733</ele>
        <time>2026-08-24T17:00:27.768Z</time>
      </trkpt>
      <trkpt lat="46.452526" lon="15.335249">
        <ele>1457.199312</ele>
        <time>2026-08-24T17:00:39.852Z</time>
      </trkpt>
      <trkpt lat="46.452521" lon="15.335157">
        <ele>1457.718639</ele>
        <time>2026-08-24T17:00:48.381Z</time>
      </trkpt>
      <trkpt lat="46.452551" lon="15.335085">
        <ele>1458.192144</ele>
        <time>2026-08-24T17:00:56.235Z</time>
      </trkpt>
      <trkpt lat="46.452638" lon="15.335012">
        <ele>1459.012954</ele>
        <time>2026-08-24T17:01:09.675Z</time>
      </trkpt>
      <trkpt lat="46.452667" lon="15.334842">
        <ele>1460.005051</ele>
        <time>2026-08-24T17:01:25.898Z</time>
      </trkpt>
      <trkpt lat="46.452649" lon="15.334578">
        <ele>1461.619332</ele>
        <time>2026-08-24T17:01:50.221Z</time>
      </trkpt>
      <trkpt lat="46.452711" lon="15.334490">
        <ele>1462.385229</ele>
        <time>2026-08-24T17:02:01.956Z</time>
      </trkpt>
      <trkpt lat="46.452845" lon="15.334456">
        <ele>1463.586690</ele>
        <time>2026-08-24T17:02:20.311Z</time>
      </trkpt>
      <trkpt lat="46.452845" lon="15.334456">
        <ele>1463.586690</ele>
        <time>2026-08-24T17:02:20.341Z</time>
      </trkpt>
      <trkpt lat="46.453015" lon="15.334675">
        <ele>1465.594239</ele>
        <time>2026-08-24T17:02:43.189Z</time>
      </trkpt>
      <trkpt lat="46.453082" lon="15.334749">
        <ele>1466.337834</ele>
        <time>2026-08-24T17:02:51.656Z</time>
      </trkpt>
      <trkpt lat="46.453260" lon="15.334756">
        <ele>1467.910542</ele>
        <time>2026-08-24T17:03:09.550Z</time>
      </trkpt>
      <trkpt lat="46.453762" lon="15.334547">
        <ele>1472.523089</ele>
        <time>2026-08-24T17:04:01.973Z</time>
      </trkpt>
      <trkpt lat="46.453728" lon="15.334351">
        <ele>1473.752945</ele>
        <time>2026-08-24T17:04:15.934Z</time>
      </trkpt>
      <trkpt lat="46.453609" lon="15.333800">
        <ele>1475.803844</ele>
        <time>2026-08-24T17:04:55.807Z</time>
      </trkpt>
      <trkpt lat="46.453569" lon="15.333666">
        <ele>1475.803844</ele>
        <time>2026-08-24T17:05:05.890Z</time>
      </trkpt>
      <trkpt lat="46.453740" lon="15.333141">
        <ele>1475.803844</ele>
        <time>2026-08-24T17:05:45.967Z</time>
      </trkpt>
      <trkpt lat="46.453943" lon="15.332946">
        <ele>1475.803844</ele>
        <time>2026-08-24T17:06:10.340Z</time>
      </trkpt>
      <trkpt lat="46.453973" lon="15.332823">
        <ele>1475.803844</ele>
        <time>2026-08-24T17:06:19.341Z</time>
      </trkpt>
      <trkpt lat="46.453941" lon="15.332724">
        <ele>1475.803844</ele>
        <time>2026-08-24T17:06:26.883Z</time>
      </trkpt>
      <trkpt lat="46.453896" lon="15.332613">
        <ele>1475.803844</ele>
        <time>2026-08-24T17:06:35.767Z</time>
      </trkpt>
      <trkpt lat="46.453896" lon="15.332613">
        <ele>1475.803844</ele>
        <time>2026-08-24T17:06:35.782Z</time>
      </trkpt>
    </trkseg>
  </trk>
</gpx>