<?xml version="1.0" encoding="UTF-8"?>
<gpx creator="StravaGPX" version="1.1" xmlns="http://www.topografix.com/GPX/1/1" xmlns:xsi="http://www.w3.org/2001/XMLSchema-instance" xsi:schemaLocation="http://www.topografix.com/GPX/1/1 http://www.topografix.com/GPX/1/1/gpx.xsd">
 <metadata>
  <name>Knap trail - T'Kratka (16km)</name>
  <author>
   <name>Klemen Jančič</name>
   <link href="https://www.strava.com/athletes/30317654"/>
  </author>
  <copyright author="OpenStreetMap contributors">
   <year>2020</year>
   <license>https://www.openstreetmap.org/copyright</license>
  </copyright>
  <link href="https://www.strava.com/routes/3436968055555681384"/>
 </metadata>
 <trk>
  <name>Knap trail - T'Kratka (16km)</name>
  <link href="https://www.strava.com/routes/3436968055555681384"/>
  <type>running</type>
  <trkseg>
   <trkpt lat="46.16057000000001" lon="15.053390000000002">
    <ele>296.99</ele>
   </trkpt>
   <trkpt lat="46.16053" lon="15.053250000000002">
    <ele>297.4</ele>
   </trkpt>
   <trkpt lat="46.16134" lon="15.052750000000001">
    <ele>298.9</ele>
   </trkpt>
   <trkpt lat="46.16124000000001" lon="15.052290000000001">
    <ele>301.22</ele>
   </trkpt>
   <trkpt lat="46.16122000000001" lon="15.052140000000001">
    <ele>302.01</ele>
   </trkpt>
   <trkpt lat="46.16131" lon="15.051800000000002">
    <ele>304.96</ele>
   </trkpt>
   <trkpt lat="46.1614" lon="15.051590000000001">
    <ele>305.95</ele>
   </trkpt>
   <trkpt lat="46.16199" lon="15.050950000000002">
    <ele>314.69</ele>
   </trkpt>
   <trkpt lat="46.162110000000006" lon="15.05076">
    <ele>316.84000000000003</ele>
   </trkpt>
   <trkpt lat="46.162130000000005" lon="15.05071">
    <ele>318.96000000000004</ele>
   </trkpt>
   <trkpt lat="46.1623" lon="15.050500000000001">
    <ele>324.21000000000004</ele>
   </trkpt>
   <trkpt lat="46.162440000000004" lon="15.05009">
    <ele>334.01000000000005</ele>
   </trkpt>
   <trkpt lat="46.16252" lon="15.049500000000002">
    <ele>344.90000000000003</ele>
   </trkpt>
   <trkpt lat="46.162620000000004" lon="15.048980000000002">
    <ele>361.32000000000005</ele>
   </trkpt>
   <trkpt lat="46.162600000000005" lon="15.048660000000002">
    <ele>369.73</ele>
   </trkpt>
   <trkpt lat="46.16263000000001" lon="15.048040000000002">
    <ele>379.73</ele>
   </trkpt>
   <trkpt lat="46.16234500145917" lon="15.047454996902152">
    <ele>394.22</ele>
   </trkpt>
   <trkpt lat="46.162060000000004" lon="15.046870000000002">
    <ele>402.04</ele>
   </trkpt>
   <trkpt lat="46.16154" lon="15.04616">
    <ele>427.02</ele>
   </trkpt>
   <trkpt lat="46.161440000000006" lon="15.04573">
    <ele>432.42</ele>
   </trkpt>
   <trkpt lat="46.161410000000004" lon="15.045200000000001">
    <ele>440.18</ele>
   </trkpt>
   <trkpt lat="46.161460000000005" lon="15.04494">
    <ele>442.74</ele>
   </trkpt>
   <trkpt lat="46.161640000000006" lon="15.044680000000001">
    <ele>448.54</ele>
   </trkpt>
   <trkpt lat="46.16179" lon="15.044400000000001">
    <ele>451.45</ele>
   </trkpt>
   <trkpt lat="46.16180000000001" lon="15.043940000000001">
    <ele>454.38000000000005</ele>
   </trkpt>
   <trkpt lat="46.1617" lon="15.043330000000001">
    <ele>462.83</ele>
   </trkpt>
   <trkpt lat="46.161750000000005" lon="15.043070000000002">
    <ele>465.05</ele>
   </trkpt>
   <trkpt lat="46.16185" lon="15.042800000000002">
    <ele>467.44</ele>
   </trkpt>
   <trkpt lat="46.16181" lon="15.042250000000001">
    <ele>468.46000000000004</ele>
   </trkpt>
   <trkpt lat="46.16174" lon="15.042100000000001">
    <ele>469.15</ele>
   </trkpt>
   <trkpt lat="46.16147" lon="15.041820000000001">
    <ele>469.02000000000004</ele>
   </trkpt>
   <trkpt lat="46.161350000000006" lon="15.041630000000001">
    <ele>469.22</ele>
   </trkpt>
   <trkpt lat="46.16129" lon="15.04127">
    <ele>472.6</ele>
   </trkpt>
   <trkpt lat="46.161170000000006" lon="15.04081">
    <ele>475.04</ele>
   </trkpt>
   <trkpt lat="46.16109" lon="15.040740000000001">
    <ele>475.46000000000004</ele>
   </trkpt>
   <trkpt lat="46.160940000000004" lon="15.040230000000001">
    <ele>476.01000000000005</ele>
   </trkpt>
   <trkpt lat="46.16093" lon="15.040130000000001">
    <ele>476.18000000000006</ele>
   </trkpt>
   <trkpt lat="46.16098" lon="15.0402">
    <ele>476.24000000000007</ele>
   </trkpt>
   <trkpt lat="46.16102" lon="15.040140000000001">
    <ele>476.24000000000007</ele>
   </trkpt>
   <trkpt lat="46.161170000000006" lon="15.039980000000002">
    <ele>481.62000000000006</ele>
   </trkpt>
   <trkpt lat="46.16132" lon="15.039610000000001">
    <ele>488.57000000000005</ele>
   </trkpt>
   <trkpt lat="46.16138" lon="15.039520000000001">
    <ele>490.16</ele>
   </trkpt>
   <trkpt lat="46.16149" lon="15.03944">
    <ele>491.15000000000003</ele>
   </trkpt>
   <trkpt lat="46.161590000000004" lon="15.03944">
    <ele>492.55</ele>
   </trkpt>
   <trkpt lat="46.16178" lon="15.03949">
    <ele>494.67</ele>
   </trkpt>
   <trkpt lat="46.161930000000005" lon="15.039500000000002">
    <ele>497.03000000000003</ele>
   </trkpt>
   <trkpt lat="46.162110000000006" lon="15.03944">
    <ele>499.96</ele>
   </trkpt>
   <trkpt lat="46.16226" lon="15.039470000000001">
    <ele>502.8</ele>
   </trkpt>
   <trkpt lat="46.16237" lon="15.039470000000001">
    <ele>505.0</ele>
   </trkpt>
   <trkpt lat="46.1625" lon="15.039360000000002">
    <ele>510.04</ele>
   </trkpt>
   <trkpt lat="46.16264" lon="15.03945">
    <ele>513.02</ele>
   </trkpt>
   <trkpt lat="46.16272000000001" lon="15.03958">
    <ele>515.11</ele>
   </trkpt>
   <trkpt lat="46.162800000000004" lon="15.039650000000002">
    <ele>516.3100000000001</ele>
   </trkpt>
   <trkpt lat="46.16299" lon="15.039470000000001">
    <ele>522.83</ele>
   </trkpt>
   <trkpt lat="46.163380000000004" lon="15.03931">
    <ele>537.6500000000001</ele>
   </trkpt>
   <trkpt lat="46.16351" lon="15.038900000000002">
    <ele>546.48</ele>
   </trkpt>
   <trkpt lat="46.163540000000005" lon="15.03865">
    <ele>550.58</ele>
   </trkpt>
   <trkpt lat="46.163720000000005" lon="15.0385">
    <ele>554.07</ele>
   </trkpt>
   <trkpt lat="46.16395000000001" lon="15.038430000000002">
    <ele>555.9300000000001</ele>
   </trkpt>
   <trkpt lat="46.16429" lon="15.038160000000001">
    <ele>563.32</ele>
   </trkpt>
   <trkpt lat="46.164440000000006" lon="15.037410000000001">
    <ele>571.1400000000001</ele>
   </trkpt>
   <trkpt lat="46.16472" lon="15.036760000000001">
    <ele>573.86</ele>
   </trkpt>
   <trkpt lat="46.16507000000001" lon="15.036170000000002">
    <ele>581.0300000000001</ele>
   </trkpt>
   <trkpt lat="46.16521" lon="15.035530000000001">
    <ele>591.1500000000001</ele>
   </trkpt>
   <trkpt lat="46.165420000000005" lon="15.0348">
    <ele>595.25</ele>
   </trkpt>
   <trkpt lat="46.16555" lon="15.034">
    <ele>603.96</ele>
   </trkpt>
   <trkpt lat="46.16539" lon="15.033130000000002">
    <ele>613.44</ele>
   </trkpt>
   <trkpt lat="46.165530000000004" lon="15.032110000000001">
    <ele>623.8800000000001</ele>
   </trkpt>
   <trkpt lat="46.16559" lon="15.031250000000002">
    <ele>627.2800000000001</ele>
   </trkpt>
   <trkpt lat="46.165710000000004" lon="15.030590000000002">
    <ele>625.78</ele>
   </trkpt>
   <trkpt lat="46.165850000000006" lon="15.030140000000001">
    <ele>627.73</ele>
   </trkpt>
   <trkpt lat="46.165980000000005" lon="15.02983">
    <ele>628.9</ele>
   </trkpt>
   <trkpt lat="46.165980000000005" lon="15.02982">
    <ele>628.9200000000001</ele>
   </trkpt>
   <trkpt lat="46.16624" lon="15.030000000000001">
    <ele>627.47</ele>
   </trkpt>
   <trkpt lat="46.16639000000001" lon="15.030130000000002">
    <ele>626.57</ele>
   </trkpt>
   <trkpt lat="46.166900000000005" lon="15.030280000000001">
    <ele>623.0500000000001</ele>
   </trkpt>
   <trkpt lat="46.16698" lon="15.030280000000001">
    <ele>622.3000000000001</ele>
   </trkpt>
   <trkpt lat="46.16713000000001" lon="15.030220000000002">
    <ele>621.0300000000001</ele>
   </trkpt>
   <trkpt lat="46.167300000000004" lon="15.030050000000001">
    <ele>619.8</ele>
   </trkpt>
   <trkpt lat="46.167370000000005" lon="15.03001">
    <ele>619.8100000000001</ele>
   </trkpt>
   <trkpt lat="46.16743" lon="15.03001">
    <ele>619.94</ele>
   </trkpt>
   <trkpt lat="46.167530000000006" lon="15.030100000000001">
    <ele>620.41</ele>
   </trkpt>
   <trkpt lat="46.167790000000004" lon="15.03044">
    <ele>621.61</ele>
   </trkpt>
   <trkpt lat="46.168000000000006" lon="15.030750000000001">
    <ele>622.0500000000001</ele>
   </trkpt>
   <trkpt lat="46.16818000000001" lon="15.03095">
    <ele>623.72</ele>
   </trkpt>
   <trkpt lat="46.16855" lon="15.031250000000002">
    <ele>624.07</ele>
   </trkpt>
   <trkpt lat="46.16868" lon="15.031320000000001">
    <ele>624.0100000000001</ele>
   </trkpt>
   <trkpt lat="46.168800000000005" lon="15.031350000000002">
    <ele>624.1000000000001</ele>
   </trkpt>
   <trkpt lat="46.168910000000004" lon="15.031350000000002">
    <ele>624.3100000000001</ele>
   </trkpt>
   <trkpt lat="46.16903000000001" lon="15.031270000000001">
    <ele>624.8800000000001</ele>
   </trkpt>
   <trkpt lat="46.16913" lon="15.03123">
    <ele>625.33</ele>
   </trkpt>
   <trkpt lat="46.16930000000001" lon="15.031300000000002">
    <ele>623.41</ele>
   </trkpt>
   <trkpt lat="46.169450000000005" lon="15.031390000000002">
    <ele>620.85</ele>
   </trkpt>
   <trkpt lat="46.169500000000006" lon="15.031490000000002">
    <ele>619.1600000000001</ele>
   </trkpt>
   <trkpt lat="46.169540000000005" lon="15.031630000000002">
    <ele>617.26</ele>
   </trkpt>
   <trkpt lat="46.169500000000006" lon="15.031740000000001">
    <ele>615.2700000000001</ele>
   </trkpt>
   <trkpt lat="46.16969" lon="15.031920000000001">
    <ele>610.86</ele>
   </trkpt>
   <trkpt lat="46.16989" lon="15.032280000000002">
    <ele>607.6100000000001</ele>
   </trkpt>
   <trkpt lat="46.17011" lon="15.03246">
    <ele>607.97</ele>
   </trkpt>
   <trkpt lat="46.17033000000001" lon="15.032560000000002">
    <ele>608.9</ele>
   </trkpt>
   <trkpt lat="46.17051000000001" lon="15.032510000000002">
    <ele>609.63</ele>
   </trkpt>
   <trkpt lat="46.17067" lon="15.032430000000002">
    <ele>610.82</ele>
   </trkpt>
   <trkpt lat="46.170860000000005" lon="15.03222">
    <ele>613.4300000000001</ele>
   </trkpt>
   <trkpt lat="46.17100000000001" lon="15.032020000000001">
    <ele>617.1600000000001</ele>
   </trkpt>
   <trkpt lat="46.17114" lon="15.03198">
    <ele>617.1600000000001</ele>
   </trkpt>
   <trkpt lat="46.171350000000004" lon="15.032010000000001">
    <ele>619.39</ele>
   </trkpt>
   <trkpt lat="46.17148" lon="15.032050000000002">
    <ele>619.1600000000001</ele>
   </trkpt>
   <trkpt lat="46.17159" lon="15.032160000000001">
    <ele>619.0000000000001</ele>
   </trkpt>
   <trkpt lat="46.17163" lon="15.032140000000002">
    <ele>619.19</ele>
   </trkpt>
   <trkpt lat="46.17208" lon="15.032180000000002">
    <ele>620.29</ele>
   </trkpt>
   <trkpt lat="46.17197" lon="15.031950000000002">
    <ele>624.45</ele>
   </trkpt>
   <trkpt lat="46.17179" lon="15.031410000000001">
    <ele>632.0300000000001</ele>
   </trkpt>
   <trkpt lat="46.17172" lon="15.031350000000002">
    <ele>632.83</ele>
   </trkpt>
   <trkpt lat="46.17161" lon="15.03137">
    <ele>635.5</ele>
   </trkpt>
   <trkpt lat="46.17147000000001" lon="15.031300000000002">
    <ele>639.72</ele>
   </trkpt>
   <trkpt lat="46.1713" lon="15.031160000000002">
    <ele>645.11</ele>
   </trkpt>
   <trkpt lat="46.17119" lon="15.031010000000002">
    <ele>645.93</ele>
   </trkpt>
   <trkpt lat="46.171260000000004" lon="15.030820000000002">
    <ele>649.75</ele>
   </trkpt>
   <trkpt lat="46.171420000000005" lon="15.030750000000001">
    <ele>653.94</ele>
   </trkpt>
   <trkpt lat="46.17166" lon="15.030740000000002">
    <ele>659.61</ele>
   </trkpt>
   <trkpt lat="46.171780000000005" lon="15.030680000000002">
    <ele>663.84</ele>
   </trkpt>
   <trkpt lat="46.172270000000005" lon="15.030840000000001">
    <ele>665.86</ele>
   </trkpt>
   <trkpt lat="46.172540000000005" lon="15.030820000000002">
    <ele>668.83</ele>
   </trkpt>
   <trkpt lat="46.172720000000005" lon="15.03072">
    <ele>673.97</ele>
   </trkpt>
   <trkpt lat="46.17304" lon="15.03067">
    <ele>681.47</ele>
   </trkpt>
   <trkpt lat="46.173190000000005" lon="15.030560000000001">
    <ele>684.35</ele>
   </trkpt>
   <trkpt lat="46.173460000000006" lon="15.0303">
    <ele>688.08</ele>
   </trkpt>
   <trkpt lat="46.173660000000005" lon="15.03001">
    <ele>689.8700000000001</ele>
   </trkpt>
   <trkpt lat="46.173750000000005" lon="15.029770000000001">
    <ele>693.9000000000001</ele>
   </trkpt>
   <trkpt lat="46.17394" lon="15.029660000000002">
    <ele>699.4</ele>
   </trkpt>
   <trkpt lat="46.17412" lon="15.02964">
    <ele>706.2400000000001</ele>
   </trkpt>
   <trkpt lat="46.1745" lon="15.029390000000001">
    <ele>715.4100000000001</ele>
   </trkpt>
   <trkpt lat="46.174710000000005" lon="15.02935">
    <ele>718.4</ele>
   </trkpt>
   <trkpt lat="46.174980000000005" lon="15.029340000000001">
    <ele>720.45</ele>
   </trkpt>
   <trkpt lat="46.17515" lon="15.029660000000002">
    <ele>720.84</ele>
   </trkpt>
   <trkpt lat="46.17542" lon="15.029930000000002">
    <ele>719.92</ele>
   </trkpt>
   <trkpt lat="46.175720000000005" lon="15.030050000000001">
    <ele>723.19</ele>
   </trkpt>
   <trkpt lat="46.176" lon="15.030030000000002">
    <ele>732.89</ele>
   </trkpt>
   <trkpt lat="46.17627" lon="15.030450000000002">
    <ele>731.77</ele>
   </trkpt>
   <trkpt lat="46.17647" lon="15.030330000000001">
    <ele>728.96</ele>
   </trkpt>
   <trkpt lat="46.176700000000004" lon="15.029770000000001">
    <ele>733.75</ele>
   </trkpt>
   <trkpt lat="46.17716" lon="15.02884">
    <ele>747.7800000000001</ele>
   </trkpt>
   <trkpt lat="46.177550000000004" lon="15.028570000000002">
    <ele>756.94</ele>
   </trkpt>
   <trkpt lat="46.17772" lon="15.028170000000001">
    <ele>761.96</ele>
   </trkpt>
   <trkpt lat="46.17783000000001" lon="15.02771">
    <ele>765.96</ele>
   </trkpt>
   <trkpt lat="46.178140000000006" lon="15.02748">
    <ele>773.72</ele>
   </trkpt>
   <trkpt lat="46.17832000000001" lon="15.027310000000002">
    <ele>776.24</ele>
   </trkpt>
   <trkpt lat="46.1784" lon="15.02697">
    <ele>778.5200000000001</ele>
   </trkpt>
   <trkpt lat="46.1788" lon="15.026850000000001">
    <ele>774.29</ele>
   </trkpt>
   <trkpt lat="46.179050000000004" lon="15.02701">
    <ele>773.17</ele>
   </trkpt>
   <trkpt lat="46.179260000000006" lon="15.027090000000001">
    <ele>770.47</ele>
   </trkpt>
   <trkpt lat="46.17969" lon="15.026930000000002">
    <ele>761.53</ele>
   </trkpt>
   <trkpt lat="46.18005" lon="15.02649">
    <ele>752.9300000000001</ele>
   </trkpt>
   <trkpt lat="46.180330000000005" lon="15.0265">
    <ele>750.08</ele>
   </trkpt>
   <trkpt lat="46.18057" lon="15.026620000000001">
    <ele>745.8100000000001</ele>
   </trkpt>
   <trkpt lat="46.18056000000001" lon="15.026860000000001">
    <ele>741.3000000000001</ele>
   </trkpt>
   <trkpt lat="46.1805" lon="15.027080000000002">
    <ele>736.35</ele>
   </trkpt>
   <trkpt lat="46.18048" lon="15.027300000000002">
    <ele>733.1200000000001</ele>
   </trkpt>
   <trkpt lat="46.18059" lon="15.027730000000002">
    <ele>726.87</ele>
   </trkpt>
   <trkpt lat="46.18061" lon="15.02814">
    <ele>720.82</ele>
   </trkpt>
   <trkpt lat="46.18076000000001" lon="15.028080000000001">
    <ele>722.6800000000001</ele>
   </trkpt>
   <trkpt lat="46.180890000000005" lon="15.028060000000002">
    <ele>724.84</ele>
   </trkpt>
   <trkpt lat="46.180980000000005" lon="15.028070000000001">
    <ele>725.62</ele>
   </trkpt>
   <trkpt lat="46.181200000000004" lon="15.02819">
    <ele>730.84</ele>
   </trkpt>
   <trkpt lat="46.1813" lon="15.028220000000001">
    <ele>730.84</ele>
   </trkpt>
   <trkpt lat="46.18153" lon="15.02813">
    <ele>736.6</ele>
   </trkpt>
   <trkpt lat="46.18222" lon="15.028060000000002">
    <ele>745.08</ele>
   </trkpt>
   <trkpt lat="46.182695000179024" lon="15.027910001270415">
    <ele>750.5500000000001</ele>
   </trkpt>
   <trkpt lat="46.183170000000004" lon="15.02776">
    <ele>756.95</ele>
   </trkpt>
   <trkpt lat="46.183730000000004" lon="15.02743">
    <ele>763.26</ele>
   </trkpt>
   <trkpt lat="46.18395" lon="15.027460000000001">
    <ele>770.29</ele>
   </trkpt>
   <trkpt lat="46.18412000000001" lon="15.027460000000001">
    <ele>772.1800000000001</ele>
   </trkpt>
   <trkpt lat="46.184340000000006" lon="15.027420000000001">
    <ele>776.9100000000001</ele>
   </trkpt>
   <trkpt lat="46.18478" lon="15.027400000000002">
    <ele>778.85</ele>
   </trkpt>
   <trkpt lat="46.185370000000006" lon="15.02767">
    <ele>781.9100000000001</ele>
   </trkpt>
   <trkpt lat="46.1856" lon="15.02771">
    <ele>782.57</ele>
   </trkpt>
   <trkpt lat="46.186170000000004" lon="15.027610000000001">
    <ele>788.81</ele>
   </trkpt>
   <trkpt lat="46.186400000000006" lon="15.027680000000002">
    <ele>790.73</ele>
   </trkpt>
   <trkpt lat="46.186510000000006" lon="15.027750000000001">
    <ele>792.0800000000002</ele>
   </trkpt>
   <trkpt lat="46.18672" lon="15.027790000000001">
    <ele>793.58</ele>
   </trkpt>
   <trkpt lat="46.18721" lon="15.027590000000002">
    <ele>802.5000000000001</ele>
   </trkpt>
   <trkpt lat="46.187270000000005" lon="15.02753">
    <ele>802.5000000000001</ele>
   </trkpt>
   <trkpt lat="46.18732000000001" lon="15.027330000000001">
    <ele>806.19</ele>
   </trkpt>
   <trkpt lat="46.18733" lon="15.027050000000001">
    <ele>808.34</ele>
   </trkpt>
   <trkpt lat="46.187400000000004" lon="15.026950000000001">
    <ele>813.76</ele>
   </trkpt>
   <trkpt lat="46.188190000000006" lon="15.02691">
    <ele>834.28</ele>
   </trkpt>
   <trkpt lat="46.18842" lon="15.026980000000002">
    <ele>839.33</ele>
   </trkpt>
   <trkpt lat="46.18864000000001" lon="15.0271">
    <ele>852.5300000000001</ele>
   </trkpt>
   <trkpt lat="46.188790000000004" lon="15.02715">
    <ele>852.5300000000001</ele>
   </trkpt>
   <trkpt lat="46.18882000000001" lon="15.027070000000002">
    <ele>853.6300000000001</ele>
   </trkpt>
   <trkpt lat="46.18883" lon="15.02692">
    <ele>855.89</ele>
   </trkpt>
   <trkpt lat="46.188880000000005" lon="15.02683">
    <ele>855.89</ele>
   </trkpt>
   <trkpt lat="46.18914" lon="15.02663">
    <ele>859.38</ele>
   </trkpt>
   <trkpt lat="46.18927" lon="15.02663">
    <ele>861.44</ele>
   </trkpt>
   <trkpt lat="46.189440000000005" lon="15.026740000000002">
    <ele>863.89</ele>
   </trkpt>
   <trkpt lat="46.18977" lon="15.027000000000001">
    <ele>868.9000000000001</ele>
   </trkpt>
   <trkpt lat="46.18997" lon="15.027260000000002">
    <ele>871.11</ele>
   </trkpt>
   <trkpt lat="46.190200000000004" lon="15.027700000000001">
    <ele>875.94</ele>
   </trkpt>
   <trkpt lat="46.19039" lon="15.02781">
    <ele>877.48</ele>
   </trkpt>
   <trkpt lat="46.190450000000006" lon="15.028070000000001">
    <ele>877.95</ele>
   </trkpt>
   <trkpt lat="46.190470000000005" lon="15.02837">
    <ele>879.1000000000001</ele>
   </trkpt>
   <trkpt lat="46.19044" lon="15.02856">
    <ele>881.65</ele>
   </trkpt>
   <trkpt lat="46.19039" lon="15.028710000000002">
    <ele>883.44</ele>
   </trkpt>
   <trkpt lat="46.19041000000001" lon="15.028850000000002">
    <ele>885.57</ele>
   </trkpt>
   <trkpt lat="46.19053" lon="15.029050000000002">
    <ele>888.3100000000001</ele>
   </trkpt>
   <trkpt lat="46.190670000000004" lon="15.029180000000002">
    <ele>890.0600000000001</ele>
   </trkpt>
   <trkpt lat="46.190830000000005" lon="15.029240000000001">
    <ele>891.35</ele>
   </trkpt>
   <trkpt lat="46.19097000000001" lon="15.029240000000001">
    <ele>892.33</ele>
   </trkpt>
   <trkpt lat="46.19097000000001" lon="15.028730000000001">
    <ele>896.2</ele>
   </trkpt>
   <trkpt lat="46.19088000000001" lon="15.028290000000002">
    <ele>898.32</ele>
   </trkpt>
   <trkpt lat="46.19086" lon="15.027680000000002">
    <ele>901.1600000000001</ele>
   </trkpt>
   <trkpt lat="46.19071" lon="15.027220000000002">
    <ele>904.75</ele>
   </trkpt>
   <trkpt lat="46.19068" lon="15.027000000000001">
    <ele>904.75</ele>
   </trkpt>
   <trkpt lat="46.19071" lon="15.02682">
    <ele>906.24</ele>
   </trkpt>
   <trkpt lat="46.19098" lon="15.026650000000002">
    <ele>911.1800000000001</ele>
   </trkpt>
   <trkpt lat="46.19108000000001" lon="15.026430000000001">
    <ele>914.88</ele>
   </trkpt>
   <trkpt lat="46.19102" lon="15.026280000000002">
    <ele>915.7400000000001</ele>
   </trkpt>
   <trkpt lat="46.19086" lon="15.026230000000002">
    <ele>920.75</ele>
   </trkpt>
   <trkpt lat="46.190490000000004" lon="15.026150000000001">
    <ele>924.48</ele>
   </trkpt>
   <trkpt lat="46.19021" lon="15.026040000000002">
    <ele>927.88</ele>
   </trkpt>
   <trkpt lat="46.1901" lon="15.025800000000002">
    <ele>931.5500000000001</ele>
   </trkpt>
   <trkpt lat="46.19019" lon="15.025640000000001">
    <ele>933.7900000000001</ele>
   </trkpt>
   <trkpt lat="46.19032000000001" lon="15.025570000000002">
    <ele>935.1300000000001</ele>
   </trkpt>
   <trkpt lat="46.19042" lon="15.025310000000001">
    <ele>936.83</ele>
   </trkpt>
   <trkpt lat="46.19035" lon="15.02495">
    <ele>940.03</ele>
   </trkpt>
   <trkpt lat="46.19023000000001" lon="15.0248">
    <ele>942.5600000000001</ele>
   </trkpt>
   <trkpt lat="46.19005000000001" lon="15.024720000000002">
    <ele>949.4100000000001</ele>
   </trkpt>
   <trkpt lat="46.189490000000006" lon="15.02462">
    <ele>958.64</ele>
   </trkpt>
   <trkpt lat="46.18878" lon="15.02401">
    <ele>970.2</ele>
   </trkpt>
   <trkpt lat="46.188550000000006" lon="15.023970000000002">
    <ele>973.34</ele>
   </trkpt>
   <trkpt lat="46.18813" lon="15.023790000000002">
    <ele>981.8700000000001</ele>
   </trkpt>
   <trkpt lat="46.187830000000005" lon="15.02344">
    <ele>987.19</ele>
   </trkpt>
   <trkpt lat="46.18751" lon="15.023280000000002">
    <ele>991.5500000000001</ele>
   </trkpt>
   <trkpt lat="46.187070000000006" lon="15.022960000000001">
    <ele>998.69</ele>
   </trkpt>
   <trkpt lat="46.18701" lon="15.022670000000002">
    <ele>1000.2200000000001</ele>
   </trkpt>
   <trkpt lat="46.18694000000001" lon="15.021490000000002">
    <ele>1010.9200000000001</ele>
   </trkpt>
   <trkpt lat="46.186840000000004" lon="15.021030000000001">
    <ele>1018.0</ele>
   </trkpt>
   <trkpt lat="46.18665000000001" lon="15.020500000000002">
    <ele>1030.5000000000002</ele>
   </trkpt>
   <trkpt lat="46.18629000000001" lon="15.01979">
    <ele>1039.32</ele>
   </trkpt>
   <trkpt lat="46.18601" lon="15.019390000000001">
    <ele>1040.18</ele>
   </trkpt>
   <trkpt lat="46.18585" lon="15.019050000000002">
    <ele>1039.9</ele>
   </trkpt>
   <trkpt lat="46.18565" lon="15.0187">
    <ele>1038.7</ele>
   </trkpt>
   <trkpt lat="46.18498" lon="15.017870000000002">
    <ele>1041.0700000000002</ele>
   </trkpt>
   <trkpt lat="46.184720000000006" lon="15.01721">
    <ele>1047.08</ele>
   </trkpt>
   <trkpt lat="46.184610000000006" lon="15.01674">
    <ele>1050.23</ele>
   </trkpt>
   <trkpt lat="46.18457" lon="15.016200000000001">
    <ele>1054.57</ele>
   </trkpt>
   <trkpt lat="46.18466" lon="15.015260000000001">
    <ele>1056.72</ele>
   </trkpt>
   <trkpt lat="46.18455" lon="15.014210000000002">
    <ele>1059.56</ele>
   </trkpt>
   <trkpt lat="46.18448" lon="15.01383">
    <ele>1060.18</ele>
   </trkpt>
   <trkpt lat="46.184360000000005" lon="15.013480000000001">
    <ele>1060.7300000000002</ele>
   </trkpt>
   <trkpt lat="46.18422" lon="15.01331">
    <ele>1061.45</ele>
   </trkpt>
   <trkpt lat="46.18408" lon="15.01326">
    <ele>1063.1200000000001</ele>
   </trkpt>
   <trkpt lat="46.1837" lon="15.0134">
    <ele>1065.98</ele>
   </trkpt>
   <trkpt lat="46.18309000000001" lon="15.013760000000001">
    <ele>1068.3700000000001</ele>
   </trkpt>
   <trkpt lat="46.18253000000001" lon="15.01392">
    <ele>1071.49</ele>
   </trkpt>
   <trkpt lat="46.18231" lon="15.013900000000001">
    <ele>1072.33</ele>
   </trkpt>
   <trkpt lat="46.182140000000004" lon="15.013930000000002">
    <ele>1072.09</ele>
   </trkpt>
   <trkpt lat="46.18178" lon="15.01406">
    <ele>1070.3</ele>
   </trkpt>
   <trkpt lat="46.18150000000001" lon="15.014240000000001">
    <ele>1068.63</ele>
   </trkpt>
   <trkpt lat="46.181290000000004" lon="15.01467">
    <ele>1066.72</ele>
   </trkpt>
   <trkpt lat="46.18113" lon="15.014920000000002">
    <ele>1062.2900000000002</ele>
   </trkpt>
   <trkpt lat="46.180980000000005" lon="15.015300000000002">
    <ele>1059.74</ele>
   </trkpt>
   <trkpt lat="46.18077" lon="15.015640000000001">
    <ele>1054.6200000000001</ele>
   </trkpt>
   <trkpt lat="46.180550000000004" lon="15.016210000000001">
    <ele>1046.37</ele>
   </trkpt>
   <trkpt lat="46.18019" lon="15.01701">
    <ele>1040.01</ele>
   </trkpt>
   <trkpt lat="46.18005500193345" lon="15.01767000145238">
    <ele>1032.34</ele>
   </trkpt>
   <trkpt lat="46.17992" lon="15.01833">
    <ele>1024.17</ele>
   </trkpt>
   <trkpt lat="46.179680000000005" lon="15.018970000000001">
    <ele>1012.65</ele>
   </trkpt>
   <trkpt lat="46.179640000000006" lon="15.019200000000001">
    <ele>1010.1200000000001</ele>
   </trkpt>
   <trkpt lat="46.17965" lon="15.019420000000002">
    <ele>1008.07</ele>
   </trkpt>
   <trkpt lat="46.17954" lon="15.019820000000001">
    <ele>1001.2800000000002</ele>
   </trkpt>
   <trkpt lat="46.17944000000001" lon="15.020010000000001">
    <ele>998.74</ele>
   </trkpt>
   <trkpt lat="46.17887" lon="15.020800000000001">
    <ele>983.2700000000001</ele>
   </trkpt>
   <trkpt lat="46.17864" lon="15.021040000000001">
    <ele>980.4</ele>
   </trkpt>
   <trkpt lat="46.178380000000004" lon="15.021210000000002">
    <ele>981.5300000000001</ele>
   </trkpt>
   <trkpt lat="46.178380000000004" lon="15.021400000000002">
    <ele>984.5400000000001</ele>
   </trkpt>
   <trkpt lat="46.17832000000001" lon="15.021530000000002">
    <ele>986.4200000000001</ele>
   </trkpt>
   <trkpt lat="46.178140000000006" lon="15.02148">
    <ele>990.89</ele>
   </trkpt>
   <trkpt lat="46.177960000000006" lon="15.021510000000001">
    <ele>996.07</ele>
   </trkpt>
   <trkpt lat="46.17785000000001" lon="15.021680000000002">
    <ele>1002.37</ele>
   </trkpt>
   <trkpt lat="46.17759" lon="15.021820000000002">
    <ele>1006.61</ele>
   </trkpt>
   <trkpt lat="46.17747000000001" lon="15.02185">
    <ele>1006.5700000000002</ele>
   </trkpt>
   <trkpt lat="46.17739" lon="15.0219">
    <ele>1006.35</ele>
   </trkpt>
   <trkpt lat="46.177310000000006" lon="15.02209">
    <ele>1006.6700000000002</ele>
   </trkpt>
   <trkpt lat="46.177150000000005" lon="15.022280000000002">
    <ele>1007.7900000000002</ele>
   </trkpt>
   <trkpt lat="46.177060000000004" lon="15.02232">
    <ele>1008.0200000000001</ele>
   </trkpt>
   <trkpt lat="46.17691000000001" lon="15.022340000000002">
    <ele>1006.8700000000001</ele>
   </trkpt>
   <trkpt lat="46.17654" lon="15.022590000000001">
    <ele>999.7300000000001</ele>
   </trkpt>
   <trkpt lat="46.17643" lon="15.022610000000002">
    <ele>998.2500000000001</ele>
   </trkpt>
   <trkpt lat="46.176280000000006" lon="15.022590000000001">
    <ele>995.86</ele>
   </trkpt>
   <trkpt lat="46.176230000000004" lon="15.022660000000002">
    <ele>993.07</ele>
   </trkpt>
   <trkpt lat="46.17611" lon="15.022770000000001">
    <ele>988.95</ele>
   </trkpt>
   <trkpt lat="46.176030000000004" lon="15.022770000000001">
    <ele>987.4000000000001</ele>
   </trkpt>
   <trkpt lat="46.175850000000004" lon="15.022890000000002">
    <ele>984.19</ele>
   </trkpt>
   <trkpt lat="46.17559000000001" lon="15.022820000000001">
    <ele>980.4</ele>
   </trkpt>
   <trkpt lat="46.175580000000004" lon="15.022800000000002">
    <ele>980.4</ele>
   </trkpt>
   <trkpt lat="46.175580000000004" lon="15.022810000000002">
    <ele>980.4</ele>
   </trkpt>
   <trkpt lat="46.17553" lon="15.02269">
    <ele>979.2700000000001</ele>
   </trkpt>
   <trkpt lat="46.175540000000005" lon="15.022610000000002">
    <ele>977.44</ele>
   </trkpt>
   <trkpt lat="46.17568000000001" lon="15.02246">
    <ele>974.72</ele>
   </trkpt>
   <trkpt lat="46.17586000000001" lon="15.02241">
    <ele>975.35</ele>
   </trkpt>
   <trkpt lat="46.176030000000004" lon="15.022300000000001">
    <ele>976.6600000000001</ele>
   </trkpt>
   <trkpt lat="46.17658" lon="15.021880000000001">
    <ele>979.1700000000001</ele>
   </trkpt>
   <trkpt lat="46.17721" lon="15.021250000000002">
    <ele>981.71</ele>
   </trkpt>
   <trkpt lat="46.177400000000006" lon="15.021130000000001">
    <ele>981.6700000000001</ele>
   </trkpt>
   <trkpt lat="46.17774000000001" lon="15.020990000000001">
    <ele>980.52</ele>
   </trkpt>
   <trkpt lat="46.17819" lon="15.02096">
    <ele>977.58</ele>
   </trkpt>
   <trkpt lat="46.178250000000006" lon="15.02091">
    <ele>976.8800000000001</ele>
   </trkpt>
   <trkpt lat="46.17831" lon="15.02072">
    <ele>974.94</ele>
   </trkpt>
   <trkpt lat="46.17832000000001" lon="15.020710000000001">
    <ele>974.94</ele>
   </trkpt>
   <trkpt lat="46.1784" lon="15.019570000000002">
    <ele>966.62</ele>
   </trkpt>
   <trkpt lat="46.178520000000006" lon="15.018720000000002">
    <ele>961.3000000000001</ele>
   </trkpt>
   <trkpt lat="46.17853" lon="15.018250000000002">
    <ele>958.4</ele>
   </trkpt>
   <trkpt lat="46.17846" lon="15.017850000000001">
    <ele>956.3100000000001</ele>
   </trkpt>
   <trkpt lat="46.178290000000004" lon="15.017320000000002">
    <ele>954.6500000000001</ele>
   </trkpt>
   <trkpt lat="46.178270000000005" lon="15.01692">
    <ele>952.37</ele>
   </trkpt>
   <trkpt lat="46.17815" lon="15.016200000000001">
    <ele>950.1</ele>
   </trkpt>
   <trkpt lat="46.178140000000006" lon="15.015970000000001">
    <ele>949.7</ele>
   </trkpt>
   <trkpt lat="46.178050000000006" lon="15.015480000000002">
    <ele>948.88</ele>
   </trkpt>
   <trkpt lat="46.177820000000004" lon="15.014820000000002">
    <ele>945.7800000000001</ele>
   </trkpt>
   <trkpt lat="46.177800000000005" lon="15.014660000000001">
    <ele>944.5300000000001</ele>
   </trkpt>
   <trkpt lat="46.177800000000005" lon="15.01434">
    <ele>942.22</ele>
   </trkpt>
   <trkpt lat="46.177820000000004" lon="15.014040000000001">
    <ele>939.32</ele>
   </trkpt>
   <trkpt lat="46.17785000000001" lon="15.013890000000002">
    <ele>939.32</ele>
   </trkpt>
   <trkpt lat="46.178050001728096" lon="15.01325500240433">
    <ele>934.76</ele>
   </trkpt>
   <trkpt lat="46.178250000000006" lon="15.012620000000002">
    <ele>931.2600000000001</ele>
   </trkpt>
   <trkpt lat="46.178270000000005" lon="15.012480000000002">
    <ele>930.8400000000001</ele>
   </trkpt>
   <trkpt lat="46.17824" lon="15.01214">
    <ele>929.85</ele>
   </trkpt>
   <trkpt lat="46.17824" lon="15.01195">
    <ele>928.48</ele>
   </trkpt>
   <trkpt lat="46.17831" lon="15.011730000000002">
    <ele>925.82</ele>
   </trkpt>
   <trkpt lat="46.17839" lon="15.011460000000001">
    <ele>922.72</ele>
   </trkpt>
   <trkpt lat="46.178490000000004" lon="15.010990000000001">
    <ele>919.4300000000001</ele>
   </trkpt>
   <trkpt lat="46.1786" lon="15.01068">
    <ele>917.6700000000001</ele>
   </trkpt>
   <trkpt lat="46.17884" lon="15.010250000000001">
    <ele>913.94</ele>
   </trkpt>
   <trkpt lat="46.178940000000004" lon="15.01003">
    <ele>913.27</ele>
   </trkpt>
   <trkpt lat="46.179120000000005" lon="15.00975">
    <ele>912.2800000000001</ele>
   </trkpt>
   <trkpt lat="46.17927" lon="15.009620000000002">
    <ele>912.1500000000001</ele>
   </trkpt>
   <trkpt lat="46.179520000000004" lon="15.009490000000001">
    <ele>912.3000000000001</ele>
   </trkpt>
   <trkpt lat="46.17918" lon="15.009360000000001">
    <ele>913.5000000000001</ele>
   </trkpt>
   <trkpt lat="46.17895" lon="15.009440000000001">
    <ele>914.12</ele>
   </trkpt>
   <trkpt lat="46.17882" lon="15.009540000000001">
    <ele>915.0600000000001</ele>
   </trkpt>
   <trkpt lat="46.178760000000004" lon="15.009660000000002">
    <ele>915.12</ele>
   </trkpt>
   <trkpt lat="46.178700000000006" lon="15.009720000000002">
    <ele>914.9</ele>
   </trkpt>
   <trkpt lat="46.17850000000001" lon="15.00984">
    <ele>906.83</ele>
   </trkpt>
   <trkpt lat="46.17832000000001" lon="15.009820000000001">
    <ele>902.9300000000001</ele>
   </trkpt>
   <trkpt lat="46.17828" lon="15.009780000000001">
    <ele>902.9300000000001</ele>
   </trkpt>
   <trkpt lat="46.17794000000001" lon="15.00961">
    <ele>886.96</ele>
   </trkpt>
   <trkpt lat="46.17781" lon="15.00961">
    <ele>879.7</ele>
   </trkpt>
   <trkpt lat="46.177620000000005" lon="15.00955">
    <ele>872.7</ele>
   </trkpt>
   <trkpt lat="46.17745" lon="15.00965">
    <ele>864.96</ele>
   </trkpt>
   <trkpt lat="46.17738000000001" lon="15.009630000000001">
    <ele>864.9100000000001</ele>
   </trkpt>
   <trkpt lat="46.177220000000005" lon="15.009630000000001">
    <ele>864.94</ele>
   </trkpt>
   <trkpt lat="46.1771" lon="15.0097">
    <ele>863.3100000000001</ele>
   </trkpt>
   <trkpt lat="46.17694" lon="15.009870000000001">
    <ele>862.38</ele>
   </trkpt>
   <trkpt lat="46.17678" lon="15.010090000000002">
    <ele>861.5200000000001</ele>
   </trkpt>
   <trkpt lat="46.17667" lon="15.01016">
    <ele>861.71</ele>
   </trkpt>
   <trkpt lat="46.176590000000004" lon="15.010330000000002">
    <ele>860.9700000000001</ele>
   </trkpt>
   <trkpt lat="46.176460000000006" lon="15.01073">
    <ele>857.8000000000001</ele>
   </trkpt>
   <trkpt lat="46.17643" lon="15.01096">
    <ele>856.4100000000001</ele>
   </trkpt>
   <trkpt lat="46.17644000000001" lon="15.011170000000002">
    <ele>855.86</ele>
   </trkpt>
   <trkpt lat="46.17654" lon="15.011350000000002">
    <ele>854.71</ele>
   </trkpt>
   <trkpt lat="46.17678" lon="15.011590000000002">
    <ele>852.62</ele>
   </trkpt>
   <trkpt lat="46.176880000000004" lon="15.01181">
    <ele>852.6600000000001</ele>
   </trkpt>
   <trkpt lat="46.17689000000001" lon="15.012240000000002">
    <ele>852.6400000000001</ele>
   </trkpt>
   <trkpt lat="46.176770000000005" lon="15.01251">
    <ele>851.1700000000001</ele>
   </trkpt>
   <trkpt lat="46.17662000000001" lon="15.012720000000002">
    <ele>850.1200000000001</ele>
   </trkpt>
   <trkpt lat="46.176570000000005" lon="15.013020000000001">
    <ele>850.3600000000001</ele>
   </trkpt>
   <trkpt lat="46.17611" lon="15.01335">
    <ele>847.7300000000001</ele>
   </trkpt>
   <trkpt lat="46.175940000000004" lon="15.01364">
    <ele>843.82</ele>
   </trkpt>
   <trkpt lat="46.175830000000005" lon="15.01396">
    <ele>841.0300000000001</ele>
   </trkpt>
   <trkpt lat="46.175830000000005" lon="15.014350000000002">
    <ele>839.6300000000001</ele>
   </trkpt>
   <trkpt lat="46.17588000000001" lon="15.014750000000001">
    <ele>839.35</ele>
   </trkpt>
   <trkpt lat="46.1758" lon="15.014980000000001">
    <ele>838.52</ele>
   </trkpt>
   <trkpt lat="46.175760000000004" lon="15.01524">
    <ele>838.8800000000001</ele>
   </trkpt>
   <trkpt lat="46.17584" lon="15.015780000000001">
    <ele>840.74</ele>
   </trkpt>
   <trkpt lat="46.17586000000001" lon="15.01603">
    <ele>840.58</ele>
   </trkpt>
   <trkpt lat="46.17578" lon="15.016200000000001">
    <ele>840.5400000000001</ele>
   </trkpt>
   <trkpt lat="46.17541000000001" lon="15.016440000000001">
    <ele>842.4</ele>
   </trkpt>
   <trkpt lat="46.17492000000001" lon="15.01664">
    <ele>837.96</ele>
   </trkpt>
   <trkpt lat="46.17432" lon="15.01706">
    <ele>824.88</ele>
   </trkpt>
   <trkpt lat="46.174170000000004" lon="15.01739">
    <ele>822.3800000000001</ele>
   </trkpt>
   <trkpt lat="46.17416" lon="15.01758">
    <ele>820.82</ele>
   </trkpt>
   <trkpt lat="46.174440000000004" lon="15.017880000000002">
    <ele>819.0600000000001</ele>
   </trkpt>
   <trkpt lat="46.17477" lon="15.018350000000002">
    <ele>816.85</ele>
   </trkpt>
   <trkpt lat="46.17494000000001" lon="15.018680000000002">
    <ele>815.45</ele>
   </trkpt>
   <trkpt lat="46.174710000000005" lon="15.019070000000001">
    <ele>816.35</ele>
   </trkpt>
   <trkpt lat="46.174510000000005" lon="15.019210000000001">
    <ele>819.22</ele>
   </trkpt>
   <trkpt lat="46.17421" lon="15.0195">
    <ele>824.06</ele>
   </trkpt>
   <trkpt lat="46.173640000000006" lon="15.01983">
    <ele>824.52</ele>
   </trkpt>
   <trkpt lat="46.173500000000004" lon="15.019870000000001">
    <ele>822.13</ele>
   </trkpt>
   <trkpt lat="46.1732" lon="15.01988">
    <ele>818.8700000000001</ele>
   </trkpt>
   <trkpt lat="46.17293" lon="15.019910000000001">
    <ele>817.37</ele>
   </trkpt>
   <trkpt lat="46.17273" lon="15.019890000000002">
    <ele>816.8100000000001</ele>
   </trkpt>
   <trkpt lat="46.17226" lon="15.019900000000002">
    <ele>815.1</ele>
   </trkpt>
   <trkpt lat="46.172160000000005" lon="15.01988">
    <ele>815.1</ele>
   </trkpt>
   <trkpt lat="46.1719" lon="15.01979">
    <ele>813.9200000000001</ele>
   </trkpt>
   <trkpt lat="46.171530000000004" lon="15.01988">
    <ele>811.5000000000001</ele>
   </trkpt>
   <trkpt lat="46.171380000000006" lon="15.019870000000001">
    <ele>809.9200000000001</ele>
   </trkpt>
   <trkpt lat="46.171150000000004" lon="15.01992">
    <ele>807.54</ele>
   </trkpt>
   <trkpt lat="46.170730000000006" lon="15.020080000000002">
    <ele>800.25</ele>
   </trkpt>
   <trkpt lat="46.17062000000001" lon="15.020140000000001">
    <ele>798.8700000000001</ele>
   </trkpt>
   <trkpt lat="46.170390000000005" lon="15.020190000000001">
    <ele>795.6800000000001</ele>
   </trkpt>
   <trkpt lat="46.170120000000004" lon="15.020380000000001">
    <ele>789.2800000000001</ele>
   </trkpt>
   <trkpt lat="46.16942" lon="15.02101">
    <ele>776.9200000000001</ele>
   </trkpt>
   <trkpt lat="46.16928" lon="15.021160000000002">
    <ele>774.02</ele>
   </trkpt>
   <trkpt lat="46.16893" lon="15.021670000000002">
    <ele>767.36</ele>
   </trkpt>
   <trkpt lat="46.16883000000001" lon="15.021870000000002">
    <ele>763.7600000000001</ele>
   </trkpt>
   <trkpt lat="46.168820000000004" lon="15.021930000000001">
    <ele>763.7600000000001</ele>
   </trkpt>
   <trkpt lat="46.16877" lon="15.022020000000001">
    <ele>762.6500000000001</ele>
   </trkpt>
   <trkpt lat="46.168710000000004" lon="15.022670000000002">
    <ele>756.73</ele>
   </trkpt>
   <trkpt lat="46.168670000000006" lon="15.02284">
    <ele>752.8900000000001</ele>
   </trkpt>
   <trkpt lat="46.16845000000001" lon="15.023150000000001">
    <ele>748.8</ele>
   </trkpt>
   <trkpt lat="46.168290000000006" lon="15.02349">
    <ele>744.38</ele>
   </trkpt>
   <trkpt lat="46.168240000000004" lon="15.023620000000001">
    <ele>742.69</ele>
   </trkpt>
   <trkpt lat="46.16832" lon="15.02392">
    <ele>737.0600000000001</ele>
   </trkpt>
   <trkpt lat="46.168290000000006" lon="15.02405">
    <ele>735.35</ele>
   </trkpt>
   <trkpt lat="46.16808" lon="15.02415">
    <ele>730.33</ele>
   </trkpt>
   <trkpt lat="46.16789000000001" lon="15.024370000000001">
    <ele>725.7900000000001</ele>
   </trkpt>
   <trkpt lat="46.16783" lon="15.024500000000002">
    <ele>719.19</ele>
   </trkpt>
   <trkpt lat="46.16778" lon="15.024730000000002">
    <ele>715.67</ele>
   </trkpt>
   <trkpt lat="46.16783" lon="15.025400000000001">
    <ele>705.6300000000001</ele>
   </trkpt>
   <trkpt lat="46.167910000000006" lon="15.025950000000002">
    <ele>693.24</ele>
   </trkpt>
   <trkpt lat="46.16798000000001" lon="15.026270000000002">
    <ele>688.8700000000001</ele>
   </trkpt>
   <trkpt lat="46.167860000000005" lon="15.027030000000002">
    <ele>679.13</ele>
   </trkpt>
   <trkpt lat="46.16751000000001" lon="15.02799">
    <ele>660.0600000000001</ele>
   </trkpt>
   <trkpt lat="46.167480000000005" lon="15.028250000000002">
    <ele>656.85</ele>
   </trkpt>
   <trkpt lat="46.16761" lon="15.028850000000002">
    <ele>654.0</ele>
   </trkpt>
   <trkpt lat="46.16808" lon="15.029650000000002">
    <ele>644.09</ele>
   </trkpt>
   <trkpt lat="46.168200000000006" lon="15.029900000000001">
    <ele>641.05</ele>
   </trkpt>
   <trkpt lat="46.16836000000001" lon="15.03034">
    <ele>636.21</ele>
   </trkpt>
   <trkpt lat="46.16859" lon="15.030850000000001">
    <ele>631.8900000000001</ele>
   </trkpt>
   <trkpt lat="46.168800000000005" lon="15.03104">
    <ele>628.57</ele>
   </trkpt>
   <trkpt lat="46.169000000000004" lon="15.031170000000001">
    <ele>626.22</ele>
   </trkpt>
   <trkpt lat="46.16913" lon="15.03123">
    <ele>625.33</ele>
   </trkpt>
   <trkpt lat="46.16903000000001" lon="15.031270000000001">
    <ele>624.8800000000001</ele>
   </trkpt>
   <trkpt lat="46.168910000000004" lon="15.031350000000002">
    <ele>624.3100000000001</ele>
   </trkpt>
   <trkpt lat="46.168800000000005" lon="15.031350000000002">
    <ele>624.1000000000001</ele>
   </trkpt>
   <trkpt lat="46.16868" lon="15.031320000000001">
    <ele>624.0100000000001</ele>
   </trkpt>
   <trkpt lat="46.16855" lon="15.031250000000002">
    <ele>624.07</ele>
   </trkpt>
   <trkpt lat="46.16818000000001" lon="15.03095">
    <ele>623.72</ele>
   </trkpt>
   <trkpt lat="46.168000000000006" lon="15.030750000000001">
    <ele>622.0500000000001</ele>
   </trkpt>
   <trkpt lat="46.167790000000004" lon="15.03044">
    <ele>621.61</ele>
   </trkpt>
   <trkpt lat="46.167530000000006" lon="15.030100000000001">
    <ele>620.41</ele>
   </trkpt>
   <trkpt lat="46.16743" lon="15.03001">
    <ele>619.94</ele>
   </trkpt>
   <trkpt lat="46.167370000000005" lon="15.03001">
    <ele>619.7600000000001</ele>
   </trkpt>
   <trkpt lat="46.167300000000004" lon="15.030050000000001">
    <ele>619.8</ele>
   </trkpt>
   <trkpt lat="46.16713000000001" lon="15.030220000000002">
    <ele>621.0300000000001</ele>
   </trkpt>
   <trkpt lat="46.16698" lon="15.030280000000001">
    <ele>622.3000000000001</ele>
   </trkpt>
   <trkpt lat="46.166900000000005" lon="15.030280000000001">
    <ele>623.0500000000001</ele>
   </trkpt>
   <trkpt lat="46.16639000000001" lon="15.030130000000002">
    <ele>626.57</ele>
   </trkpt>
   <trkpt lat="46.16624" lon="15.030000000000001">
    <ele>627.47</ele>
   </trkpt>
   <trkpt lat="46.16599" lon="15.02983">
    <ele>628.9</ele>
   </trkpt>
   <trkpt lat="46.165980000000005" lon="15.02982">
    <ele>628.9200000000001</ele>
   </trkpt>
   <trkpt lat="46.165850000000006" lon="15.030140000000001">
    <ele>627.73</ele>
   </trkpt>
   <trkpt lat="46.165710000000004" lon="15.030590000000002">
    <ele>625.78</ele>
   </trkpt>
   <trkpt lat="46.16559" lon="15.031250000000002">
    <ele>627.2800000000001</ele>
   </trkpt>
   <trkpt lat="46.165530000000004" lon="15.032110000000001">
    <ele>623.8800000000001</ele>
   </trkpt>
   <trkpt lat="46.16539" lon="15.033130000000002">
    <ele>613.44</ele>
   </trkpt>
   <trkpt lat="46.16555" lon="15.034">
    <ele>603.96</ele>
   </trkpt>
   <trkpt lat="46.165420000000005" lon="15.0348">
    <ele>595.25</ele>
   </trkpt>
   <trkpt lat="46.16521" lon="15.035530000000001">
    <ele>591.1500000000001</ele>
   </trkpt>
   <trkpt lat="46.16507000000001" lon="15.036170000000002">
    <ele>581.0300000000001</ele>
   </trkpt>
   <trkpt lat="46.16472" lon="15.036760000000001">
    <ele>573.86</ele>
   </trkpt>
   <trkpt lat="46.164440000000006" lon="15.037410000000001">
    <ele>571.1400000000001</ele>
   </trkpt>
   <trkpt lat="46.16429" lon="15.038160000000001">
    <ele>563.32</ele>
   </trkpt>
   <trkpt lat="46.16395000000001" lon="15.038430000000002">
    <ele>555.9300000000001</ele>
   </trkpt>
   <trkpt lat="46.163720000000005" lon="15.0385">
    <ele>554.07</ele>
   </trkpt>
   <trkpt lat="46.163540000000005" lon="15.03865">
    <ele>550.58</ele>
   </trkpt>
   <trkpt lat="46.16351" lon="15.038900000000002">
    <ele>546.48</ele>
   </trkpt>
   <trkpt lat="46.163380000000004" lon="15.03931">
    <ele>537.6500000000001</ele>
   </trkpt>
   <trkpt lat="46.16299" lon="15.039470000000001">
    <ele>522.83</ele>
   </trkpt>
   <trkpt lat="46.162800000000004" lon="15.039650000000002">
    <ele>516.3100000000001</ele>
   </trkpt>
   <trkpt lat="46.16272000000001" lon="15.03958">
    <ele>515.11</ele>
   </trkpt>
   <trkpt lat="46.16264" lon="15.03945">
    <ele>513.02</ele>
   </trkpt>
   <trkpt lat="46.1625" lon="15.039360000000002">
    <ele>510.04</ele>
   </trkpt>
   <trkpt lat="46.16237" lon="15.039470000000001">
    <ele>505.0</ele>
   </trkpt>
   <trkpt lat="46.16226" lon="15.039470000000001">
    <ele>502.8</ele>
   </trkpt>
   <trkpt lat="46.162110000000006" lon="15.03944">
    <ele>499.96</ele>
   </trkpt>
   <trkpt lat="46.161930000000005" lon="15.039500000000002">
    <ele>497.03000000000003</ele>
   </trkpt>
   <trkpt lat="46.16178" lon="15.03949">
    <ele>494.67</ele>
   </trkpt>
   <trkpt lat="46.161590000000004" lon="15.03944">
    <ele>492.55</ele>
   </trkpt>
   <trkpt lat="46.16149" lon="15.03944">
    <ele>491.15000000000003</ele>
   </trkpt>
   <trkpt lat="46.16138" lon="15.039520000000001">
    <ele>490.16</ele>
   </trkpt>
   <trkpt lat="46.16132" lon="15.039610000000001">
    <ele>488.57000000000005</ele>
   </trkpt>
   <trkpt lat="46.161170000000006" lon="15.039980000000002">
    <ele>481.62000000000006</ele>
   </trkpt>
   <trkpt lat="46.16102" lon="15.040140000000001">
    <ele>476.24000000000007</ele>
   </trkpt>
   <trkpt lat="46.16098" lon="15.0402">
    <ele>476.24000000000007</ele>
   </trkpt>
   <trkpt lat="46.16093" lon="15.040130000000001">
    <ele>476.18000000000006</ele>
   </trkpt>
   <trkpt lat="46.160940000000004" lon="15.040230000000001">
    <ele>476.01000000000005</ele>
   </trkpt>
   <trkpt lat="46.16109" lon="15.040740000000001">
    <ele>475.46000000000004</ele>
   </trkpt>
   <trkpt lat="46.161170000000006" lon="15.04081">
    <ele>475.04</ele>
   </trkpt>
   <trkpt lat="46.16129" lon="15.04127">
    <ele>470.66</ele>
   </trkpt>
   <trkpt lat="46.161350000000006" lon="15.041630000000001">
    <ele>469.22</ele>
   </trkpt>
   <trkpt lat="46.16147" lon="15.041820000000001">
    <ele>469.02000000000004</ele>
   </trkpt>
   <trkpt lat="46.16174" lon="15.042100000000001">
    <ele>469.15</ele>
   </trkpt>
   <trkpt lat="46.16181" lon="15.042250000000001">
    <ele>468.46000000000004</ele>
   </trkpt>
   <trkpt lat="46.16185" lon="15.042800000000002">
    <ele>467.44</ele>
   </trkpt>
   <trkpt lat="46.161750000000005" lon="15.043070000000002">
    <ele>464.35</ele>
   </trkpt>
   <trkpt lat="46.1617" lon="15.043330000000001">
    <ele>462.83</ele>
   </trkpt>
   <trkpt lat="46.16180000000001" lon="15.043940000000001">
    <ele>454.38000000000005</ele>
   </trkpt>
   <trkpt lat="46.16179" lon="15.044400000000001">
    <ele>451.45</ele>
   </trkpt>
   <trkpt lat="46.161640000000006" lon="15.044680000000001">
    <ele>448.54</ele>
   </trkpt>
   <trkpt lat="46.161460000000005" lon="15.04494">
    <ele>442.74</ele>
   </trkpt>
   <trkpt lat="46.161410000000004" lon="15.045200000000001">
    <ele>440.18</ele>
   </trkpt>
   <trkpt lat="46.161440000000006" lon="15.04573">
    <ele>432.42</ele>
   </trkpt>
   <trkpt lat="46.16154" lon="15.04616">
    <ele>427.02</ele>
   </trkpt>
   <trkpt lat="46.162060000000004" lon="15.046870000000002">
    <ele>402.04</ele>
   </trkpt>
   <trkpt lat="46.16234500152486" lon="15.047454997036995">
    <ele>387.64000000000004</ele>
   </trkpt>
   <trkpt lat="46.16263000000001" lon="15.048040000000002">
    <ele>379.73</ele>
   </trkpt>
   <trkpt lat="46.162600000000005" lon="15.048660000000002">
    <ele>365.56000000000006</ele>
   </trkpt>
   <trkpt lat="46.162620000000004" lon="15.048980000000002">
    <ele>361.32000000000005</ele>
   </trkpt>
   <trkpt lat="46.16252" lon="15.049500000000002">
    <ele>344.90000000000003</ele>
   </trkpt>
   <trkpt lat="46.162440000000004" lon="15.05009">
    <ele>334.01000000000005</ele>
   </trkpt>
   <trkpt lat="46.1623" lon="15.050500000000001">
    <ele>324.21000000000004</ele>
   </trkpt>
   <trkpt lat="46.162130000000005" lon="15.05071">
    <ele>316.84000000000003</ele>
   </trkpt>
   <trkpt lat="46.162110000000006" lon="15.05076">
    <ele>316.84000000000003</ele>
   </trkpt>
   <trkpt lat="46.16199" lon="15.050950000000002">
    <ele>314.69</ele>
   </trkpt>
   <trkpt lat="46.1614" lon="15.051590000000001">
    <ele>305.95</ele>
   </trkpt>
   <trkpt lat="46.16131" lon="15.051800000000002">
    <ele>304.96</ele>
   </trkpt>
   <trkpt lat="46.16122000000001" lon="15.052140000000001">
    <ele>302.01</ele>
   </trkpt>
   <trkpt lat="46.16124000000001" lon="15.052290000000001">
    <ele>301.22</ele>
   </trkpt>
   <trkpt lat="46.16134" lon="15.052750000000001">
    <ele>298.9</ele>
   </trkpt>
   <trkpt lat="46.160540000000005" lon="15.05324">
    <ele>297.41</ele>
   </trkpt>
  </trkseg>
 </trk>
</gpx>
