<?xml version="1.0" encoding="UTF-8"?>
<gpx creator="https://gpx.studio" version="1.1" xmlns="http://www.topografix.com/GPX/1/1" xmlns:xsi="http://www.w3.org/2001/XMLSchema-instance" xsi:schemaLocation="http://www.topografix.com/GPX/1/1 http://www.topografix.com/GPX/1/1/gpx.xsd http://www.garmin.com/xmlschemas/GpxExtensions/v3 http://www.garmin.com/xmlschemas/GpxExtensionsv3.xsd http://www.garmin.com/xmlschemas/TrackPointExtension/v1 http://www.garmin.com/xmlschemas/TrackPointExtensionv1.xsd http://www.garmin.com/xmlschemas/PowerExtension/v1 http://www.garmin.com/xmlschemas/PowerExtensionv1.xsd http://www.topografix.com/GPX/gpx_style/0/2 http://www.topografix.com/GPX/gpx_style/0/2/gpx_style.xsd" xmlns:gpxtpx="http://www.garmin.com/xmlschemas/TrackPointExtension/v1" xmlns:gpxx="http://www.garmin.com/xmlschemas/GpxExtensions/v3" xmlns:gpxpx="http://www.garmin.com/xmlschemas/PowerExtension/v1" xmlns:gpx_style="http://www.topografix.com/GPX/gpx_style/0/2">
  <metadata>
    <name>New file 1</name>
    <author>
      <name>gpx.studio</name>
      <link href="https://gpx.studio"/>
    </author>
  </metadata>
  <trk>
    <name>New file 1</name>
    <trkseg>
      <trkpt lat="46.121185" lon="14.45371">
        <ele>308</ele>
      </trkpt>
      <trkpt lat="46.120497" lon="14.454923">
        <ele>308</ele>
      </trkpt>
      <trkpt lat="46.120346" lon="14.455238">
        <ele>307.99</ele>
      </trkpt>
      <trkpt lat="46.120293" lon="14.455395">
        <ele>307.59</ele>
      </trkpt>
      <trkpt lat="46.120242" lon="14.455518">
        <ele>307.16</ele>
      </trkpt>
      <trkpt lat="46.120158" lon="14.455703">
        <ele>307</ele>
      </trkpt>
      <trkpt lat="46.12007" lon="14.455865">
        <ele>306.69</ele>
      </trkpt>
      <trkpt lat="46.119917" lon="14.45609">
        <ele>305.8</ele>
      </trkpt>
      <trkpt lat="46.119764" lon="14.456275">
        <ele>305</ele>
      </trkpt>
      <trkpt lat="46.119659" lon="14.456436">
        <ele>304.53</ele>
      </trkpt>
      <trkpt lat="46.119468" lon="14.456792">
        <ele>304</ele>
      </trkpt>
      <trkpt lat="46.119533" lon="14.456884">
        <ele>304</ele>
      </trkpt>
      <trkpt lat="46.119643" lon="14.45691">
        <ele>304.21</ele>
      </trkpt>
      <trkpt lat="46.119918" lon="14.456977">
        <ele>304.72</ele>
      </trkpt>
      <trkpt lat="46.119939" lon="14.456995">
        <ele>304.85</ele>
      </trkpt>
      <trkpt lat="46.120116" lon="14.457018">
        <ele>306.64</ele>
      </trkpt>
      <trkpt lat="46.120669" lon="14.457162">
        <ele>311.59</ele>
      </trkpt>
      <trkpt lat="46.120843" lon="14.457175">
        <ele>310.97</ele>
      </trkpt>
      <trkpt lat="46.120989" lon="14.457209">
        <ele>311.68</ele>
      </trkpt>
      <trkpt lat="46.121108" lon="14.457254">
        <ele>312.47</ele>
      </trkpt>
      <trkpt lat="46.12117" lon="14.45728">
        <ele>312.94</ele>
      </trkpt>
      <trkpt lat="46.121196" lon="14.457356">
        <ele>313</ele>
      </trkpt>
      <trkpt lat="46.121207" lon="14.457439">
        <ele>313</ele>
      </trkpt>
      <trkpt lat="46.121147" lon="14.457811">
        <ele>313</ele>
      </trkpt>
      <trkpt lat="46.121114" lon="14.45812">
        <ele>313.07</ele>
      </trkpt>
      <trkpt lat="46.121071" lon="14.458642">
        <ele>313.11</ele>
      </trkpt>
      <trkpt lat="46.121067" lon="14.45888">
        <ele>313.07</ele>
      </trkpt>
      <trkpt lat="46.121043" lon="14.458912">
        <ele>312.88</ele>
      </trkpt>
      <trkpt lat="46.120882" lon="14.459291">
        <ele>312</ele>
      </trkpt>
      <trkpt lat="46.120871" lon="14.45944">
        <ele>311.17</ele>
      </trkpt>
      <trkpt lat="46.120894" lon="14.459805">
        <ele>309.3</ele>
      </trkpt>
      <trkpt lat="46.120893" lon="14.459966">
        <ele>308.89</ele>
      </trkpt>
      <trkpt lat="46.120827" lon="14.460366">
        <ele>308.2</ele>
      </trkpt>
      <trkpt lat="46.120808" lon="14.460442">
        <ele>308.11</ele>
      </trkpt>
      <trkpt lat="46.12075" lon="14.460674">
        <ele>307.84</ele>
      </trkpt>
      <trkpt lat="46.1207" lon="14.460815">
        <ele>306.18</ele>
      </trkpt>
      <trkpt lat="46.120762" lon="14.46124">
        <ele>307.23</ele>
      </trkpt>
      <trkpt lat="46.1208" lon="14.462108">
        <ele>310.02</ele>
      </trkpt>
      <trkpt lat="46.120821" lon="14.462773">
        <ele>310.02</ele>
      </trkpt>
      <trkpt lat="46.120843" lon="14.463251">
        <ele>311.2</ele>
      </trkpt>
      <trkpt lat="46.120945" lon="14.463909">
        <ele>312.63</ele>
      </trkpt>
      <trkpt lat="46.120996" lon="14.464235">
        <ele>313.34</ele>
      </trkpt>
      <trkpt lat="46.121154" lon="14.464196">
        <ele>313.9</ele>
      </trkpt>
      <trkpt lat="46.121646" lon="14.46417">
        <ele>315.93</ele>
      </trkpt>
      <trkpt lat="46.121944" lon="14.464214">
        <ele>318.18</ele>
      </trkpt>
      <trkpt lat="46.122065" lon="14.46427">
        <ele>318.58</ele>
      </trkpt>
      <trkpt lat="46.122418" lon="14.464499">
        <ele>322.41</ele>
      </trkpt>
      <trkpt lat="46.122654" lon="14.464575">
        <ele>325.77</ele>
      </trkpt>
      <trkpt lat="46.12274" lon="14.464574">
        <ele>327.22</ele>
      </trkpt>
      <trkpt lat="46.122808" lon="14.46459">
        <ele>328.36</ele>
      </trkpt>
      <trkpt lat="46.123056" lon="14.464704">
        <ele>332.52</ele>
      </trkpt>
      <trkpt lat="46.123265" lon="14.464774">
        <ele>336.36</ele>
      </trkpt>
      <trkpt lat="46.123425" lon="14.464787">
        <ele>339.43</ele>
      </trkpt>
      <trkpt lat="46.123611" lon="14.464727">
        <ele>343.2</ele>
      </trkpt>
      <trkpt lat="46.12373" lon="14.464719">
        <ele>346.73</ele>
      </trkpt>
      <trkpt lat="46.1237" lon="14.464383">
        <ele>345.72</ele>
      </trkpt>
      <trkpt lat="46.123648" lon="14.463958">
        <ele>352.03</ele>
      </trkpt>
      <trkpt lat="46.123577" lon="14.4637">
        <ele>356.06</ele>
      </trkpt>
      <trkpt lat="46.123501" lon="14.463432">
        <ele>356.5</ele>
      </trkpt>
      <trkpt lat="46.123383" lon="14.463209">
        <ele>356.93</ele>
      </trkpt>
      <trkpt lat="46.123318" lon="14.462965">
        <ele>359.98</ele>
      </trkpt>
      <trkpt lat="46.123315" lon="14.462593">
        <ele>362.72</ele>
      </trkpt>
      <trkpt lat="46.123326" lon="14.462181">
        <ele>365.33</ele>
      </trkpt>
      <trkpt lat="46.123316" lon="14.462059">
        <ele>366.39</ele>
      </trkpt>
      <trkpt lat="46.123308" lon="14.461969">
        <ele>367.17</ele>
      </trkpt>
      <trkpt lat="46.123227" lon="14.461733">
        <ele>370.76</ele>
      </trkpt>
      <trkpt lat="46.123224" lon="14.461511">
        <ele>375.05</ele>
      </trkpt>
      <trkpt lat="46.123265" lon="14.461397">
        <ele>375.82</ele>
      </trkpt>
      <trkpt lat="46.123351" lon="14.461391">
        <ele>376.97</ele>
      </trkpt>
      <trkpt lat="46.123476" lon="14.461336">
        <ele>378.95</ele>
      </trkpt>
      <trkpt lat="46.123496" lon="14.461302">
        <ele>379.58</ele>
      </trkpt>
      <trkpt lat="46.123604" lon="14.461119">
        <ele>382.89</ele>
      </trkpt>
      <trkpt lat="46.123516" lon="14.460865">
        <ele>384.04</ele>
      </trkpt>
      <trkpt lat="46.12351" lon="14.460849">
        <ele>384.11</ele>
      </trkpt>
      <trkpt lat="46.123518" lon="14.460661">
        <ele>385.67</ele>
      </trkpt>
      <trkpt lat="46.123517" lon="14.460309">
        <ele>386.63</ele>
      </trkpt>
      <trkpt lat="46.12357" lon="14.460057">
        <ele>387.11</ele>
      </trkpt>
      <trkpt lat="46.123683" lon="14.460094">
        <ele>388.64</ele>
      </trkpt>
      <trkpt lat="46.12373" lon="14.460182">
        <ele>389.06</ele>
      </trkpt>
      <trkpt lat="46.12375" lon="14.46047">
        <ele>390.06</ele>
      </trkpt>
      <trkpt lat="46.123812" lon="14.460665">
        <ele>392.05</ele>
      </trkpt>
      <trkpt lat="46.123898" lon="14.460793">
        <ele>392.9</ele>
      </trkpt>
      <trkpt lat="46.12395" lon="14.46087">
        <ele>393.42</ele>
      </trkpt>
      <trkpt lat="46.124051" lon="14.461065">
        <ele>395.52</ele>
      </trkpt>
      <trkpt lat="46.124067" lon="14.461247">
        <ele>397.48</ele>
      </trkpt>
      <trkpt lat="46.124054" lon="14.46148">
        <ele>399.92</ele>
      </trkpt>
      <trkpt lat="46.124094" lon="14.46166">
        <ele>400.8</ele>
      </trkpt>
      <trkpt lat="46.124182" lon="14.461794">
        <ele>401.01</ele>
      </trkpt>
      <trkpt lat="46.124239" lon="14.461933">
        <ele>401.54</ele>
      </trkpt>
      <trkpt lat="46.124358" lon="14.462023">
        <ele>404.58</ele>
      </trkpt>
      <trkpt lat="46.124542" lon="14.462089">
        <ele>407.4</ele>
      </trkpt>
      <trkpt lat="46.124695" lon="14.462184">
        <ele>410.09</ele>
      </trkpt>
      <trkpt lat="46.124849" lon="14.462294">
        <ele>412.16</ele>
      </trkpt>
      <trkpt lat="46.124998" lon="14.462324">
        <ele>413.94</ele>
      </trkpt>
      <trkpt lat="46.125172" lon="14.462397">
        <ele>416.5</ele>
      </trkpt>
      <trkpt lat="46.125295" lon="14.462383">
        <ele>419.32</ele>
      </trkpt>
      <trkpt lat="46.125389" lon="14.462354">
        <ele>421.65</ele>
      </trkpt>
      <trkpt lat="46.125484" lon="14.462386">
        <ele>422.88</ele>
      </trkpt>
      <trkpt lat="46.125561" lon="14.462503">
        <ele>425.39</ele>
      </trkpt>
      <trkpt lat="46.125749" lon="14.462611">
        <ele>431.31</ele>
      </trkpt>
      <trkpt lat="46.125822" lon="14.462738">
        <ele>432.89</ele>
      </trkpt>
      <trkpt lat="46.125853" lon="14.462864">
        <ele>435.5</ele>
      </trkpt>
      <trkpt lat="46.125831" lon="14.462973">
        <ele>436.22</ele>
      </trkpt>
      <trkpt lat="46.125832" lon="14.463052">
        <ele>437.59</ele>
      </trkpt>
      <trkpt lat="46.125846" lon="14.463134">
        <ele>438.33</ele>
      </trkpt>
      <trkpt lat="46.125863" lon="14.463187">
        <ele>438.62</ele>
      </trkpt>
      <trkpt lat="46.125863" lon="14.463187">
        <ele>438.62</ele>
      </trkpt>
      <trkpt lat="46.125873" lon="14.463217">
        <ele>438.78</ele>
      </trkpt>
      <trkpt lat="46.125929" lon="14.463061">
        <ele>439.57</ele>
      </trkpt>
      <trkpt lat="46.125971" lon="14.462879">
        <ele>440.06</ele>
      </trkpt>
      <trkpt lat="46.125971" lon="14.462699">
        <ele>440.48</ele>
      </trkpt>
      <trkpt lat="46.125944" lon="14.462549">
        <ele>441.02</ele>
      </trkpt>
      <trkpt lat="46.125858" lon="14.462358">
        <ele>438.62</ele>
      </trkpt>
      <trkpt lat="46.125758" lon="14.462179">
        <ele>436.46</ele>
      </trkpt>
      <trkpt lat="46.125646" lon="14.462073">
        <ele>434.54</ele>
      </trkpt>
      <trkpt lat="46.125525" lon="14.461924">
        <ele>434.89</ele>
      </trkpt>
      <trkpt lat="46.125316" lon="14.461764">
        <ele>434.42</ele>
      </trkpt>
      <trkpt lat="46.125222" lon="14.461711">
        <ele>433.77</ele>
      </trkpt>
      <trkpt lat="46.125132" lon="14.461551">
        <ele>432.5</ele>
      </trkpt>
      <trkpt lat="46.125083" lon="14.461282">
        <ele>429.83</ele>
      </trkpt>
      <trkpt lat="46.125069" lon="14.460998">
        <ele>428.05</ele>
      </trkpt>
      <trkpt lat="46.125034" lon="14.460855">
        <ele>428.01</ele>
      </trkpt>
      <trkpt lat="46.125004" lon="14.460596">
        <ele>427.46</ele>
      </trkpt>
      <trkpt lat="46.12499" lon="14.460135">
        <ele>429.04</ele>
      </trkpt>
      <trkpt lat="46.124998" lon="14.459955">
        <ele>430.05</ele>
      </trkpt>
      <trkpt lat="46.125036" lon="14.459779">
        <ele>430.87</ele>
      </trkpt>
      <trkpt lat="46.125099" lon="14.45961">
        <ele>433.84</ele>
      </trkpt>
      <trkpt lat="46.125105" lon="14.459463">
        <ele>435.72</ele>
      </trkpt>
      <trkpt lat="46.125122" lon="14.459308">
        <ele>436.27</ele>
      </trkpt>
      <trkpt lat="46.125177" lon="14.459134">
        <ele>437.75</ele>
      </trkpt>
      <trkpt lat="46.125242" lon="14.458885">
        <ele>440</ele>
      </trkpt>
      <trkpt lat="46.125255" lon="14.458783">
        <ele>441.26</ele>
      </trkpt>
      <trkpt lat="46.125242" lon="14.458498">
        <ele>444.07</ele>
      </trkpt>
      <trkpt lat="46.125212" lon="14.458326">
        <ele>445.8</ele>
      </trkpt>
      <trkpt lat="46.12514" lon="14.458145">
        <ele>447.05</ele>
      </trkpt>
      <trkpt lat="46.124927" lon="14.457754">
        <ele>447.86</ele>
      </trkpt>
      <trkpt lat="46.124881" lon="14.457607">
        <ele>449.64</ele>
      </trkpt>
      <trkpt lat="46.124859" lon="14.457451">
        <ele>451.17</ele>
      </trkpt>
      <trkpt lat="46.124852" lon="14.457154">
        <ele>450.69</ele>
      </trkpt>
      <trkpt lat="46.124952" lon="14.4564">
        <ele>458.8</ele>
      </trkpt>
      <trkpt lat="46.124907" lon="14.456193">
        <ele>458.5</ele>
      </trkpt>
      <trkpt lat="46.124935" lon="14.45583">
        <ele>456.19</ele>
      </trkpt>
      <trkpt lat="46.124933" lon="14.455371">
        <ele>451.76</ele>
      </trkpt>
      <trkpt lat="46.124732" lon="14.454854">
        <ele>447.64</ele>
      </trkpt>
      <trkpt lat="46.124682" lon="14.454542">
        <ele>446.8</ele>
      </trkpt>
      <trkpt lat="46.124718" lon="14.454321">
        <ele>447.68</ele>
      </trkpt>
      <trkpt lat="46.124855" lon="14.45403">
        <ele>447.69</ele>
      </trkpt>
      <trkpt lat="46.125012" lon="14.453805">
        <ele>447.3</ele>
      </trkpt>
      <trkpt lat="46.125303" lon="14.453587">
        <ele>446.72</ele>
      </trkpt>
      <trkpt lat="46.125432" lon="14.453533">
        <ele>446.81</ele>
      </trkpt>
      <trkpt lat="46.125565" lon="14.453525">
        <ele>449.2</ele>
      </trkpt>
      <trkpt lat="46.125634" lon="14.453506">
        <ele>450.47</ele>
      </trkpt>
      <trkpt lat="46.125803" lon="14.453385">
        <ele>453.55</ele>
      </trkpt>
      <trkpt lat="46.12587" lon="14.453329">
        <ele>456</ele>
      </trkpt>
      <trkpt lat="46.125914" lon="14.45327">
        <ele>457.38</ele>
      </trkpt>
      <trkpt lat="46.12595" lon="14.453177">
        <ele>457.53</ele>
      </trkpt>
      <trkpt lat="46.126051" lon="14.453047">
        <ele>462.06</ele>
      </trkpt>
      <trkpt lat="46.126152" lon="14.452968">
        <ele>464.13</ele>
      </trkpt>
      <trkpt lat="46.126232" lon="14.45285">
        <ele>462.74</ele>
      </trkpt>
      <trkpt lat="46.126263" lon="14.45276">
        <ele>460.56</ele>
      </trkpt>
      <trkpt lat="46.126347" lon="14.452668">
        <ele>461.92</ele>
      </trkpt>
      <trkpt lat="46.126347" lon="14.452668">
        <ele>461.92</ele>
      </trkpt>
      <trkpt lat="46.126403" lon="14.452566">
        <ele>461.54</ele>
      </trkpt>
      <trkpt lat="46.126443" lon="14.4525">
        <ele>463.03</ele>
      </trkpt>
      <trkpt lat="46.126474" lon="14.452365">
        <ele>461.77</ele>
      </trkpt>
      <trkpt lat="46.126539" lon="14.452219">
        <ele>465.22</ele>
      </trkpt>
      <trkpt lat="46.126561" lon="14.452134">
        <ele>465.78</ele>
      </trkpt>
      <trkpt lat="46.126652" lon="14.451971">
        <ele>469.81</ele>
      </trkpt>
      <trkpt lat="46.126686" lon="14.451819">
        <ele>467.15</ele>
      </trkpt>
      <trkpt lat="46.126763" lon="14.45176">
        <ele>470.25</ele>
      </trkpt>
      <trkpt lat="46.126871" lon="14.451731">
        <ele>473.91</ele>
      </trkpt>
      <trkpt lat="46.126925" lon="14.451706">
        <ele>475.09</ele>
      </trkpt>
      <trkpt lat="46.126971" lon="14.45167">
        <ele>476.24</ele>
      </trkpt>
      <trkpt lat="46.126997" lon="14.451597">
        <ele>474.78</ele>
      </trkpt>
      <trkpt lat="46.127079" lon="14.451487">
        <ele>477.72</ele>
      </trkpt>
      <trkpt lat="46.127164" lon="14.451449">
        <ele>482.22</ele>
      </trkpt>
      <trkpt lat="46.127313" lon="14.451367">
        <ele>484.54</ele>
      </trkpt>
      <trkpt lat="46.127357" lon="14.451277">
        <ele>484.44</ele>
      </trkpt>
      <trkpt lat="46.127384" lon="14.451184">
        <ele>485.52</ele>
      </trkpt>
      <trkpt lat="46.127382" lon="14.451091">
        <ele>487.35</ele>
      </trkpt>
      <trkpt lat="46.1274" lon="14.450973">
        <ele>489.26</ele>
      </trkpt>
      <trkpt lat="46.12744" lon="14.45103">
        <ele>492.79</ele>
      </trkpt>
      <trkpt lat="46.127459" lon="14.451001">
        <ele>494.32</ele>
      </trkpt>
      <trkpt lat="46.127463" lon="14.450949">
        <ele>494.65</ele>
      </trkpt>
      <trkpt lat="46.127531" lon="14.450787">
        <ele>501.63</ele>
      </trkpt>
      <trkpt lat="46.12754" lon="14.450714">
        <ele>502.24</ele>
      </trkpt>
      <trkpt lat="46.127598" lon="14.450675">
        <ele>507</ele>
      </trkpt>
      <trkpt lat="46.127645" lon="14.450626">
        <ele>509.98</ele>
      </trkpt>
      <trkpt lat="46.127738" lon="14.450559">
        <ele>515.49</ele>
      </trkpt>
      <trkpt lat="46.127825" lon="14.450472">
        <ele>519.6</ele>
      </trkpt>
      <trkpt lat="46.127843" lon="14.450414">
        <ele>519.63</ele>
      </trkpt>
      <trkpt lat="46.127869" lon="14.450378">
        <ele>521.16</ele>
      </trkpt>
      <trkpt lat="46.127942" lon="14.450222">
        <ele>527.42</ele>
      </trkpt>
      <trkpt lat="46.127954" lon="14.450124">
        <ele>529.37</ele>
      </trkpt>
      <trkpt lat="46.127972" lon="14.450039">
        <ele>532.54</ele>
      </trkpt>
      <trkpt lat="46.127973" lon="14.449978">
        <ele>533.62</ele>
      </trkpt>
      <trkpt lat="46.128017" lon="14.449728">
        <ele>540.26</ele>
      </trkpt>
      <trkpt lat="46.128039" lon="14.449669">
        <ele>542.76</ele>
      </trkpt>
      <trkpt lat="46.128036" lon="14.449609">
        <ele>541.92</ele>
      </trkpt>
      <trkpt lat="46.128077" lon="14.449553">
        <ele>545.86</ele>
      </trkpt>
      <trkpt lat="46.128099" lon="14.449632">
        <ele>548.44</ele>
      </trkpt>
      <trkpt lat="46.128144" lon="14.449564">
        <ele>552.15</ele>
      </trkpt>
      <trkpt lat="46.128207" lon="14.449424">
        <ele>556.09</ele>
      </trkpt>
      <trkpt lat="46.128221" lon="14.449509">
        <ele>559.19</ele>
      </trkpt>
      <trkpt lat="46.128217" lon="14.449597">
        <ele>558.65</ele>
      </trkpt>
      <trkpt lat="46.128229" lon="14.449631">
        <ele>559.96</ele>
      </trkpt>
      <trkpt lat="46.128281" lon="14.44946">
        <ele>564.51</ele>
      </trkpt>
      <trkpt lat="46.128306" lon="14.449454">
        <ele>566.94</ele>
      </trkpt>
      <trkpt lat="46.12833" lon="14.449523">
        <ele>570.88</ele>
      </trkpt>
      <trkpt lat="46.128372" lon="14.449627">
        <ele>573.95</ele>
      </trkpt>
      <trkpt lat="46.128385" lon="14.449689">
        <ele>574.93</ele>
      </trkpt>
      <trkpt lat="46.128415" lon="14.449732">
        <ele>577.44</ele>
      </trkpt>
      <trkpt lat="46.128477" lon="14.449681">
        <ele>583.04</ele>
      </trkpt>
      <trkpt lat="46.128532" lon="14.449601">
        <ele>586.13</ele>
      </trkpt>
      <trkpt lat="46.128547" lon="14.449655">
        <ele>588.17</ele>
      </trkpt>
      <trkpt lat="46.128596" lon="14.449749">
        <ele>591.39</ele>
      </trkpt>
      <trkpt lat="46.128597" lon="14.449784">
        <ele>591.64</ele>
      </trkpt>
      <trkpt lat="46.12869" lon="14.450002">
        <ele>598.98</ele>
      </trkpt>
      <trkpt lat="46.12872" lon="14.45018">
        <ele>601.06</ele>
      </trkpt>
      <trkpt lat="46.128704" lon="14.450257">
        <ele>601.15</ele>
      </trkpt>
      <trkpt lat="46.128749" lon="14.450345">
        <ele>604.02</ele>
      </trkpt>
      <trkpt lat="46.128761" lon="14.450424">
        <ele>605.1</ele>
      </trkpt>
      <trkpt lat="46.128759" lon="14.450793">
        <ele>608.22</ele>
      </trkpt>
      <trkpt lat="46.128718" lon="14.450886">
        <ele>607.49</ele>
      </trkpt>
      <trkpt lat="46.128719" lon="14.450999">
        <ele>608.98</ele>
      </trkpt>
      <trkpt lat="46.128712" lon="14.451023">
        <ele>609.17</ele>
      </trkpt>
      <trkpt lat="46.128719" lon="14.450999">
        <ele>608.98</ele>
      </trkpt>
      <trkpt lat="46.128718" lon="14.450886">
        <ele>607.49</ele>
      </trkpt>
      <trkpt lat="46.128759" lon="14.450793">
        <ele>608.22</ele>
      </trkpt>
      <trkpt lat="46.128761" lon="14.450424">
        <ele>605.1</ele>
      </trkpt>
      <trkpt lat="46.128749" lon="14.450345">
        <ele>604.02</ele>
      </trkpt>
      <trkpt lat="46.128704" lon="14.450257">
        <ele>601.15</ele>
      </trkpt>
      <trkpt lat="46.12872" lon="14.45018">
        <ele>601.06</ele>
      </trkpt>
      <trkpt lat="46.12869" lon="14.450002">
        <ele>598.98</ele>
      </trkpt>
      <trkpt lat="46.128597" lon="14.449784">
        <ele>591.64</ele>
      </trkpt>
      <trkpt lat="46.128596" lon="14.449749">
        <ele>591.39</ele>
      </trkpt>
      <trkpt lat="46.128547" lon="14.449655">
        <ele>588.17</ele>
      </trkpt>
      <trkpt lat="46.128532" lon="14.449601">
        <ele>586.13</ele>
      </trkpt>
      <trkpt lat="46.128477" lon="14.449681">
        <ele>583.04</ele>
      </trkpt>
      <trkpt lat="46.128415" lon="14.449732">
        <ele>577.44</ele>
      </trkpt>
      <trkpt lat="46.128385" lon="14.449689">
        <ele>574.93</ele>
      </trkpt>
      <trkpt lat="46.128372" lon="14.449627">
        <ele>573.95</ele>
      </trkpt>
      <trkpt lat="46.12833" lon="14.449523">
        <ele>570.88</ele>
      </trkpt>
      <trkpt lat="46.128306" lon="14.449454">
        <ele>566.94</ele>
      </trkpt>
      <trkpt lat="46.128281" lon="14.44946">
        <ele>564.51</ele>
      </trkpt>
      <trkpt lat="46.128229" lon="14.449631">
        <ele>559.96</ele>
      </trkpt>
      <trkpt lat="46.128217" lon="14.449597">
        <ele>558.65</ele>
      </trkpt>
      <trkpt lat="46.128221" lon="14.449509">
        <ele>559.19</ele>
      </trkpt>
      <trkpt lat="46.128207" lon="14.449424">
        <ele>556.09</ele>
      </trkpt>
      <trkpt lat="46.128144" lon="14.449564">
        <ele>552.15</ele>
      </trkpt>
      <trkpt lat="46.128099" lon="14.449632">
        <ele>548.44</ele>
      </trkpt>
      <trkpt lat="46.128077" lon="14.449553">
        <ele>545.86</ele>
      </trkpt>
      <trkpt lat="46.128036" lon="14.449609">
        <ele>541.92</ele>
      </trkpt>
      <trkpt lat="46.128039" lon="14.449669">
        <ele>542.76</ele>
      </trkpt>
      <trkpt lat="46.128017" lon="14.449728">
        <ele>540.26</ele>
      </trkpt>
      <trkpt lat="46.127973" lon="14.449978">
        <ele>533.62</ele>
      </trkpt>
      <trkpt lat="46.127972" lon="14.450039">
        <ele>532.54</ele>
      </trkpt>
      <trkpt lat="46.127954" lon="14.450124">
        <ele>529.37</ele>
      </trkpt>
      <trkpt lat="46.127942" lon="14.450222">
        <ele>527.42</ele>
      </trkpt>
      <trkpt lat="46.127869" lon="14.450378">
        <ele>521.16</ele>
      </trkpt>
      <trkpt lat="46.127843" lon="14.450414">
        <ele>519.63</ele>
      </trkpt>
      <trkpt lat="46.127825" lon="14.450472">
        <ele>519.6</ele>
      </trkpt>
      <trkpt lat="46.127738" lon="14.450559">
        <ele>515.49</ele>
      </trkpt>
      <trkpt lat="46.127645" lon="14.450626">
        <ele>509.98</ele>
      </trkpt>
      <trkpt lat="46.127598" lon="14.450675">
        <ele>507</ele>
      </trkpt>
      <trkpt lat="46.12754" lon="14.450714">
        <ele>502.24</ele>
      </trkpt>
      <trkpt lat="46.127531" lon="14.450787">
        <ele>501.63</ele>
      </trkpt>
      <trkpt lat="46.127463" lon="14.450949">
        <ele>494.65</ele>
      </trkpt>
      <trkpt lat="46.127459" lon="14.451001">
        <ele>494.32</ele>
      </trkpt>
      <trkpt lat="46.12744" lon="14.45103">
        <ele>492.79</ele>
      </trkpt>
      <trkpt lat="46.1274" lon="14.450973">
        <ele>489.26</ele>
      </trkpt>
      <trkpt lat="46.127382" lon="14.451091">
        <ele>487.35</ele>
      </trkpt>
      <trkpt lat="46.127384" lon="14.451184">
        <ele>485.52</ele>
      </trkpt>
      <trkpt lat="46.127357" lon="14.451277">
        <ele>484.44</ele>
      </trkpt>
      <trkpt lat="46.127313" lon="14.451367">
        <ele>484.54</ele>
      </trkpt>
      <trkpt lat="46.127164" lon="14.451449">
        <ele>482.22</ele>
      </trkpt>
      <trkpt lat="46.127079" lon="14.451487">
        <ele>477.72</ele>
      </trkpt>
      <trkpt lat="46.126997" lon="14.451597">
        <ele>474.78</ele>
      </trkpt>
      <trkpt lat="46.126971" lon="14.45167">
        <ele>476.24</ele>
      </trkpt>
      <trkpt lat="46.126925" lon="14.451706">
        <ele>475.09</ele>
      </trkpt>
      <trkpt lat="46.126871" lon="14.451731">
        <ele>473.91</ele>
      </trkpt>
      <trkpt lat="46.126763" lon="14.45176">
        <ele>470.25</ele>
      </trkpt>
      <trkpt lat="46.126686" lon="14.451819">
        <ele>467.15</ele>
      </trkpt>
      <trkpt lat="46.126652" lon="14.451971">
        <ele>469.81</ele>
      </trkpt>
      <trkpt lat="46.126561" lon="14.452134">
        <ele>465.78</ele>
      </trkpt>
      <trkpt lat="46.126539" lon="14.452219">
        <ele>465.22</ele>
      </trkpt>
      <trkpt lat="46.126474" lon="14.452365">
        <ele>461.77</ele>
      </trkpt>
      <trkpt lat="46.126443" lon="14.4525">
        <ele>463.03</ele>
      </trkpt>
      <trkpt lat="46.126403" lon="14.452566">
        <ele>461.54</ele>
      </trkpt>
      <trkpt lat="46.126357" lon="14.452658">
        <ele>462.08</ele>
      </trkpt>
      <trkpt lat="46.126263" lon="14.45276">
        <ele>460.56</ele>
      </trkpt>
      <trkpt lat="46.126232" lon="14.45285">
        <ele>462.74</ele>
      </trkpt>
      <trkpt lat="46.126152" lon="14.452968">
        <ele>464.13</ele>
      </trkpt>
      <trkpt lat="46.126051" lon="14.453047">
        <ele>462.06</ele>
      </trkpt>
      <trkpt lat="46.12595" lon="14.453177">
        <ele>457.53</ele>
      </trkpt>
      <trkpt lat="46.125914" lon="14.45327">
        <ele>457.38</ele>
      </trkpt>
      <trkpt lat="46.12587" lon="14.453329">
        <ele>456</ele>
      </trkpt>
      <trkpt lat="46.125803" lon="14.453385">
        <ele>453.55</ele>
      </trkpt>
      <trkpt lat="46.125634" lon="14.453506">
        <ele>450.47</ele>
      </trkpt>
      <trkpt lat="46.125803" lon="14.453385">
        <ele>453.55</ele>
      </trkpt>
      <trkpt lat="46.12587" lon="14.453329">
        <ele>456</ele>
      </trkpt>
      <trkpt lat="46.125914" lon="14.45327">
        <ele>457.38</ele>
      </trkpt>
      <trkpt lat="46.12595" lon="14.453177">
        <ele>457.53</ele>
      </trkpt>
      <trkpt lat="46.126051" lon="14.453047">
        <ele>462.06</ele>
      </trkpt>
      <trkpt lat="46.126152" lon="14.452968">
        <ele>464.13</ele>
      </trkpt>
      <trkpt lat="46.126232" lon="14.45285">
        <ele>462.74</ele>
      </trkpt>
      <trkpt lat="46.126263" lon="14.45276">
        <ele>460.56</ele>
      </trkpt>
      <trkpt lat="46.126357" lon="14.452658">
        <ele>462.08</ele>
      </trkpt>
      <trkpt lat="46.126403" lon="14.452566">
        <ele>461.54</ele>
      </trkpt>
      <trkpt lat="46.126443" lon="14.4525">
        <ele>463.03</ele>
      </trkpt>
      <trkpt lat="46.126474" lon="14.452365">
        <ele>461.77</ele>
      </trkpt>
      <trkpt lat="46.126539" lon="14.452219">
        <ele>465.22</ele>
      </trkpt>
      <trkpt lat="46.126561" lon="14.452134">
        <ele>465.78</ele>
      </trkpt>
      <trkpt lat="46.126652" lon="14.451971">
        <ele>469.81</ele>
      </trkpt>
      <trkpt lat="46.126686" lon="14.451819">
        <ele>467.15</ele>
      </trkpt>
      <trkpt lat="46.126763" lon="14.45176">
        <ele>470.25</ele>
      </trkpt>
      <trkpt lat="46.126871" lon="14.451731">
        <ele>473.91</ele>
      </trkpt>
      <trkpt lat="46.126925" lon="14.451706">
        <ele>475.09</ele>
      </trkpt>
      <trkpt lat="46.126971" lon="14.45167">
        <ele>476.24</ele>
      </trkpt>
      <trkpt lat="46.126997" lon="14.451597">
        <ele>474.78</ele>
      </trkpt>
      <trkpt lat="46.127079" lon="14.451487">
        <ele>477.72</ele>
      </trkpt>
      <trkpt lat="46.127164" lon="14.451449">
        <ele>482.22</ele>
      </trkpt>
      <trkpt lat="46.127313" lon="14.451367">
        <ele>484.54</ele>
      </trkpt>
      <trkpt lat="46.127357" lon="14.451277">
        <ele>484.44</ele>
      </trkpt>
      <trkpt lat="46.127384" lon="14.451184">
        <ele>485.52</ele>
      </trkpt>
      <trkpt lat="46.127382" lon="14.451091">
        <ele>487.35</ele>
      </trkpt>
      <trkpt lat="46.1274" lon="14.450973">
        <ele>489.26</ele>
      </trkpt>
      <trkpt lat="46.12744" lon="14.45103">
        <ele>492.79</ele>
      </trkpt>
      <trkpt lat="46.127459" lon="14.451001">
        <ele>494.32</ele>
      </trkpt>
      <trkpt lat="46.127463" lon="14.450949">
        <ele>494.65</ele>
      </trkpt>
      <trkpt lat="46.127531" lon="14.450787">
        <ele>501.63</ele>
      </trkpt>
      <trkpt lat="46.12754" lon="14.450714">
        <ele>502.24</ele>
      </trkpt>
      <trkpt lat="46.127598" lon="14.450675">
        <ele>507</ele>
      </trkpt>
      <trkpt lat="46.127645" lon="14.450626">
        <ele>509.98</ele>
      </trkpt>
      <trkpt lat="46.127738" lon="14.450559">
        <ele>515.49</ele>
      </trkpt>
      <trkpt lat="46.127825" lon="14.450472">
        <ele>519.6</ele>
      </trkpt>
      <trkpt lat="46.127843" lon="14.450414">
        <ele>519.63</ele>
      </trkpt>
      <trkpt lat="46.127869" lon="14.450378">
        <ele>521.16</ele>
      </trkpt>
      <trkpt lat="46.127942" lon="14.450222">
        <ele>527.42</ele>
      </trkpt>
      <trkpt lat="46.127954" lon="14.450124">
        <ele>529.37</ele>
      </trkpt>
      <trkpt lat="46.127972" lon="14.450039">
        <ele>532.54</ele>
      </trkpt>
      <trkpt lat="46.127973" lon="14.449978">
        <ele>533.62</ele>
      </trkpt>
      <trkpt lat="46.128017" lon="14.449728">
        <ele>540.26</ele>
      </trkpt>
      <trkpt lat="46.128039" lon="14.449669">
        <ele>542.76</ele>
      </trkpt>
      <trkpt lat="46.128036" lon="14.449609">
        <ele>541.92</ele>
      </trkpt>
      <trkpt lat="46.128077" lon="14.449553">
        <ele>545.86</ele>
      </trkpt>
      <trkpt lat="46.128099" lon="14.449632">
        <ele>548.44</ele>
      </trkpt>
      <trkpt lat="46.128144" lon="14.449564">
        <ele>552.15</ele>
      </trkpt>
      <trkpt lat="46.128207" lon="14.449424">
        <ele>556.09</ele>
      </trkpt>
      <trkpt lat="46.128221" lon="14.449509">
        <ele>559.19</ele>
      </trkpt>
      <trkpt lat="46.128217" lon="14.449597">
        <ele>558.65</ele>
      </trkpt>
      <trkpt lat="46.128229" lon="14.449631">
        <ele>559.96</ele>
      </trkpt>
      <trkpt lat="46.128281" lon="14.44946">
        <ele>564.51</ele>
      </trkpt>
      <trkpt lat="46.128306" lon="14.449454">
        <ele>566.94</ele>
      </trkpt>
      <trkpt lat="46.12833" lon="14.449523">
        <ele>570.88</ele>
      </trkpt>
      <trkpt lat="46.128372" lon="14.449627">
        <ele>573.95</ele>
      </trkpt>
      <trkpt lat="46.128385" lon="14.449689">
        <ele>574.93</ele>
      </trkpt>
      <trkpt lat="46.128415" lon="14.449732">
        <ele>577.44</ele>
      </trkpt>
      <trkpt lat="46.128477" lon="14.449681">
        <ele>583.04</ele>
      </trkpt>
      <trkpt lat="46.128532" lon="14.449601">
        <ele>586.13</ele>
      </trkpt>
      <trkpt lat="46.128547" lon="14.449655">
        <ele>588.17</ele>
      </trkpt>
      <trkpt lat="46.128596" lon="14.449749">
        <ele>591.39</ele>
      </trkpt>
      <trkpt lat="46.128597" lon="14.449784">
        <ele>591.64</ele>
      </trkpt>
      <trkpt lat="46.12869" lon="14.450002">
        <ele>598.98</ele>
      </trkpt>
      <trkpt lat="46.12872" lon="14.45018">
        <ele>601.06</ele>
      </trkpt>
      <trkpt lat="46.128704" lon="14.450257">
        <ele>601.15</ele>
      </trkpt>
      <trkpt lat="46.128749" lon="14.450345">
        <ele>604.02</ele>
      </trkpt>
      <trkpt lat="46.128761" lon="14.450424">
        <ele>605.1</ele>
      </trkpt>
      <trkpt lat="46.128759" lon="14.450793">
        <ele>608.22</ele>
      </trkpt>
      <trkpt lat="46.128718" lon="14.450886">
        <ele>607.49</ele>
      </trkpt>
      <trkpt lat="46.128719" lon="14.450999">
        <ele>608.98</ele>
      </trkpt>
      <trkpt lat="46.128631" lon="14.451313">
        <ele>611.41</ele>
      </trkpt>
      <trkpt lat="46.128601" lon="14.45152">
        <ele>614.63</ele>
      </trkpt>
      <trkpt lat="46.128535" lon="14.451694">
        <ele>616.67</ele>
      </trkpt>
      <trkpt lat="46.128532" lon="14.451847">
        <ele>620.3</ele>
      </trkpt>
      <trkpt lat="46.128545" lon="14.451953">
        <ele>623.38</ele>
      </trkpt>
      <trkpt lat="46.128538" lon="14.451993">
        <ele>623.55</ele>
      </trkpt>
      <trkpt lat="46.128529" lon="14.452035">
        <ele>623.73</ele>
      </trkpt>
      <trkpt lat="46.128539" lon="14.452117">
        <ele>625.82</ele>
      </trkpt>
      <trkpt lat="46.128574" lon="14.452163">
        <ele>628.5</ele>
      </trkpt>
      <trkpt lat="46.128555" lon="14.452347">
        <ele>630.3</ele>
      </trkpt>
      <trkpt lat="46.128534" lon="14.452719">
        <ele>633.28</ele>
      </trkpt>
      <trkpt lat="46.128533" lon="14.452836">
        <ele>635.3</ele>
      </trkpt>
      <trkpt lat="46.128533" lon="14.452964">
        <ele>637.51</ele>
      </trkpt>
      <trkpt lat="46.128549" lon="14.453025">
        <ele>639.54</ele>
      </trkpt>
      <trkpt lat="46.12853" lon="14.453104">
        <ele>640.06</ele>
      </trkpt>
      <trkpt lat="46.128544" lon="14.453215">
        <ele>643.32</ele>
      </trkpt>
      <trkpt lat="46.128517" lon="14.453487">
        <ele>649.39</ele>
      </trkpt>
      <trkpt lat="46.128524" lon="14.453657">
        <ele>654.27</ele>
      </trkpt>
      <trkpt lat="46.128514" lon="14.453717">
        <ele>655.73</ele>
      </trkpt>
      <trkpt lat="46.12852" lon="14.453759">
        <ele>657.28</ele>
      </trkpt>
      <trkpt lat="46.128496" lon="14.453839">
        <ele>659.04</ele>
      </trkpt>
      <trkpt lat="46.128496" lon="14.453922">
        <ele>661.76</ele>
      </trkpt>
      <trkpt lat="46.128406" lon="14.454181">
        <ele>665.64</ele>
      </trkpt>
      <trkpt lat="46.128374" lon="14.454205">
        <ele>665.11</ele>
      </trkpt>
      <trkpt lat="46.128359" lon="14.454293">
        <ele>667.39</ele>
      </trkpt>
      <trkpt lat="46.128359" lon="14.454293">
        <ele>667.39</ele>
      </trkpt>
      <trkpt lat="46.128361" lon="14.454331">
        <ele>668.38</ele>
      </trkpt>
      <trkpt lat="46.128314" lon="14.454436">
        <ele>671.2</ele>
      </trkpt>
      <trkpt lat="46.128236" lon="14.454524">
        <ele>671.06</ele>
      </trkpt>
      <trkpt lat="46.128217" lon="14.454585">
        <ele>671.77</ele>
      </trkpt>
      <trkpt lat="46.128163" lon="14.454665">
        <ele>669.85</ele>
      </trkpt>
      <trkpt lat="46.128117" lon="14.454811">
        <ele>669.92</ele>
      </trkpt>
      <trkpt lat="46.128038" lon="14.455021">
        <ele>670.56</ele>
      </trkpt>
      <trkpt lat="46.128001" lon="14.455177">
        <ele>670.03</ele>
      </trkpt>
      <trkpt lat="46.127944" lon="14.455344">
        <ele>670.38</ele>
      </trkpt>
      <trkpt lat="46.127868" lon="14.455472">
        <ele>669.01</ele>
      </trkpt>
      <trkpt lat="46.127855" lon="14.455606">
        <ele>669.44</ele>
      </trkpt>
      <trkpt lat="46.127823" lon="14.455754">
        <ele>666.68</ele>
      </trkpt>
      <trkpt lat="46.127745" lon="14.455904">
        <ele>665.25</ele>
      </trkpt>
      <trkpt lat="46.127634" lon="14.456017">
        <ele>663.9</ele>
      </trkpt>
      <trkpt lat="46.127604" lon="14.456035">
        <ele>663.05</ele>
      </trkpt>
      <trkpt lat="46.127594" lon="14.456114">
        <ele>661.75</ele>
      </trkpt>
      <trkpt lat="46.127598" lon="14.456271">
        <ele>660.42</ele>
      </trkpt>
      <trkpt lat="46.127622" lon="14.456331">
        <ele>660.52</ele>
      </trkpt>
      <trkpt lat="46.127597" lon="14.456385">
        <ele>657.92</ele>
      </trkpt>
      <trkpt lat="46.127597" lon="14.456385">
        <ele>657.9</ele>
      </trkpt>
      <trkpt lat="46.127553" lon="14.45648">
        <ele>653.37</ele>
      </trkpt>
      <trkpt lat="46.127547" lon="14.45658">
        <ele>651.45</ele>
      </trkpt>
      <trkpt lat="46.127533" lon="14.456664">
        <ele>649.34</ele>
      </trkpt>
      <trkpt lat="46.127441" lon="14.456839">
        <ele>644.56</ele>
      </trkpt>
      <trkpt lat="46.12745" lon="14.457023">
        <ele>642.94</ele>
      </trkpt>
      <trkpt lat="46.127469" lon="14.457241">
        <ele>637.5</ele>
      </trkpt>
      <trkpt lat="46.127556" lon="14.457359">
        <ele>632.18</ele>
      </trkpt>
      <trkpt lat="46.12752" lon="14.457704">
        <ele>626.39</ele>
      </trkpt>
      <trkpt lat="46.12752" lon="14.457704">
        <ele>626.39</ele>
      </trkpt>
      <trkpt lat="46.127513" lon="14.457823">
        <ele>624.11</ele>
      </trkpt>
      <trkpt lat="46.12753" lon="14.458003">
        <ele>620.73</ele>
      </trkpt>
      <trkpt lat="46.127516" lon="14.458256">
        <ele>616.5</ele>
      </trkpt>
      <trkpt lat="46.127454" lon="14.458647">
        <ele>610.83</ele>
      </trkpt>
      <trkpt lat="46.12741" lon="14.459136">
        <ele>601.25</ele>
      </trkpt>
      <trkpt lat="46.127494" lon="14.459173">
        <ele>599.2</ele>
      </trkpt>
      <trkpt lat="46.127608" lon="14.459316">
        <ele>594.98</ele>
      </trkpt>
      <trkpt lat="46.127651" lon="14.459369">
        <ele>594.15</ele>
      </trkpt>
      <trkpt lat="46.127754" lon="14.459389">
        <ele>592.59</ele>
      </trkpt>
      <trkpt lat="46.127775" lon="14.459381">
        <ele>592.35</ele>
      </trkpt>
      <trkpt lat="46.127795" lon="14.459384">
        <ele>591.97</ele>
      </trkpt>
      <trkpt lat="46.127828" lon="14.45941">
        <ele>591.1</ele>
      </trkpt>
      <trkpt lat="46.127942" lon="14.45942">
        <ele>588.35</ele>
      </trkpt>
      <trkpt lat="46.127968" lon="14.459399">
        <ele>587.92</ele>
      </trkpt>
      <trkpt lat="46.128062" lon="14.45928">
        <ele>586.95</ele>
      </trkpt>
      <trkpt lat="46.128156" lon="14.459231">
        <ele>584.82</ele>
      </trkpt>
      <trkpt lat="46.128188" lon="14.459225">
        <ele>583.92</ele>
      </trkpt>
      <trkpt lat="46.128321" lon="14.459282">
        <ele>581.01</ele>
      </trkpt>
      <trkpt lat="46.12837" lon="14.459284">
        <ele>580.5</ele>
      </trkpt>
      <trkpt lat="46.128509" lon="14.459204">
        <ele>577.12</ele>
      </trkpt>
      <trkpt lat="46.128562" lon="14.459162">
        <ele>575.69</ele>
      </trkpt>
      <trkpt lat="46.128664" lon="14.459104">
        <ele>573.24</ele>
      </trkpt>
      <trkpt lat="46.128698" lon="14.459194">
        <ele>573.6</ele>
      </trkpt>
      <trkpt lat="46.12872" lon="14.45928">
        <ele>573.77</ele>
      </trkpt>
      <trkpt lat="46.128736" lon="14.459392">
        <ele>573.69</ele>
      </trkpt>
      <trkpt lat="46.128741" lon="14.459512">
        <ele>573.51</ele>
      </trkpt>
      <trkpt lat="46.128728" lon="14.459716">
        <ele>572.13</ele>
      </trkpt>
      <trkpt lat="46.128681" lon="14.459913">
        <ele>570.49</ele>
      </trkpt>
      <trkpt lat="46.12864" lon="14.46001">
        <ele>570.2</ele>
      </trkpt>
      <trkpt lat="46.128575" lon="14.460102">
        <ele>570.32</ele>
      </trkpt>
      <trkpt lat="46.128431" lon="14.460307">
        <ele>570.58</ele>
      </trkpt>
      <trkpt lat="46.128339" lon="14.460473">
        <ele>571.97</ele>
      </trkpt>
      <trkpt lat="46.12826" lon="14.460571">
        <ele>573.2</ele>
      </trkpt>
      <trkpt lat="46.128153" lon="14.460663">
        <ele>574.85</ele>
      </trkpt>
      <trkpt lat="46.127997" lon="14.460761">
        <ele>576.23</ele>
      </trkpt>
      <trkpt lat="46.127955" lon="14.460831">
        <ele>577.4</ele>
      </trkpt>
      <trkpt lat="46.127931" lon="14.460905">
        <ele>578.13</ele>
      </trkpt>
      <trkpt lat="46.1277" lon="14.460878">
        <ele>574.82</ele>
      </trkpt>
      <trkpt lat="46.127581" lon="14.460856">
        <ele>574.45</ele>
      </trkpt>
      <trkpt lat="46.127523" lon="14.460823">
        <ele>574.53</ele>
      </trkpt>
      <trkpt lat="46.127358" lon="14.460657">
        <ele>571.85</ele>
      </trkpt>
      <trkpt lat="46.127227" lon="14.460458">
        <ele>568.21</ele>
      </trkpt>
      <trkpt lat="46.127185" lon="14.460415">
        <ele>567.12</ele>
      </trkpt>
      <trkpt lat="46.126978" lon="14.460223">
        <ele>563.02</ele>
      </trkpt>
      <trkpt lat="46.126942" lon="14.460153">
        <ele>563.02</ele>
      </trkpt>
      <trkpt lat="46.126903" lon="14.460109">
        <ele>561.4</ele>
      </trkpt>
      <trkpt lat="46.126861" lon="14.460032">
        <ele>559.75</ele>
      </trkpt>
      <trkpt lat="46.126783" lon="14.459852">
        <ele>558.19</ele>
      </trkpt>
      <trkpt lat="46.126762" lon="14.459846">
        <ele>556.55</ele>
      </trkpt>
      <trkpt lat="46.126783" lon="14.459996">
        <ele>553.99</ele>
      </trkpt>
      <trkpt lat="46.126781" lon="14.460042">
        <ele>552.8</ele>
      </trkpt>
      <trkpt lat="46.126797" lon="14.460123">
        <ele>552.26</ele>
      </trkpt>
      <trkpt lat="46.126826" lon="14.460359">
        <ele>548.03</ele>
      </trkpt>
      <trkpt lat="46.126967" lon="14.460632">
        <ele>544.79</ele>
      </trkpt>
      <trkpt lat="46.127019" lon="14.460806">
        <ele>542.21</ele>
      </trkpt>
      <trkpt lat="46.127027" lon="14.460863">
        <ele>541.38</ele>
      </trkpt>
      <trkpt lat="46.127051" lon="14.461028">
        <ele>538.96</ele>
      </trkpt>
      <trkpt lat="46.127051" lon="14.461184">
        <ele>535.06</ele>
      </trkpt>
      <trkpt lat="46.127023" lon="14.461333">
        <ele>531.56</ele>
      </trkpt>
      <trkpt lat="46.127084" lon="14.461725">
        <ele>525.42</ele>
      </trkpt>
      <trkpt lat="46.127085" lon="14.461875">
        <ele>521.97</ele>
      </trkpt>
      <trkpt lat="46.127043" lon="14.462457">
        <ele>509.18</ele>
      </trkpt>
      <trkpt lat="46.127017" lon="14.462788">
        <ele>504.35</ele>
      </trkpt>
      <trkpt lat="46.126997" lon="14.463003">
        <ele>500.46</ele>
      </trkpt>
      <trkpt lat="46.126956" lon="14.463217">
        <ele>496.07</ele>
      </trkpt>
      <trkpt lat="46.126942" lon="14.463494">
        <ele>491.71</ele>
      </trkpt>
      <trkpt lat="46.126944" lon="14.46386">
        <ele>484.92</ele>
      </trkpt>
      <trkpt lat="46.126963" lon="14.464058">
        <ele>482.24</ele>
      </trkpt>
      <trkpt lat="46.126958" lon="14.464358">
        <ele>477.61</ele>
      </trkpt>
      <trkpt lat="46.127003" lon="14.464788">
        <ele>471.64</ele>
      </trkpt>
      <trkpt lat="46.127038" lon="14.464955">
        <ele>470.15</ele>
      </trkpt>
      <trkpt lat="46.127042" lon="14.465102">
        <ele>466.99</ele>
      </trkpt>
      <trkpt lat="46.127073" lon="14.465211">
        <ele>465.76</ele>
      </trkpt>
      <trkpt lat="46.126942" lon="14.465554">
        <ele>456.83</ele>
      </trkpt>
      <trkpt lat="46.126891" lon="14.465658">
        <ele>453.69</ele>
      </trkpt>
      <trkpt lat="46.126798" lon="14.465695">
        <ele>449.73</ele>
      </trkpt>
      <trkpt lat="46.126723" lon="14.465593">
        <ele>447.49</ele>
      </trkpt>
      <trkpt lat="46.126661" lon="14.465415">
        <ele>446</ele>
      </trkpt>
      <trkpt lat="46.126683" lon="14.465265">
        <ele>446.8</ele>
      </trkpt>
      <trkpt lat="46.126671" lon="14.465144">
        <ele>446.45</ele>
      </trkpt>
      <trkpt lat="46.126514" lon="14.464799">
        <ele>444.67</ele>
      </trkpt>
      <trkpt lat="46.12649" lon="14.464635">
        <ele>445.37</ele>
      </trkpt>
      <trkpt lat="46.126443" lon="14.464479">
        <ele>444.65</ele>
      </trkpt>
      <trkpt lat="46.126345" lon="14.464262">
        <ele>443.17</ele>
      </trkpt>
      <trkpt lat="46.126278" lon="14.464114">
        <ele>442.16</ele>
      </trkpt>
      <trkpt lat="46.126126" lon="14.463838">
        <ele>440.87</ele>
      </trkpt>
      <trkpt lat="46.125902" lon="14.463331">
        <ele>438.95</ele>
      </trkpt>
      <trkpt lat="46.125873" lon="14.463217">
        <ele>438.78</ele>
      </trkpt>
      <trkpt lat="46.125846" lon="14.463134">
        <ele>438.33</ele>
      </trkpt>
      <trkpt lat="46.125832" lon="14.463052">
        <ele>437.59</ele>
      </trkpt>
      <trkpt lat="46.125831" lon="14.462973">
        <ele>436.22</ele>
      </trkpt>
      <trkpt lat="46.125853" lon="14.462864">
        <ele>435.5</ele>
      </trkpt>
      <trkpt lat="46.125822" lon="14.462738">
        <ele>432.89</ele>
      </trkpt>
      <trkpt lat="46.125749" lon="14.462611">
        <ele>431.31</ele>
      </trkpt>
      <trkpt lat="46.125561" lon="14.462503">
        <ele>425.39</ele>
      </trkpt>
      <trkpt lat="46.125484" lon="14.462386">
        <ele>422.88</ele>
      </trkpt>
      <trkpt lat="46.125389" lon="14.462354">
        <ele>421.65</ele>
      </trkpt>
      <trkpt lat="46.125295" lon="14.462383">
        <ele>419.32</ele>
      </trkpt>
      <trkpt lat="46.125172" lon="14.462397">
        <ele>416.5</ele>
      </trkpt>
      <trkpt lat="46.124998" lon="14.462324">
        <ele>413.94</ele>
      </trkpt>
      <trkpt lat="46.124849" lon="14.462294">
        <ele>412.16</ele>
      </trkpt>
      <trkpt lat="46.124695" lon="14.462184">
        <ele>410.09</ele>
      </trkpt>
      <trkpt lat="46.124542" lon="14.462089">
        <ele>407.4</ele>
      </trkpt>
      <trkpt lat="46.124358" lon="14.462023">
        <ele>404.58</ele>
      </trkpt>
      <trkpt lat="46.124239" lon="14.461933">
        <ele>401.54</ele>
      </trkpt>
      <trkpt lat="46.124233" lon="14.461916">
        <ele>401.24</ele>
      </trkpt>
      <trkpt lat="46.124182" lon="14.461794">
        <ele>401.01</ele>
      </trkpt>
      <trkpt lat="46.124117" lon="14.461695">
        <ele>400.85</ele>
      </trkpt>
      <trkpt lat="46.124094" lon="14.46166">
        <ele>400.8</ele>
      </trkpt>
      <trkpt lat="46.124054" lon="14.46148">
        <ele>399.92</ele>
      </trkpt>
      <trkpt lat="46.124067" lon="14.461247">
        <ele>397.48</ele>
      </trkpt>
      <trkpt lat="46.124051" lon="14.461065">
        <ele>395.52</ele>
      </trkpt>
      <trkpt lat="46.12395" lon="14.46087">
        <ele>393.42</ele>
      </trkpt>
      <trkpt lat="46.123812" lon="14.460665">
        <ele>392.05</ele>
      </trkpt>
      <trkpt lat="46.12375" lon="14.46047">
        <ele>390.06</ele>
      </trkpt>
      <trkpt lat="46.12373" lon="14.460182">
        <ele>389.06</ele>
      </trkpt>
      <trkpt lat="46.123683" lon="14.460094">
        <ele>388.64</ele>
      </trkpt>
      <trkpt lat="46.12357" lon="14.460057">
        <ele>387.11</ele>
      </trkpt>
      <trkpt lat="46.123573" lon="14.459869">
        <ele>387.71</ele>
      </trkpt>
      <trkpt lat="46.123633" lon="14.459574">
        <ele>388.84</ele>
      </trkpt>
      <trkpt lat="46.123654" lon="14.459306">
        <ele>388.82</ele>
      </trkpt>
      <trkpt lat="46.123816" lon="14.459233">
        <ele>390</ele>
      </trkpt>
      <trkpt lat="46.124012" lon="14.459051">
        <ele>392.35</ele>
      </trkpt>
      <trkpt lat="46.124125" lon="14.458968">
        <ele>395.13</ele>
      </trkpt>
      <trkpt lat="46.12419" lon="14.458899">
        <ele>397.26</ele>
      </trkpt>
      <trkpt lat="46.124208" lon="14.458906">
        <ele>397.91</ele>
      </trkpt>
      <trkpt lat="46.1243" lon="14.45894">
        <ele>401.16</ele>
      </trkpt>
      <trkpt lat="46.124348" lon="14.458989">
        <ele>402.4</ele>
      </trkpt>
      <trkpt lat="46.124409" lon="14.459004">
        <ele>404.85</ele>
      </trkpt>
      <trkpt lat="46.124395" lon="14.45893">
        <ele>405.4</ele>
      </trkpt>
      <trkpt lat="46.124463" lon="14.45899">
        <ele>408.21</ele>
      </trkpt>
      <trkpt lat="46.124512" lon="14.45898">
        <ele>411.24</ele>
      </trkpt>
      <trkpt lat="46.124539" lon="14.459017">
        <ele>411.81</ele>
      </trkpt>
      <trkpt lat="46.124573" lon="14.459018">
        <ele>413.63</ele>
      </trkpt>
      <trkpt lat="46.124611" lon="14.458742">
        <ele>420.16</ele>
      </trkpt>
      <trkpt lat="46.124794" lon="14.458518">
        <ele>430.45</ele>
      </trkpt>
      <trkpt lat="46.124862" lon="14.458327">
        <ele>436.17</ele>
      </trkpt>
      <trkpt lat="46.124878" lon="14.458165">
        <ele>440.43</ele>
      </trkpt>
      <trkpt lat="46.124938" lon="14.458033">
        <ele>444.16</ele>
      </trkpt>
      <trkpt lat="46.125035" lon="14.457961">
        <ele>447.41</ele>
      </trkpt>
      <trkpt lat="46.12514" lon="14.458145">
        <ele>447.05</ele>
      </trkpt>
      <trkpt lat="46.125212" lon="14.458326">
        <ele>445.8</ele>
      </trkpt>
      <trkpt lat="46.125236" lon="14.458462">
        <ele>444.43</ele>
      </trkpt>
      <trkpt lat="46.125255" lon="14.458783">
        <ele>441.26</ele>
      </trkpt>
      <trkpt lat="46.125242" lon="14.458885">
        <ele>440</ele>
      </trkpt>
      <trkpt lat="46.125177" lon="14.459134">
        <ele>437.75</ele>
      </trkpt>
      <trkpt lat="46.125122" lon="14.459308">
        <ele>436.27</ele>
      </trkpt>
      <trkpt lat="46.125105" lon="14.459463">
        <ele>435.72</ele>
      </trkpt>
      <trkpt lat="46.125099" lon="14.45961">
        <ele>433.84</ele>
      </trkpt>
      <trkpt lat="46.125036" lon="14.459779">
        <ele>430.87</ele>
      </trkpt>
      <trkpt lat="46.124998" lon="14.459955">
        <ele>430.05</ele>
      </trkpt>
      <trkpt lat="46.12499" lon="14.460135">
        <ele>429.04</ele>
      </trkpt>
      <trkpt lat="46.125004" lon="14.460596">
        <ele>427.46</ele>
      </trkpt>
      <trkpt lat="46.125034" lon="14.460855">
        <ele>428.01</ele>
      </trkpt>
      <trkpt lat="46.125069" lon="14.460998">
        <ele>428.05</ele>
      </trkpt>
      <trkpt lat="46.125083" lon="14.461282">
        <ele>429.83</ele>
      </trkpt>
      <trkpt lat="46.125132" lon="14.461551">
        <ele>432.5</ele>
      </trkpt>
      <trkpt lat="46.125222" lon="14.461711">
        <ele>433.77</ele>
      </trkpt>
      <trkpt lat="46.125316" lon="14.461764">
        <ele>434.42</ele>
      </trkpt>
      <trkpt lat="46.125525" lon="14.461924">
        <ele>434.89</ele>
      </trkpt>
      <trkpt lat="46.125646" lon="14.462073">
        <ele>434.54</ele>
      </trkpt>
      <trkpt lat="46.125758" lon="14.462179">
        <ele>436.46</ele>
      </trkpt>
      <trkpt lat="46.125858" lon="14.462358">
        <ele>438.62</ele>
      </trkpt>
      <trkpt lat="46.125944" lon="14.462549">
        <ele>441.02</ele>
      </trkpt>
      <trkpt lat="46.125971" lon="14.462699">
        <ele>440.48</ele>
      </trkpt>
      <trkpt lat="46.125971" lon="14.462879">
        <ele>440.06</ele>
      </trkpt>
      <trkpt lat="46.125929" lon="14.463061">
        <ele>439.57</ele>
      </trkpt>
      <trkpt lat="46.125873" lon="14.463217">
        <ele>438.78</ele>
      </trkpt>
      <trkpt lat="46.125902" lon="14.463331">
        <ele>438.95</ele>
      </trkpt>
      <trkpt lat="46.126126" lon="14.463838">
        <ele>440.87</ele>
      </trkpt>
      <trkpt lat="46.126278" lon="14.464114">
        <ele>442.16</ele>
      </trkpt>
      <trkpt lat="46.126443" lon="14.464479">
        <ele>444.65</ele>
      </trkpt>
      <trkpt lat="46.12649" lon="14.464635">
        <ele>445.37</ele>
      </trkpt>
      <trkpt lat="46.126514" lon="14.464799">
        <ele>444.67</ele>
      </trkpt>
      <trkpt lat="46.126671" lon="14.465144">
        <ele>446.45</ele>
      </trkpt>
      <trkpt lat="46.126683" lon="14.465265">
        <ele>446.8</ele>
      </trkpt>
      <trkpt lat="46.126661" lon="14.465415">
        <ele>446</ele>
      </trkpt>
      <trkpt lat="46.126723" lon="14.465593">
        <ele>447.49</ele>
      </trkpt>
      <trkpt lat="46.126798" lon="14.465695">
        <ele>449.73</ele>
      </trkpt>
      <trkpt lat="46.126964" lon="14.465744">
        <ele>455.97</ele>
      </trkpt>
      <trkpt lat="46.127059" lon="14.465781">
        <ele>458.99</ele>
      </trkpt>
      <trkpt lat="46.12713" lon="14.465757">
        <ele>461.66</ele>
      </trkpt>
      <trkpt lat="46.127189" lon="14.465724">
        <ele>463.57</ele>
      </trkpt>
      <trkpt lat="46.127244" lon="14.465847">
        <ele>463.53</ele>
      </trkpt>
      <trkpt lat="46.127381" lon="14.466098">
        <ele>463</ele>
      </trkpt>
      <trkpt lat="46.127608" lon="14.466512">
        <ele>464.84</ele>
      </trkpt>
      <trkpt lat="46.127823" lon="14.466808">
        <ele>464.93</ele>
      </trkpt>
      <trkpt lat="46.128054" lon="14.466849">
        <ele>465.07</ele>
      </trkpt>
      <trkpt lat="46.128327" lon="14.466893">
        <ele>468.32</ele>
      </trkpt>
      <trkpt lat="46.128482" lon="14.466988">
        <ele>468.13</ele>
      </trkpt>
      <trkpt lat="46.128622" lon="14.467096">
        <ele>469.22</ele>
      </trkpt>
      <trkpt lat="46.128711" lon="14.467187">
        <ele>469.8</ele>
      </trkpt>
      <trkpt lat="46.128864" lon="14.467428">
        <ele>468.52</ele>
      </trkpt>
      <trkpt lat="46.129038" lon="14.467589">
        <ele>471.02</ele>
      </trkpt>
      <trkpt lat="46.129518" lon="14.467832">
        <ele>475.23</ele>
      </trkpt>
      <trkpt lat="46.129708" lon="14.467879">
        <ele>476.22</ele>
      </trkpt>
      <trkpt lat="46.129922" lon="14.467842">
        <ele>477.35</ele>
      </trkpt>
      <trkpt lat="46.130153" lon="14.467774">
        <ele>477.44</ele>
      </trkpt>
      <trkpt lat="46.130332" lon="14.467659">
        <ele>479.91</ele>
      </trkpt>
      <trkpt lat="46.13047" lon="14.467541">
        <ele>480.84</ele>
      </trkpt>
      <trkpt lat="46.130625" lon="14.467434">
        <ele>481.63</ele>
      </trkpt>
      <trkpt lat="46.130708" lon="14.467335">
        <ele>483.38</ele>
      </trkpt>
      <trkpt lat="46.13083" lon="14.467084">
        <ele>488.25</ele>
      </trkpt>
      <trkpt lat="46.131015" lon="14.466756">
        <ele>490.1</ele>
      </trkpt>
      <trkpt lat="46.131339" lon="14.466295">
        <ele>490.73</ele>
      </trkpt>
      <trkpt lat="46.131651" lon="14.465838">
        <ele>495.61</ele>
      </trkpt>
      <trkpt lat="46.131928" lon="14.465592">
        <ele>493.5</ele>
      </trkpt>
      <trkpt lat="46.13217" lon="14.465295">
        <ele>490.94</ele>
      </trkpt>
      <trkpt lat="46.132241" lon="14.465255">
        <ele>489.4</ele>
      </trkpt>
      <trkpt lat="46.132322" lon="14.465241">
        <ele>486.6</ele>
      </trkpt>
      <trkpt lat="46.132347" lon="14.465224">
        <ele>485.93</ele>
      </trkpt>
      <trkpt lat="46.132396" lon="14.465193">
        <ele>484.63</ele>
      </trkpt>
      <trkpt lat="46.132599" lon="14.464846">
        <ele>478.81</ele>
      </trkpt>
      <trkpt lat="46.132676" lon="14.464681">
        <ele>475.72</ele>
      </trkpt>
      <trkpt lat="46.132739" lon="14.464517">
        <ele>472.7</ele>
      </trkpt>
      <trkpt lat="46.132904" lon="14.464814">
        <ele>466.06</ele>
      </trkpt>
      <trkpt lat="46.132958" lon="14.465046">
        <ele>462.01</ele>
      </trkpt>
      <trkpt lat="46.132961" lon="14.465058">
        <ele>461.8</ele>
      </trkpt>
      <trkpt lat="46.132996" lon="14.464802">
        <ele>462.25</ele>
      </trkpt>
      <trkpt lat="46.133013" lon="14.464605">
        <ele>461.72</ele>
      </trkpt>
      <trkpt lat="46.13303" lon="14.464572">
        <ele>461.08</ele>
      </trkpt>
      <trkpt lat="46.132975" lon="14.464273">
        <ele>462.21</ele>
      </trkpt>
      <trkpt lat="46.132975" lon="14.464085">
        <ele>463.31</ele>
      </trkpt>
      <trkpt lat="46.132984" lon="14.463942">
        <ele>463.68</ele>
      </trkpt>
      <trkpt lat="46.133033" lon="14.46356">
        <ele>466.87</ele>
      </trkpt>
      <trkpt lat="46.13299" lon="14.463023">
        <ele>476.12</ele>
      </trkpt>
      <trkpt lat="46.133026" lon="14.462832">
        <ele>477.18</ele>
      </trkpt>
      <trkpt lat="46.1331" lon="14.462606">
        <ele>476.88</ele>
      </trkpt>
      <trkpt lat="46.133187" lon="14.462346">
        <ele>479.27</ele>
      </trkpt>
      <trkpt lat="46.133242" lon="14.462086">
        <ele>482.28</ele>
      </trkpt>
      <trkpt lat="46.133342" lon="14.461835">
        <ele>484.06</ele>
      </trkpt>
      <trkpt lat="46.133375" lon="14.461722">
        <ele>485.5</ele>
      </trkpt>
      <trkpt lat="46.133402" lon="14.461488">
        <ele>486.77</ele>
      </trkpt>
      <trkpt lat="46.133474" lon="14.460993">
        <ele>491.96</ele>
      </trkpt>
      <trkpt lat="46.133562" lon="14.460628">
        <ele>496.26</ele>
      </trkpt>
      <trkpt lat="46.133575" lon="14.460556">
        <ele>498.06</ele>
      </trkpt>
      <trkpt lat="46.133579" lon="14.460474">
        <ele>500.1</ele>
      </trkpt>
      <trkpt lat="46.133551" lon="14.460415">
        <ele>501.8</ele>
      </trkpt>
      <trkpt lat="46.1335" lon="14.460387">
        <ele>503.61</ele>
      </trkpt>
      <trkpt lat="46.133443" lon="14.460386">
        <ele>505.77</ele>
      </trkpt>
      <trkpt lat="46.133284" lon="14.460384">
        <ele>511.79</ele>
      </trkpt>
      <trkpt lat="46.133182" lon="14.460363">
        <ele>514.83</ele>
      </trkpt>
      <trkpt lat="46.132999" lon="14.46029">
        <ele>519.46</ele>
      </trkpt>
      <trkpt lat="46.132884" lon="14.460222">
        <ele>522.35</ele>
      </trkpt>
      <trkpt lat="46.132687" lon="14.460159">
        <ele>524.94</ele>
      </trkpt>
      <trkpt lat="46.132524" lon="14.460164">
        <ele>529.44</ele>
      </trkpt>
      <trkpt lat="46.132356" lon="14.460154">
        <ele>534.78</ele>
      </trkpt>
      <trkpt lat="46.132227" lon="14.460186">
        <ele>541.11</ele>
      </trkpt>
      <trkpt lat="46.132171" lon="14.460158">
        <ele>543.44</ele>
      </trkpt>
      <trkpt lat="46.1321" lon="14.460092">
        <ele>545.87</ele>
      </trkpt>
      <trkpt lat="46.132024" lon="14.459999">
        <ele>545.42</ele>
      </trkpt>
      <trkpt lat="46.131934" lon="14.460251">
        <ele>552.24</ele>
      </trkpt>
      <trkpt lat="46.131877" lon="14.460351">
        <ele>555.73</ele>
      </trkpt>
      <trkpt lat="46.131793" lon="14.460416">
        <ele>557.99</ele>
      </trkpt>
      <trkpt lat="46.131709" lon="14.460435">
        <ele>560.6</ele>
      </trkpt>
      <trkpt lat="46.131628" lon="14.460413">
        <ele>562.53</ele>
      </trkpt>
      <trkpt lat="46.131521" lon="14.460351">
        <ele>565.15</ele>
      </trkpt>
      <trkpt lat="46.131418" lon="14.460247">
        <ele>566.39</ele>
      </trkpt>
      <trkpt lat="46.13129" lon="14.46014">
        <ele>564.74</ele>
      </trkpt>
      <trkpt lat="46.131225" lon="14.460129">
        <ele>562.39</ele>
      </trkpt>
      <trkpt lat="46.131197" lon="14.460182">
        <ele>562.8</ele>
      </trkpt>
      <trkpt lat="46.131096" lon="14.460269">
        <ele>561.13</ele>
      </trkpt>
      <trkpt lat="46.130911" lon="14.460433">
        <ele>560.92</ele>
      </trkpt>
      <trkpt lat="46.130696" lon="14.460557">
        <ele>562.55</ele>
      </trkpt>
      <trkpt lat="46.130564" lon="14.460567">
        <ele>562.52</ele>
      </trkpt>
      <trkpt lat="46.13041" lon="14.46054">
        <ele>562.01</ele>
      </trkpt>
      <trkpt lat="46.130335" lon="14.460551">
        <ele>562.38</ele>
      </trkpt>
      <trkpt lat="46.130182" lon="14.460606">
        <ele>563.06</ele>
      </trkpt>
      <trkpt lat="46.130043" lon="14.460708">
        <ele>565.99</ele>
      </trkpt>
      <trkpt lat="46.129953" lon="14.460756">
        <ele>567.63</ele>
      </trkpt>
      <trkpt lat="46.129644" lon="14.46094">
        <ele>573.18</ele>
      </trkpt>
      <trkpt lat="46.12952" lon="14.461045">
        <ele>575.61</ele>
      </trkpt>
      <trkpt lat="46.129397" lon="14.461174">
        <ele>577.67</ele>
      </trkpt>
      <trkpt lat="46.129326" lon="14.461223">
        <ele>579.47</ele>
      </trkpt>
      <trkpt lat="46.129202" lon="14.46127">
        <ele>580.86</ele>
      </trkpt>
      <trkpt lat="46.129034" lon="14.461316">
        <ele>583.06</ele>
      </trkpt>
      <trkpt lat="46.128857" lon="14.461331">
        <ele>585.05</ele>
      </trkpt>
      <trkpt lat="46.12872" lon="14.461371">
        <ele>586.93</ele>
      </trkpt>
      <trkpt lat="46.128663" lon="14.461398">
        <ele>587.65</ele>
      </trkpt>
      <trkpt lat="46.128604" lon="14.461461">
        <ele>588.6</ele>
      </trkpt>
      <trkpt lat="46.128543" lon="14.461586">
        <ele>590.99</ele>
      </trkpt>
      <trkpt lat="46.128505" lon="14.461641">
        <ele>591.96</ele>
      </trkpt>
      <trkpt lat="46.128452" lon="14.461684">
        <ele>592.52</ele>
      </trkpt>
      <trkpt lat="46.128342" lon="14.461747">
        <ele>594.88</ele>
      </trkpt>
      <trkpt lat="46.128271" lon="14.46181">
        <ele>596.9</ele>
      </trkpt>
      <trkpt lat="46.128183" lon="14.461926">
        <ele>599.4</ele>
      </trkpt>
      <trkpt lat="46.128142" lon="14.462052">
        <ele>601.06</ele>
      </trkpt>
      <trkpt lat="46.128142" lon="14.462099">
        <ele>602.14</ele>
      </trkpt>
      <trkpt lat="46.128153" lon="14.462127">
        <ele>602.8</ele>
      </trkpt>
      <trkpt lat="46.128348" lon="14.462241">
        <ele>606.97</ele>
      </trkpt>
      <trkpt lat="46.12843" lon="14.462341">
        <ele>611.26</ele>
      </trkpt>
      <trkpt lat="46.12853" lon="14.462419">
        <ele>613.89</ele>
      </trkpt>
      <trkpt lat="46.128996" lon="14.462749">
        <ele>625.42</ele>
      </trkpt>
      <trkpt lat="46.129153" lon="14.462807">
        <ele>628.74</ele>
      </trkpt>
      <trkpt lat="46.129261" lon="14.462886">
        <ele>632.69</ele>
      </trkpt>
      <trkpt lat="46.129434" lon="14.462995">
        <ele>637.72</ele>
      </trkpt>
      <trkpt lat="46.129633" lon="14.463064">
        <ele>642.23</ele>
      </trkpt>
      <trkpt lat="46.129788" lon="14.463068">
        <ele>645.47</ele>
      </trkpt>
      <trkpt lat="46.129879" lon="14.463047">
        <ele>647.78</ele>
      </trkpt>
      <trkpt lat="46.129969" lon="14.462994">
        <ele>648.98</ele>
      </trkpt>
      <trkpt lat="46.130171" lon="14.462927">
        <ele>654.28</ele>
      </trkpt>
      <trkpt lat="46.130313" lon="14.462967">
        <ele>658.73</ele>
      </trkpt>
      <trkpt lat="46.130349" lon="14.463008">
        <ele>660.2</ele>
      </trkpt>
      <trkpt lat="46.130349" lon="14.463045">
        <ele>661.08</ele>
      </trkpt>
      <trkpt lat="46.130336" lon="14.46308">
        <ele>661.78</ele>
      </trkpt>
      <trkpt lat="46.13028" lon="14.463144">
        <ele>662.62</ele>
      </trkpt>
      <trkpt lat="46.130251" lon="14.463176">
        <ele>663.05</ele>
      </trkpt>
      <trkpt lat="46.130195" lon="14.463218">
        <ele>663.32</ele>
      </trkpt>
      <trkpt lat="46.130088" lon="14.46327">
        <ele>662.25</ele>
      </trkpt>
      <trkpt lat="46.129977" lon="14.463366">
        <ele>661.25</ele>
      </trkpt>
      <trkpt lat="46.129911" lon="14.46344">
        <ele>661.43</ele>
      </trkpt>
      <trkpt lat="46.12987" lon="14.463508">
        <ele>661.76</ele>
      </trkpt>
      <trkpt lat="46.129797" lon="14.463565">
        <ele>662.27</ele>
      </trkpt>
    </trkseg>
  </trk>
</gpx>
