<?xml version="1.0"?>
<gpx xmlns="http://www.topografix.com/GPX/1/1" xmlns:xsi="http://www.w3.org/2001/XMLSchema-instance" version="1.1" creator="AllTrails.com" xsi:schemaLocation="http://www.topografix.com/GPX/1/1 http://www.topografix.com/GPX/1/1/gpx.xsd">
  <metadata>
    <name><![CDATA[Čipka trail 14km]]></name>
    <desc><![CDATA[]]></desc>
    <link href="http://www.alltrails.com">
      <text>AllTrails, LLC</text>
    </link>
    <bounds minlat="45.96874" minlon="13.996" maxlat="46.00085" maxlon="14.03484"/>
  </metadata>
  <trk>
    <name><![CDATA[Čipka trail 14km]]></name>
    <src>AllTrails</src>
    <trkseg>
      <trkpt lat="46.00082" lon="14.02177">
        <ele>340.42</ele>
      </trkpt>
      <trkpt lat="46.00084" lon="14.02109">
        <ele>339.24</ele>
      </trkpt>
      <trkpt lat="46.00085" lon="14.02037">
        <ele>342.01</ele>
      </trkpt>
      <trkpt lat="46.00082" lon="14.01991">
        <ele>341.0</ele>
      </trkpt>
      <trkpt lat="46.00053" lon="14.01987">
        <ele>341.36</ele>
      </trkpt>
      <trkpt lat="46.0001" lon="14.02046">
        <ele>340.97</ele>
      </trkpt>
      <trkpt lat="45.99969" lon="14.0216">
        <ele>339.47</ele>
      </trkpt>
      <trkpt lat="45.99969" lon="14.02224">
        <ele>339.17</ele>
      </trkpt>
      <trkpt lat="45.99988" lon="14.02281">
        <ele>340.63</ele>
      </trkpt>
      <trkpt lat="46.0002" lon="14.0231">
        <ele>344.44</ele>
      </trkpt>
      <trkpt lat="46.00026" lon="14.02317">
        <ele>345.61</ele>
      </trkpt>
      <trkpt lat="46.00037" lon="14.02346">
        <ele>346.79</ele>
      </trkpt>
      <trkpt lat="46.00054" lon="14.02397">
        <ele>346.1</ele>
      </trkpt>
      <trkpt lat="46.00058" lon="14.02414">
        <ele>345.82</ele>
      </trkpt>
      <trkpt lat="46.0006" lon="14.02443">
        <ele>344.58</ele>
      </trkpt>
      <trkpt lat="46.00057" lon="14.02467">
        <ele>344.8</ele>
      </trkpt>
      <trkpt lat="46.00057" lon="14.02479">
        <ele>344.78</ele>
      </trkpt>
      <trkpt lat="46.0007" lon="14.02542">
        <ele>345.91</ele>
      </trkpt>
      <trkpt lat="46.00073" lon="14.02574">
        <ele>349.71</ele>
      </trkpt>
      <trkpt lat="46.00072" lon="14.02577">
        <ele>350.52</ele>
      </trkpt>
      <trkpt lat="46.0007" lon="14.02576">
        <ele>351.11</ele>
      </trkpt>
      <trkpt lat="46.00072" lon="14.02628">
        <ele>354.12</ele>
      </trkpt>
      <trkpt lat="46.00067" lon="14.02716">
        <ele>354.74</ele>
      </trkpt>
      <trkpt lat="46.00063" lon="14.02745">
        <ele>355.48</ele>
      </trkpt>
      <trkpt lat="46.00059" lon="14.02759">
        <ele>354.02</ele>
      </trkpt>
      <trkpt lat="46.00052" lon="14.02785">
        <ele>347.29</ele>
      </trkpt>
      <trkpt lat="46.00033" lon="14.02849">
        <ele>342.87</ele>
      </trkpt>
      <trkpt lat="46.00025" lon="14.02876">
        <ele>340.7</ele>
      </trkpt>
      <trkpt lat="46.00023" lon="14.02901">
        <ele>338.22</ele>
      </trkpt>
      <trkpt lat="46.00013" lon="14.02954">
        <ele>339.43</ele>
      </trkpt>
      <trkpt lat="46.00011" lon="14.02989">
        <ele>337.83</ele>
      </trkpt>
      <trkpt lat="46.00013" lon="14.03011">
        <ele>335.57</ele>
      </trkpt>
      <trkpt lat="46.00012" lon="14.03031">
        <ele>336.18</ele>
      </trkpt>
      <trkpt lat="46.00003" lon="14.03071">
        <ele>336.94</ele>
      </trkpt>
      <trkpt lat="45.9999" lon="14.03104">
        <ele>336.2</ele>
      </trkpt>
      <trkpt lat="45.99984" lon="14.03115">
        <ele>335.73</ele>
      </trkpt>
      <trkpt lat="45.99979" lon="14.0312">
        <ele>335.77</ele>
      </trkpt>
      <trkpt lat="45.99967" lon="14.03127">
        <ele>336.88</ele>
      </trkpt>
      <trkpt lat="45.99948" lon="14.03136">
        <ele>339.73</ele>
      </trkpt>
      <trkpt lat="45.99933" lon="14.03141">
        <ele>343.27</ele>
      </trkpt>
      <trkpt lat="45.9992" lon="14.03152">
        <ele>345.86</ele>
      </trkpt>
      <trkpt lat="45.99908" lon="14.03167">
        <ele>344.92</ele>
      </trkpt>
      <trkpt lat="45.99897" lon="14.03179">
        <ele>343.2</ele>
      </trkpt>
      <trkpt lat="45.99852" lon="14.03238">
        <ele>343.92</ele>
      </trkpt>
      <trkpt lat="45.99847" lon="14.0326">
        <ele>341.78</ele>
      </trkpt>
      <trkpt lat="45.99842" lon="14.03273">
        <ele>341.12</ele>
      </trkpt>
      <trkpt lat="45.99836" lon="14.03281">
        <ele>341.24</ele>
      </trkpt>
      <trkpt lat="45.99827" lon="14.03287">
        <ele>342.47</ele>
      </trkpt>
      <trkpt lat="45.99814" lon="14.03289">
        <ele>346.31</ele>
      </trkpt>
      <trkpt lat="45.99791" lon="14.03284">
        <ele>351.48</ele>
      </trkpt>
      <trkpt lat="45.99775" lon="14.03288">
        <ele>351.22</ele>
      </trkpt>
      <trkpt lat="45.99748" lon="14.03288">
        <ele>349.59</ele>
      </trkpt>
      <trkpt lat="45.99726" lon="14.0328">
        <ele>353.89</ele>
      </trkpt>
      <trkpt lat="45.99694" lon="14.03257">
        <ele>356.17</ele>
      </trkpt>
      <trkpt lat="45.99647" lon="14.03245">
        <ele>359.36</ele>
      </trkpt>
      <trkpt lat="45.99635" lon="14.03243">
        <ele>363.07</ele>
      </trkpt>
      <trkpt lat="45.9962" lon="14.03246">
        <ele>365.68</ele>
      </trkpt>
      <trkpt lat="45.99608" lon="14.03253">
        <ele>364.9</ele>
      </trkpt>
      <trkpt lat="45.996" lon="14.03256">
        <ele>364.6</ele>
      </trkpt>
      <trkpt lat="45.99572" lon="14.03255">
        <ele>368.84</ele>
      </trkpt>
      <trkpt lat="45.99555" lon="14.03256">
        <ele>368.85</ele>
      </trkpt>
      <trkpt lat="45.9953" lon="14.03265">
        <ele>361.55</ele>
      </trkpt>
      <trkpt lat="45.99521" lon="14.03272">
        <ele>360.39</ele>
      </trkpt>
      <trkpt lat="45.99515" lon="14.03274">
        <ele>360.27</ele>
      </trkpt>
      <trkpt lat="45.99475" lon="14.03278">
        <ele>359.05</ele>
      </trkpt>
      <trkpt lat="45.99444" lon="14.03271">
        <ele>369.27</ele>
      </trkpt>
      <trkpt lat="45.99429" lon="14.03275">
        <ele>369.16</ele>
      </trkpt>
      <trkpt lat="45.99413" lon="14.03283">
        <ele>365.07</ele>
      </trkpt>
      <trkpt lat="45.99395" lon="14.033">
        <ele>352.65</ele>
      </trkpt>
      <trkpt lat="45.99379" lon="14.0331">
        <ele>347.23</ele>
      </trkpt>
      <trkpt lat="45.99371" lon="14.03313">
        <ele>346.95</ele>
      </trkpt>
      <trkpt lat="45.99331" lon="14.03322">
        <ele>351.36</ele>
      </trkpt>
      <trkpt lat="45.9932" lon="14.03326">
        <ele>354.64</ele>
      </trkpt>
      <trkpt lat="45.99313" lon="14.03334">
        <ele>355.08</ele>
      </trkpt>
      <trkpt lat="45.99301" lon="14.03362">
        <ele>349.65</ele>
      </trkpt>
      <trkpt lat="45.99287" lon="14.03385">
        <ele>347.99</ele>
      </trkpt>
      <trkpt lat="45.99277" lon="14.03396">
        <ele>349.88</ele>
      </trkpt>
      <trkpt lat="45.99225" lon="14.03443">
        <ele>358.32</ele>
      </trkpt>
      <trkpt lat="45.99191" lon="14.03468">
        <ele>345.23</ele>
      </trkpt>
      <trkpt lat="45.99181" lon="14.03473">
        <ele>344.08</ele>
      </trkpt>
      <trkpt lat="45.99152" lon="14.03482">
        <ele>343.08</ele>
      </trkpt>
      <trkpt lat="45.99137" lon="14.03484">
        <ele>341.61</ele>
      </trkpt>
      <trkpt lat="45.99108" lon="14.03475">
        <ele>339.11</ele>
      </trkpt>
      <trkpt lat="45.99095" lon="14.03467">
        <ele>338.92</ele>
      </trkpt>
      <trkpt lat="45.99088" lon="14.0346">
        <ele>338.39</ele>
      </trkpt>
      <trkpt lat="45.99077" lon="14.03441">
        <ele>336.85</ele>
      </trkpt>
      <trkpt lat="45.99073" lon="14.03428">
        <ele>336.73</ele>
      </trkpt>
      <trkpt lat="45.99079" lon="14.03386">
        <ele>340.31</ele>
      </trkpt>
      <trkpt lat="45.99078" lon="14.03368">
        <ele>343.4</ele>
      </trkpt>
      <trkpt lat="45.99069" lon="14.03317">
        <ele>353.28</ele>
      </trkpt>
      <trkpt lat="45.99059" lon="14.03286">
        <ele>356.3</ele>
      </trkpt>
      <trkpt lat="45.99043" lon="14.03249">
        <ele>360.29</ele>
      </trkpt>
      <trkpt lat="45.99031" lon="14.03228">
        <ele>362.13</ele>
      </trkpt>
      <trkpt lat="45.99009" lon="14.03195">
        <ele>364.18</ele>
      </trkpt>
      <trkpt lat="45.9898" lon="14.03158">
        <ele>362.67</ele>
      </trkpt>
      <trkpt lat="45.98972" lon="14.03143">
        <ele>360.24</ele>
      </trkpt>
      <trkpt lat="45.98965" lon="14.03129">
        <ele>358.54</ele>
      </trkpt>
      <trkpt lat="45.98958" lon="14.031">
        <ele>358.81</ele>
      </trkpt>
      <trkpt lat="45.98949" lon="14.0309">
        <ele>357.55</ele>
      </trkpt>
      <trkpt lat="45.98942" lon="14.03085">
        <ele>356.55</ele>
      </trkpt>
      <trkpt lat="45.98933" lon="14.03082">
        <ele>356.02</ele>
      </trkpt>
      <trkpt lat="45.98918" lon="14.03073">
        <ele>356.36</ele>
      </trkpt>
      <trkpt lat="45.98914" lon="14.03072">
        <ele>356.53</ele>
      </trkpt>
      <trkpt lat="45.98896" lon="14.03076">
        <ele>355.98</ele>
      </trkpt>
      <trkpt lat="45.98865" lon="14.03079">
        <ele>361.0</ele>
      </trkpt>
      <trkpt lat="45.98847" lon="14.03083">
        <ele>361.08</ele>
      </trkpt>
      <trkpt lat="45.98828" lon="14.03083">
        <ele>360.32</ele>
      </trkpt>
      <trkpt lat="45.98818" lon="14.0308">
        <ele>359.62</ele>
      </trkpt>
      <trkpt lat="45.98776" lon="14.0305">
        <ele>360.18</ele>
      </trkpt>
      <trkpt lat="45.98766" lon="14.03047">
        <ele>359.85</ele>
      </trkpt>
      <trkpt lat="45.98759" lon="14.03049">
        <ele>358.43</ele>
      </trkpt>
      <trkpt lat="45.98746" lon="14.03057">
        <ele>353.04</ele>
      </trkpt>
      <trkpt lat="45.98733" lon="14.03062">
        <ele>347.12</ele>
      </trkpt>
      <trkpt lat="45.98724" lon="14.03062">
        <ele>343.93</ele>
      </trkpt>
      <trkpt lat="45.98719" lon="14.03059">
        <ele>343.11</ele>
      </trkpt>
      <trkpt lat="45.98701" lon="14.0303">
        <ele>340.83</ele>
      </trkpt>
      <trkpt lat="45.98686" lon="14.03002">
        <ele>342.19</ele>
      </trkpt>
      <trkpt lat="45.98647" lon="14.02932">
        <ele>339.66</ele>
      </trkpt>
      <trkpt lat="45.98631" lon="14.02907">
        <ele>339.6</ele>
      </trkpt>
      <trkpt lat="45.98618" lon="14.02859">
        <ele>346.32</ele>
      </trkpt>
      <trkpt lat="45.98609" lon="14.02846">
        <ele>345.56</ele>
      </trkpt>
      <trkpt lat="45.98604" lon="14.02825">
        <ele>351.9</ele>
      </trkpt>
      <trkpt lat="45.98592" lon="14.02818">
        <ele>353.17</ele>
      </trkpt>
      <trkpt lat="45.9856" lon="14.02791">
        <ele>359.48</ele>
      </trkpt>
      <trkpt lat="45.9855" lon="14.02779">
        <ele>363.96</ele>
      </trkpt>
      <trkpt lat="45.98538" lon="14.02768">
        <ele>368.19</ele>
      </trkpt>
      <trkpt lat="45.98516" lon="14.02758">
        <ele>368.53</ele>
      </trkpt>
      <trkpt lat="45.98507" lon="14.02756">
        <ele>368.0</ele>
      </trkpt>
      <trkpt lat="45.98485" lon="14.02743">
        <ele>372.12</ele>
      </trkpt>
      <trkpt lat="45.98465" lon="14.02742">
        <ele>373.96</ele>
      </trkpt>
      <trkpt lat="45.98451" lon="14.0274">
        <ele>375.22</ele>
      </trkpt>
      <trkpt lat="45.98434" lon="14.0274">
        <ele>374.92</ele>
      </trkpt>
      <trkpt lat="45.98419" lon="14.02735">
        <ele>373.67</ele>
      </trkpt>
      <trkpt lat="45.9838" lon="14.02727">
        <ele>369.21</ele>
      </trkpt>
      <trkpt lat="45.98335" lon="14.02725">
        <ele>363.08</ele>
      </trkpt>
      <trkpt lat="45.98329" lon="14.02723">
        <ele>361.9</ele>
      </trkpt>
      <trkpt lat="45.98291" lon="14.02701">
        <ele>358.21</ele>
      </trkpt>
      <trkpt lat="45.98274" lon="14.02688">
        <ele>361.06</ele>
      </trkpt>
      <trkpt lat="45.98247" lon="14.02679">
        <ele>362.07</ele>
      </trkpt>
      <trkpt lat="45.98238" lon="14.02674">
        <ele>362.44</ele>
      </trkpt>
      <trkpt lat="45.98214" lon="14.0265">
        <ele>365.31</ele>
      </trkpt>
      <trkpt lat="45.98197" lon="14.02627">
        <ele>367.63</ele>
      </trkpt>
      <trkpt lat="45.98182" lon="14.0261">
        <ele>367.1</ele>
      </trkpt>
      <trkpt lat="45.98164" lon="14.02593">
        <ele>362.21</ele>
      </trkpt>
      <trkpt lat="45.9815" lon="14.02569">
        <ele>359.81</ele>
      </trkpt>
      <trkpt lat="45.98126" lon="14.02538">
        <ele>352.05</ele>
      </trkpt>
      <trkpt lat="45.98109" lon="14.02505">
        <ele>348.39</ele>
      </trkpt>
      <trkpt lat="45.98106" lon="14.02497">
        <ele>349.41</ele>
      </trkpt>
      <trkpt lat="45.981" lon="14.02454">
        <ele>361.54</ele>
      </trkpt>
      <trkpt lat="45.98094" lon="14.02429">
        <ele>367.19</ele>
      </trkpt>
      <trkpt lat="45.98089" lon="14.02415">
        <ele>372.01</ele>
      </trkpt>
      <trkpt lat="45.98074" lon="14.02392">
        <ele>374.69</ele>
      </trkpt>
      <trkpt lat="45.98055" lon="14.02372">
        <ele>377.36</ele>
      </trkpt>
      <trkpt lat="45.98046" lon="14.02355">
        <ele>381.82</ele>
      </trkpt>
      <trkpt lat="45.98027" lon="14.02335">
        <ele>389.16</ele>
      </trkpt>
      <trkpt lat="45.98021" lon="14.02322">
        <ele>397.1</ele>
      </trkpt>
      <trkpt lat="45.98013" lon="14.02316">
        <ele>401.49</ele>
      </trkpt>
      <trkpt lat="45.98" lon="14.0231">
        <ele>406.6</ele>
      </trkpt>
      <trkpt lat="45.97981" lon="14.02298">
        <ele>408.06</ele>
      </trkpt>
      <trkpt lat="45.97967" lon="14.02285">
        <ele>410.76</ele>
      </trkpt>
      <trkpt lat="45.97938" lon="14.02275">
        <ele>411.96</ele>
      </trkpt>
      <trkpt lat="45.97914" lon="14.02261">
        <ele>411.35</ele>
      </trkpt>
      <trkpt lat="45.97894" lon="14.02261">
        <ele>406.31</ele>
      </trkpt>
      <trkpt lat="45.9788" lon="14.02258">
        <ele>405.6</ele>
      </trkpt>
      <trkpt lat="45.97853" lon="14.02246">
        <ele>408.5</ele>
      </trkpt>
      <trkpt lat="45.97813" lon="14.02224">
        <ele>404.41</ele>
      </trkpt>
      <trkpt lat="45.97797" lon="14.0221">
        <ele>399.31</ele>
      </trkpt>
      <trkpt lat="45.97784" lon="14.02198">
        <ele>393.05</ele>
      </trkpt>
      <trkpt lat="45.97757" lon="14.02157">
        <ele>396.37</ele>
      </trkpt>
      <trkpt lat="45.97745" lon="14.02131">
        <ele>412.39</ele>
      </trkpt>
      <trkpt lat="45.9774" lon="14.02126">
        <ele>417.51</ele>
      </trkpt>
      <trkpt lat="45.97729" lon="14.0212">
        <ele>423.18</ele>
      </trkpt>
      <trkpt lat="45.97717" lon="14.02121">
        <ele>419.75</ele>
      </trkpt>
      <trkpt lat="45.97695" lon="14.02114">
        <ele>414.41</ele>
      </trkpt>
      <trkpt lat="45.97679" lon="14.0211">
        <ele>408.69</ele>
      </trkpt>
      <trkpt lat="45.97669" lon="14.02106">
        <ele>406.74</ele>
      </trkpt>
      <trkpt lat="45.97649" lon="14.0209">
        <ele>404.23</ele>
      </trkpt>
      <trkpt lat="45.97629" lon="14.02083">
        <ele>393.57</ele>
      </trkpt>
      <trkpt lat="45.97623" lon="14.02077">
        <ele>394.83</ele>
      </trkpt>
      <trkpt lat="45.97614" lon="14.02064">
        <ele>399.42</ele>
      </trkpt>
      <trkpt lat="45.97581" lon="14.02051">
        <ele>389.7</ele>
      </trkpt>
      <trkpt lat="45.97575" lon="14.02044">
        <ele>391.63</ele>
      </trkpt>
      <trkpt lat="45.97563" lon="14.02035">
        <ele>388.22</ele>
      </trkpt>
      <trkpt lat="45.97545" lon="14.02025">
        <ele>384.07</ele>
      </trkpt>
      <trkpt lat="45.97536" lon="14.02015">
        <ele>387.45</ele>
      </trkpt>
      <trkpt lat="45.97527" lon="14.01993">
        <ele>395.03</ele>
      </trkpt>
      <trkpt lat="45.97518" lon="14.01976">
        <ele>401.77</ele>
      </trkpt>
      <trkpt lat="45.97508" lon="14.01969">
        <ele>398.52</ele>
      </trkpt>
      <trkpt lat="45.97496" lon="14.01955">
        <ele>398.21</ele>
      </trkpt>
      <trkpt lat="45.97474" lon="14.01924">
        <ele>403.17</ele>
      </trkpt>
      <trkpt lat="45.9746" lon="14.01909">
        <ele>402.73</ele>
      </trkpt>
      <trkpt lat="45.97452" lon="14.01886">
        <ele>410.06</ele>
      </trkpt>
      <trkpt lat="45.97447" lon="14.01869">
        <ele>414.88</ele>
      </trkpt>
      <trkpt lat="45.97432" lon="14.01859">
        <ele>411.38</ele>
      </trkpt>
      <trkpt lat="45.97424" lon="14.01838">
        <ele>420.4</ele>
      </trkpt>
      <trkpt lat="45.9742" lon="14.0183">
        <ele>424.82</ele>
      </trkpt>
      <trkpt lat="45.97397" lon="14.01809">
        <ele>428.83</ele>
      </trkpt>
      <trkpt lat="45.97379" lon="14.0179">
        <ele>434.15</ele>
      </trkpt>
      <trkpt lat="45.97358" lon="14.01798">
        <ele>421.62</ele>
      </trkpt>
      <trkpt lat="45.97324" lon="14.01792">
        <ele>403.71</ele>
      </trkpt>
      <trkpt lat="45.97321" lon="14.01756">
        <ele>427.54</ele>
      </trkpt>
      <trkpt lat="45.97306" lon="14.0175">
        <ele>419.37</ele>
      </trkpt>
      <trkpt lat="45.97297" lon="14.01743">
        <ele>416.88</ele>
      </trkpt>
      <trkpt lat="45.97301" lon="14.01708">
        <ele>438.94</ele>
      </trkpt>
      <trkpt lat="45.97296" lon="14.01691">
        <ele>442.75</ele>
      </trkpt>
      <trkpt lat="45.97288" lon="14.01675">
        <ele>444.06</ele>
      </trkpt>
      <trkpt lat="45.97276" lon="14.01654">
        <ele>440.55</ele>
      </trkpt>
      <trkpt lat="45.9726" lon="14.01633">
        <ele>439.9</ele>
      </trkpt>
      <trkpt lat="45.97252" lon="14.01623">
        <ele>440.49</ele>
      </trkpt>
      <trkpt lat="45.97242" lon="14.01614">
        <ele>442.25</ele>
      </trkpt>
      <trkpt lat="45.97227" lon="14.01608">
        <ele>446.6</ele>
      </trkpt>
      <trkpt lat="45.97218" lon="14.01609">
        <ele>446.44</ele>
      </trkpt>
      <trkpt lat="45.9721" lon="14.01608">
        <ele>447.11</ele>
      </trkpt>
      <trkpt lat="45.97184" lon="14.01597">
        <ele>448.95</ele>
      </trkpt>
      <trkpt lat="45.97167" lon="14.01585">
        <ele>448.55</ele>
      </trkpt>
      <trkpt lat="45.9716" lon="14.01577">
        <ele>451.65</ele>
      </trkpt>
      <trkpt lat="45.9715" lon="14.01562">
        <ele>457.18</ele>
      </trkpt>
      <trkpt lat="45.97145" lon="14.01558">
        <ele>457.7</ele>
      </trkpt>
      <trkpt lat="45.97115" lon="14.01558">
        <ele>453.78</ele>
      </trkpt>
      <trkpt lat="45.97098" lon="14.01556">
        <ele>452.83</ele>
      </trkpt>
      <trkpt lat="45.97034" lon="14.01537">
        <ele>458.61</ele>
      </trkpt>
      <trkpt lat="45.9702" lon="14.01535">
        <ele>460.52</ele>
      </trkpt>
      <trkpt lat="45.97008" lon="14.01537">
        <ele>461.53</ele>
      </trkpt>
      <trkpt lat="45.96998" lon="14.01536">
        <ele>462.99</ele>
      </trkpt>
      <trkpt lat="45.96986" lon="14.01531">
        <ele>464.39</ele>
      </trkpt>
      <trkpt lat="45.96975" lon="14.01523">
        <ele>466.63</ele>
      </trkpt>
      <trkpt lat="45.96942" lon="14.01491">
        <ele>469.8</ele>
      </trkpt>
      <trkpt lat="45.96924" lon="14.0149">
        <ele>464.26</ele>
      </trkpt>
      <trkpt lat="45.96906" lon="14.0149">
        <ele>457.63</ele>
      </trkpt>
      <trkpt lat="45.96881" lon="14.01505">
        <ele>445.11</ele>
      </trkpt>
      <trkpt lat="45.96876" lon="14.015">
        <ele>445.29</ele>
      </trkpt>
      <trkpt lat="45.96874" lon="14.0149">
        <ele>446.7</ele>
      </trkpt>
      <trkpt lat="45.96877" lon="14.01474">
        <ele>450.66</ele>
      </trkpt>
      <trkpt lat="45.96883" lon="14.0147">
        <ele>452.82</ele>
      </trkpt>
      <trkpt lat="45.96888" lon="14.01459">
        <ele>455.66</ele>
      </trkpt>
      <trkpt lat="45.9689" lon="14.01458">
        <ele>456.59</ele>
      </trkpt>
      <trkpt lat="45.96891" lon="14.01451">
        <ele>458.1</ele>
      </trkpt>
      <trkpt lat="45.96908" lon="14.01452">
        <ele>466.36</ele>
      </trkpt>
      <trkpt lat="45.9691" lon="14.01447">
        <ele>468.2</ele>
      </trkpt>
      <trkpt lat="45.96925" lon="14.01451">
        <ele>473.98</ele>
      </trkpt>
      <trkpt lat="45.96938" lon="14.01448">
        <ele>479.61</ele>
      </trkpt>
      <trkpt lat="45.96946" lon="14.0145">
        <ele>482.03</ele>
      </trkpt>
      <trkpt lat="45.96954" lon="14.01448">
        <ele>484.77</ele>
      </trkpt>
      <trkpt lat="45.96957" lon="14.01449">
        <ele>485.32</ele>
      </trkpt>
      <trkpt lat="45.9696" lon="14.01448">
        <ele>486.44</ele>
      </trkpt>
      <trkpt lat="45.96962" lon="14.01445">
        <ele>487.89</ele>
      </trkpt>
      <trkpt lat="45.96962" lon="14.01436">
        <ele>490.57</ele>
      </trkpt>
      <trkpt lat="45.96974" lon="14.01432">
        <ele>495.25</ele>
      </trkpt>
      <trkpt lat="45.96976" lon="14.01428">
        <ele>496.82</ele>
      </trkpt>
      <trkpt lat="45.96976" lon="14.01423">
        <ele>498.46</ele>
      </trkpt>
      <trkpt lat="45.9697" lon="14.01413">
        <ele>499.98</ele>
      </trkpt>
      <trkpt lat="45.96976" lon="14.01412">
        <ele>501.57</ele>
      </trkpt>
      <trkpt lat="45.96982" lon="14.0141">
        <ele>502.93</ele>
      </trkpt>
      <trkpt lat="45.96983" lon="14.01403">
        <ele>504.69</ele>
      </trkpt>
      <trkpt lat="45.96979" lon="14.01396">
        <ele>505.62</ele>
      </trkpt>
      <trkpt lat="45.96989" lon="14.01394">
        <ele>507.8</ele>
      </trkpt>
      <trkpt lat="45.96989" lon="14.01393">
        <ele>508.04</ele>
      </trkpt>
      <trkpt lat="45.96988" lon="14.01385">
        <ele>510.02</ele>
      </trkpt>
      <trkpt lat="45.96983" lon="14.01382">
        <ele>509.76</ele>
      </trkpt>
      <trkpt lat="45.96988" lon="14.01379">
        <ele>511.83</ele>
      </trkpt>
      <trkpt lat="45.96991" lon="14.01374">
        <ele>514.23</ele>
      </trkpt>
      <trkpt lat="45.96987" lon="14.01333">
        <ele>520.56</ele>
      </trkpt>
      <trkpt lat="45.96988" lon="14.01324">
        <ele>522.52</ele>
      </trkpt>
      <trkpt lat="45.96987" lon="14.01315">
        <ele>523.05</ele>
      </trkpt>
      <trkpt lat="45.96991" lon="14.01292">
        <ele>528.25</ele>
      </trkpt>
      <trkpt lat="45.96991" lon="14.01282">
        <ele>528.25</ele>
      </trkpt>
      <trkpt lat="45.96993" lon="14.01267">
        <ele>529.43</ele>
      </trkpt>
      <trkpt lat="45.96996" lon="14.01253">
        <ele>530.57</ele>
      </trkpt>
      <trkpt lat="45.96995" lon="14.01228">
        <ele>530.51</ele>
      </trkpt>
      <trkpt lat="45.96997" lon="14.01222">
        <ele>532.08</ele>
      </trkpt>
      <trkpt lat="45.97005" lon="14.01204">
        <ele>539.1</ele>
      </trkpt>
      <trkpt lat="45.97003" lon="14.01186">
        <ele>538.13</ele>
      </trkpt>
      <trkpt lat="45.97005" lon="14.01179">
        <ele>539.5</ele>
      </trkpt>
      <trkpt lat="45.97005" lon="14.01162">
        <ele>539.47</ele>
      </trkpt>
      <trkpt lat="45.97002" lon="14.01114">
        <ele>540.07</ele>
      </trkpt>
      <trkpt lat="45.97004" lon="14.01099">
        <ele>542.15</ele>
      </trkpt>
      <trkpt lat="45.97001" lon="14.01088">
        <ele>540.54</ele>
      </trkpt>
      <trkpt lat="45.97003" lon="14.01068">
        <ele>544.55</ele>
      </trkpt>
      <trkpt lat="45.96999" lon="14.01056">
        <ele>543.58</ele>
      </trkpt>
      <trkpt lat="45.96999" lon="14.0105">
        <ele>544.7</ele>
      </trkpt>
      <trkpt lat="45.97003" lon="14.01043">
        <ele>549.39</ele>
      </trkpt>
      <trkpt lat="45.97007" lon="14.01041">
        <ele>553.47</ele>
      </trkpt>
      <trkpt lat="45.9701" lon="14.01037">
        <ele>557.25</ele>
      </trkpt>
      <trkpt lat="45.97012" lon="14.01029">
        <ele>561.32</ele>
      </trkpt>
      <trkpt lat="45.9702" lon="14.01015">
        <ele>574.63</ele>
      </trkpt>
      <trkpt lat="45.97024" lon="14.01014">
        <ele>578.85</ele>
      </trkpt>
      <trkpt lat="45.97026" lon="14.01012">
        <ele>581.56</ele>
      </trkpt>
      <trkpt lat="45.97028" lon="14.01">
        <ele>588.13</ele>
      </trkpt>
      <trkpt lat="45.9703" lon="14.00995">
        <ele>591.05</ele>
      </trkpt>
      <trkpt lat="45.97034" lon="14.00995">
        <ele>593.3</ele>
      </trkpt>
      <trkpt lat="45.97042" lon="14.00986">
        <ele>600.72</ele>
      </trkpt>
      <trkpt lat="45.97053" lon="14.00988">
        <ele>606.06</ele>
      </trkpt>
      <trkpt lat="45.97056" lon="14.0099">
        <ele>607.17</ele>
      </trkpt>
      <trkpt lat="45.97059" lon="14.00989">
        <ele>609.38</ele>
      </trkpt>
      <trkpt lat="45.97063" lon="14.00989">
        <ele>611.95</ele>
      </trkpt>
      <trkpt lat="45.9707" lon="14.00981">
        <ele>617.55</ele>
      </trkpt>
      <trkpt lat="45.97073" lon="14.00965">
        <ele>620.81</ele>
      </trkpt>
      <trkpt lat="45.97073" lon="14.00955">
        <ele>621.71</ele>
      </trkpt>
      <trkpt lat="45.97074" lon="14.00931">
        <ele>623.79</ele>
      </trkpt>
      <trkpt lat="45.97067" lon="14.00909">
        <ele>621.99</ele>
      </trkpt>
      <trkpt lat="45.97085" lon="14.00883">
        <ele>631.94</ele>
      </trkpt>
      <trkpt lat="45.97092" lon="14.00843">
        <ele>628.66</ele>
      </trkpt>
      <trkpt lat="45.97088" lon="14.00821">
        <ele>619.71</ele>
      </trkpt>
      <trkpt lat="45.97088" lon="14.00809">
        <ele>615.03</ele>
      </trkpt>
      <trkpt lat="45.9709" lon="14.00804">
        <ele>614.38</ele>
      </trkpt>
      <trkpt lat="45.97111" lon="14.00791">
        <ele>619.09</ele>
      </trkpt>
      <trkpt lat="45.97129" lon="14.00771">
        <ele>616.0</ele>
      </trkpt>
      <trkpt lat="45.97143" lon="14.00762">
        <ele>618.1</ele>
      </trkpt>
      <trkpt lat="45.97157" lon="14.00747">
        <ele>618.53</ele>
      </trkpt>
      <trkpt lat="45.97171" lon="14.00739">
        <ele>619.51</ele>
      </trkpt>
      <trkpt lat="45.97185" lon="14.00737">
        <ele>620.82</ele>
      </trkpt>
      <trkpt lat="45.97207" lon="14.00739">
        <ele>624.57</ele>
      </trkpt>
      <trkpt lat="45.97232" lon="14.00733">
        <ele>626.9</ele>
      </trkpt>
      <trkpt lat="45.97249" lon="14.00735">
        <ele>631.52</ele>
      </trkpt>
      <trkpt lat="45.97255" lon="14.00734">
        <ele>632.34</ele>
      </trkpt>
      <trkpt lat="45.97264" lon="14.0073">
        <ele>632.84</ele>
      </trkpt>
      <trkpt lat="45.97275" lon="14.00721">
        <ele>632.29</ele>
      </trkpt>
      <trkpt lat="45.97296" lon="14.00713">
        <ele>636.14</ele>
      </trkpt>
      <trkpt lat="45.97303" lon="14.00708">
        <ele>637.14</ele>
      </trkpt>
      <trkpt lat="45.97312" lon="14.00698">
        <ele>637.3</ele>
      </trkpt>
      <trkpt lat="45.97329" lon="14.00691">
        <ele>640.02</ele>
      </trkpt>
      <trkpt lat="45.97344" lon="14.0069">
        <ele>640.62</ele>
      </trkpt>
      <trkpt lat="45.97348" lon="14.00693">
        <ele>641.16</ele>
      </trkpt>
      <trkpt lat="45.9735" lon="14.00701">
        <ele>641.68</ele>
      </trkpt>
      <trkpt lat="45.97349" lon="14.00712">
        <ele>642.26</ele>
      </trkpt>
      <trkpt lat="45.97346" lon="14.00718">
        <ele>642.93</ele>
      </trkpt>
      <trkpt lat="45.97344" lon="14.0073">
        <ele>644.88</ele>
      </trkpt>
      <trkpt lat="45.97339" lon="14.00742">
        <ele>646.77</ele>
      </trkpt>
      <trkpt lat="45.97331" lon="14.00756">
        <ele>647.91</ele>
      </trkpt>
      <trkpt lat="45.97316" lon="14.00756">
        <ele>646.83</ele>
      </trkpt>
      <trkpt lat="45.97296" lon="14.00778">
        <ele>649.01</ele>
      </trkpt>
      <trkpt lat="45.97278" lon="14.00777">
        <ele>646.83</ele>
      </trkpt>
      <trkpt lat="45.97261" lon="14.00791">
        <ele>646.91</ele>
      </trkpt>
      <trkpt lat="45.97246" lon="14.00797">
        <ele>646.55</ele>
      </trkpt>
      <trkpt lat="45.97233" lon="14.00805">
        <ele>646.77</ele>
      </trkpt>
      <trkpt lat="45.97222" lon="14.00808">
        <ele>645.97</ele>
      </trkpt>
      <trkpt lat="45.97191" lon="14.00808">
        <ele>646.22</ele>
      </trkpt>
      <trkpt lat="45.97187" lon="14.0081">
        <ele>646.25</ele>
      </trkpt>
      <trkpt lat="45.97182" lon="14.00814">
        <ele>646.78</ele>
      </trkpt>
      <trkpt lat="45.97173" lon="14.00829">
        <ele>650.32</ele>
      </trkpt>
      <trkpt lat="45.97174" lon="14.00844">
        <ele>654.86</ele>
      </trkpt>
      <trkpt lat="45.9719" lon="14.00885">
        <ele>665.82</ele>
      </trkpt>
      <trkpt lat="45.97197" lon="14.00892">
        <ele>668.01</ele>
      </trkpt>
      <trkpt lat="45.97213" lon="14.00897">
        <ele>671.6</ele>
      </trkpt>
      <trkpt lat="45.97221" lon="14.00909">
        <ele>674.71</ele>
      </trkpt>
      <trkpt lat="45.97223" lon="14.00917">
        <ele>676.0</ele>
      </trkpt>
      <trkpt lat="45.97225" lon="14.00935">
        <ele>680.25</ele>
      </trkpt>
      <trkpt lat="45.97214" lon="14.0097">
        <ele>682.22</ele>
      </trkpt>
      <trkpt lat="45.9721" lon="14.00999">
        <ele>679.11</ele>
      </trkpt>
      <trkpt lat="45.97211" lon="14.01024">
        <ele>680.08</ele>
      </trkpt>
      <trkpt lat="45.97223" lon="14.01036">
        <ele>682.6</ele>
      </trkpt>
      <trkpt lat="45.97217" lon="14.01053">
        <ele>684.31</ele>
      </trkpt>
      <trkpt lat="45.97217" lon="14.01073">
        <ele>684.57</ele>
      </trkpt>
      <trkpt lat="45.97219" lon="14.01093">
        <ele>685.11</ele>
      </trkpt>
      <trkpt lat="45.97226" lon="14.01104">
        <ele>686.88</ele>
      </trkpt>
      <trkpt lat="45.97244" lon="14.01117">
        <ele>691.32</ele>
      </trkpt>
      <trkpt lat="45.97254" lon="14.01126">
        <ele>693.19</ele>
      </trkpt>
      <trkpt lat="45.97261" lon="14.01129">
        <ele>694.45</ele>
      </trkpt>
      <trkpt lat="45.97279" lon="14.01141">
        <ele>697.99</ele>
      </trkpt>
      <trkpt lat="45.97287" lon="14.01142">
        <ele>699.32</ele>
      </trkpt>
      <trkpt lat="45.97292" lon="14.01144">
        <ele>700.01</ele>
      </trkpt>
      <trkpt lat="45.9731" lon="14.01148">
        <ele>703.72</ele>
      </trkpt>
      <trkpt lat="45.97331" lon="14.01155">
        <ele>710.8</ele>
      </trkpt>
      <trkpt lat="45.97342" lon="14.01155">
        <ele>715.26</ele>
      </trkpt>
      <trkpt lat="45.97354" lon="14.01158">
        <ele>720.27</ele>
      </trkpt>
      <trkpt lat="45.97361" lon="14.01158">
        <ele>723.33</ele>
      </trkpt>
      <trkpt lat="45.97377" lon="14.01152">
        <ele>726.11</ele>
      </trkpt>
      <trkpt lat="45.97384" lon="14.01145">
        <ele>727.2</ele>
      </trkpt>
      <trkpt lat="45.97384" lon="14.01155">
        <ele>727.63</ele>
      </trkpt>
      <trkpt lat="45.97394" lon="14.01152">
        <ele>729.38</ele>
      </trkpt>
      <trkpt lat="45.97398" lon="14.01167">
        <ele>730.99</ele>
      </trkpt>
      <trkpt lat="45.97408" lon="14.01179">
        <ele>733.71</ele>
      </trkpt>
      <trkpt lat="45.97412" lon="14.01192">
        <ele>735.06</ele>
      </trkpt>
      <trkpt lat="45.97417" lon="14.01238">
        <ele>741.5</ele>
      </trkpt>
      <trkpt lat="45.9742" lon="14.01245">
        <ele>741.75</ele>
      </trkpt>
      <trkpt lat="45.97427" lon="14.01251">
        <ele>742.28</ele>
      </trkpt>
      <trkpt lat="45.97437" lon="14.01257">
        <ele>742.72</ele>
      </trkpt>
      <trkpt lat="45.97443" lon="14.01257">
        <ele>743.74</ele>
      </trkpt>
      <trkpt lat="45.97468" lon="14.01243">
        <ele>751.34</ele>
      </trkpt>
      <trkpt lat="45.97491" lon="14.0124">
        <ele>749.55</ele>
      </trkpt>
      <trkpt lat="45.975" lon="14.01252">
        <ele>749.86</ele>
      </trkpt>
      <trkpt lat="45.97506" lon="14.01275">
        <ele>747.68</ele>
      </trkpt>
      <trkpt lat="45.97521" lon="14.0129">
        <ele>746.06</ele>
      </trkpt>
      <trkpt lat="45.97534" lon="14.01298">
        <ele>745.16</ele>
      </trkpt>
      <trkpt lat="45.9754" lon="14.01301">
        <ele>744.31</ele>
      </trkpt>
      <trkpt lat="45.9755" lon="14.01302">
        <ele>742.9</ele>
      </trkpt>
      <trkpt lat="45.97556" lon="14.01298">
        <ele>742.24</ele>
      </trkpt>
      <trkpt lat="45.97565" lon="14.01286">
        <ele>742.26</ele>
      </trkpt>
      <trkpt lat="45.97577" lon="14.01263">
        <ele>743.29</ele>
      </trkpt>
      <trkpt lat="45.97596" lon="14.0124">
        <ele>744.42</ele>
      </trkpt>
      <trkpt lat="45.97605" lon="14.01236">
        <ele>745.06</ele>
      </trkpt>
      <trkpt lat="45.97612" lon="14.01229">
        <ele>745.84</ele>
      </trkpt>
      <trkpt lat="45.97625" lon="14.01221">
        <ele>747.5</ele>
      </trkpt>
      <trkpt lat="45.97627" lon="14.01218">
        <ele>747.72</ele>
      </trkpt>
      <trkpt lat="45.97636" lon="14.01197">
        <ele>748.69</ele>
      </trkpt>
      <trkpt lat="45.9764" lon="14.01169">
        <ele>747.44</ele>
      </trkpt>
      <trkpt lat="45.97647" lon="14.01133">
        <ele>751.06</ele>
      </trkpt>
      <trkpt lat="45.97648" lon="14.01109">
        <ele>753.3</ele>
      </trkpt>
      <trkpt lat="45.97658" lon="14.0106">
        <ele>751.06</ele>
      </trkpt>
      <trkpt lat="45.97658" lon="14.01048">
        <ele>749.58</ele>
      </trkpt>
      <trkpt lat="45.9766" lon="14.01033">
        <ele>747.28</ele>
      </trkpt>
      <trkpt lat="45.97679" lon="14.00975">
        <ele>738.86</ele>
      </trkpt>
      <trkpt lat="45.97684" lon="14.00953">
        <ele>737.15</ele>
      </trkpt>
      <trkpt lat="45.97686" lon="14.00929">
        <ele>737.78</ele>
      </trkpt>
      <trkpt lat="45.97694" lon="14.009">
        <ele>737.9</ele>
      </trkpt>
      <trkpt lat="45.97701" lon="14.00854">
        <ele>734.23</ele>
      </trkpt>
      <trkpt lat="45.97712" lon="14.00817">
        <ele>732.95</ele>
      </trkpt>
      <trkpt lat="45.97712" lon="14.00792">
        <ele>733.46</ele>
      </trkpt>
      <trkpt lat="45.97705" lon="14.00763">
        <ele>736.37</ele>
      </trkpt>
      <trkpt lat="45.977" lon="14.00732">
        <ele>738.72</ele>
      </trkpt>
      <trkpt lat="45.97701" lon="14.00729">
        <ele>738.63</ele>
      </trkpt>
      <trkpt lat="45.97703" lon="14.00728">
        <ele>738.32</ele>
      </trkpt>
      <trkpt lat="45.97702" lon="14.00711">
        <ele>738.46</ele>
      </trkpt>
      <trkpt lat="45.97704" lon="14.00694">
        <ele>737.94</ele>
      </trkpt>
      <trkpt lat="45.97706" lon="14.0069">
        <ele>737.5</ele>
      </trkpt>
      <trkpt lat="45.97707" lon="14.00681">
        <ele>736.89</ele>
      </trkpt>
      <trkpt lat="45.97712" lon="14.00668">
        <ele>735.8</ele>
      </trkpt>
      <trkpt lat="45.9772" lon="14.00655">
        <ele>734.15</ele>
      </trkpt>
      <trkpt lat="45.97729" lon="14.00649">
        <ele>732.49</ele>
      </trkpt>
      <trkpt lat="45.97738" lon="14.0064">
        <ele>730.74</ele>
      </trkpt>
      <trkpt lat="45.97747" lon="14.00623">
        <ele>728.94</ele>
      </trkpt>
      <trkpt lat="45.97753" lon="14.00618">
        <ele>728.89</ele>
      </trkpt>
      <trkpt lat="45.97759" lon="14.00618">
        <ele>728.68</ele>
      </trkpt>
      <trkpt lat="45.97765" lon="14.00614">
        <ele>728.78</ele>
      </trkpt>
      <trkpt lat="45.97773" lon="14.00605">
        <ele>728.01</ele>
      </trkpt>
      <trkpt lat="45.97784" lon="14.00596">
        <ele>725.95</ele>
      </trkpt>
      <trkpt lat="45.97793" lon="14.00583">
        <ele>723.28</ele>
      </trkpt>
      <trkpt lat="45.97798" lon="14.0058">
        <ele>722.06</ele>
      </trkpt>
      <trkpt lat="45.97823" lon="14.00575">
        <ele>717.19</ele>
      </trkpt>
      <trkpt lat="45.97834" lon="14.0057">
        <ele>715.1</ele>
      </trkpt>
      <trkpt lat="45.9784" lon="14.00564">
        <ele>715.16</ele>
      </trkpt>
      <trkpt lat="45.97871" lon="14.00523">
        <ele>714.25</ele>
      </trkpt>
      <trkpt lat="45.97884" lon="14.00515">
        <ele>710.08</ele>
      </trkpt>
      <trkpt lat="45.97888" lon="14.00499">
        <ele>707.77</ele>
      </trkpt>
      <trkpt lat="45.97897" lon="14.00481">
        <ele>699.91</ele>
      </trkpt>
      <trkpt lat="45.97903" lon="14.00472">
        <ele>695.88</ele>
      </trkpt>
      <trkpt lat="45.97913" lon="14.00464">
        <ele>691.96</ele>
      </trkpt>
      <trkpt lat="45.97932" lon="14.00457">
        <ele>690.81</ele>
      </trkpt>
      <trkpt lat="45.97938" lon="14.00452">
        <ele>690.13</ele>
      </trkpt>
      <trkpt lat="45.97941" lon="14.00448">
        <ele>689.52</ele>
      </trkpt>
      <trkpt lat="45.97945" lon="14.00438">
        <ele>688.75</ele>
      </trkpt>
      <trkpt lat="45.97956" lon="14.00424">
        <ele>692.3</ele>
      </trkpt>
      <trkpt lat="45.97979" lon="14.004">
        <ele>702.48</ele>
      </trkpt>
      <trkpt lat="45.97992" lon="14.00391">
        <ele>709.02</ele>
      </trkpt>
      <trkpt lat="45.97997" lon="14.00385">
        <ele>711.97</ele>
      </trkpt>
      <trkpt lat="45.97999" lon="14.00379">
        <ele>713.56</ele>
      </trkpt>
      <trkpt lat="45.98005" lon="14.00374">
        <ele>717.78</ele>
      </trkpt>
      <trkpt lat="45.98007" lon="14.00367">
        <ele>719.99</ele>
      </trkpt>
      <trkpt lat="45.98013" lon="14.0036">
        <ele>725.05</ele>
      </trkpt>
      <trkpt lat="45.98018" lon="14.00341">
        <ele>731.64</ele>
      </trkpt>
      <trkpt lat="45.98021" lon="14.00336">
        <ele>734.91</ele>
      </trkpt>
      <trkpt lat="45.98021" lon="14.0033">
        <ele>735.6</ele>
      </trkpt>
      <trkpt lat="45.98024" lon="14.00324">
        <ele>738.5</ele>
      </trkpt>
      <trkpt lat="45.98029" lon="14.00302">
        <ele>743.85</ele>
      </trkpt>
      <trkpt lat="45.98028" lon="14.00298">
        <ele>744.15</ele>
      </trkpt>
      <trkpt lat="45.98031" lon="14.00289">
        <ele>746.54</ele>
      </trkpt>
      <trkpt lat="45.98029" lon="14.00269">
        <ele>747.93</ele>
      </trkpt>
      <trkpt lat="45.98031" lon="14.00261">
        <ele>749.42</ele>
      </trkpt>
      <trkpt lat="45.98038" lon="14.00243">
        <ele>754.56</ele>
      </trkpt>
      <trkpt lat="45.9804" lon="14.00221">
        <ele>755.95</ele>
      </trkpt>
      <trkpt lat="45.9805" lon="14.00209">
        <ele>764.81</ele>
      </trkpt>
      <trkpt lat="45.98053" lon="14.00199">
        <ele>768.43</ele>
      </trkpt>
      <trkpt lat="45.98057" lon="14.00194">
        <ele>771.02</ele>
      </trkpt>
      <trkpt lat="45.98058" lon="14.00185">
        <ele>771.52</ele>
      </trkpt>
      <trkpt lat="45.9806" lon="14.00182">
        <ele>771.88</ele>
      </trkpt>
      <trkpt lat="45.98063" lon="14.00157">
        <ele>773.98</ele>
      </trkpt>
      <trkpt lat="45.98068" lon="14.00133">
        <ele>776.81</ele>
      </trkpt>
      <trkpt lat="45.98091" lon="14.001">
        <ele>787.08</ele>
      </trkpt>
      <trkpt lat="45.98105" lon="14.00074">
        <ele>795.55</ele>
      </trkpt>
      <trkpt lat="45.98112" lon="14.00067">
        <ele>798.92</ele>
      </trkpt>
      <trkpt lat="45.98128" lon="14.00059">
        <ele>799.01</ele>
      </trkpt>
      <trkpt lat="45.98139" lon="14.00047">
        <ele>799.52</ele>
      </trkpt>
      <trkpt lat="45.98152" lon="14.00042">
        <ele>797.41</ele>
      </trkpt>
      <trkpt lat="45.98161" lon="14.00034">
        <ele>795.17</ele>
      </trkpt>
      <trkpt lat="45.98164" lon="14.0003">
        <ele>794.07</ele>
      </trkpt>
      <trkpt lat="45.98178" lon="14.00025">
        <ele>795.04</ele>
      </trkpt>
      <trkpt lat="45.98183" lon="14.00018">
        <ele>797.09</ele>
      </trkpt>
      <trkpt lat="45.98188" lon="14.00003">
        <ele>801.28</ele>
      </trkpt>
      <trkpt lat="45.98199" lon="13.99992">
        <ele>805.42</ele>
      </trkpt>
      <trkpt lat="45.98214" lon="13.99981">
        <ele>808.16</ele>
      </trkpt>
      <trkpt lat="45.98223" lon="13.99969">
        <ele>811.31</ele>
      </trkpt>
      <trkpt lat="45.98246" lon="13.99953">
        <ele>811.0</ele>
      </trkpt>
      <trkpt lat="45.98266" lon="13.99953">
        <ele>807.43</ele>
      </trkpt>
      <trkpt lat="45.98276" lon="13.99947">
        <ele>806.82</ele>
      </trkpt>
      <trkpt lat="45.98284" lon="13.99935">
        <ele>807.55</ele>
      </trkpt>
      <trkpt lat="45.9829" lon="13.99929">
        <ele>807.79</ele>
      </trkpt>
      <trkpt lat="45.98294" lon="13.99921">
        <ele>809.36</ele>
      </trkpt>
      <trkpt lat="45.98298" lon="13.99917">
        <ele>809.98</ele>
      </trkpt>
      <trkpt lat="45.98304" lon="13.99901">
        <ele>811.54</ele>
      </trkpt>
      <trkpt lat="45.98313" lon="13.99898">
        <ele>807.58</ele>
      </trkpt>
      <trkpt lat="45.98319" lon="13.99893">
        <ele>804.81</ele>
      </trkpt>
      <trkpt lat="45.98332" lon="13.99894">
        <ele>797.38</ele>
      </trkpt>
      <trkpt lat="45.98338" lon="13.99893">
        <ele>795.7</ele>
      </trkpt>
      <trkpt lat="45.98351" lon="13.99884">
        <ele>795.86</ele>
      </trkpt>
      <trkpt lat="45.98371" lon="13.99873">
        <ele>798.54</ele>
      </trkpt>
      <trkpt lat="45.98385" lon="13.99851">
        <ele>807.39</ele>
      </trkpt>
      <trkpt lat="45.98391" lon="13.99833">
        <ele>812.74</ele>
      </trkpt>
      <trkpt lat="45.98408" lon="13.99814">
        <ele>816.04</ele>
      </trkpt>
      <trkpt lat="45.98416" lon="13.99799">
        <ele>819.28</ele>
      </trkpt>
      <trkpt lat="45.98423" lon="13.99793">
        <ele>819.49</ele>
      </trkpt>
      <trkpt lat="45.98435" lon="13.99789">
        <ele>817.62</ele>
      </trkpt>
      <trkpt lat="45.98451" lon="13.99789">
        <ele>813.24</ele>
      </trkpt>
      <trkpt lat="45.98459" lon="13.99783">
        <ele>812.17</ele>
      </trkpt>
      <trkpt lat="45.98465" lon="13.99776">
        <ele>811.77</ele>
      </trkpt>
      <trkpt lat="45.98471" lon="13.99747">
        <ele>816.09</ele>
      </trkpt>
      <trkpt lat="45.98483" lon="13.99726">
        <ele>815.49</ele>
      </trkpt>
      <trkpt lat="45.98484" lon="13.9972">
        <ele>816.47</ele>
      </trkpt>
      <trkpt lat="45.98483" lon="13.99692">
        <ele>825.78</ele>
      </trkpt>
      <trkpt lat="45.98485" lon="13.99684">
        <ele>828.08</ele>
      </trkpt>
      <trkpt lat="45.98487" lon="13.99681">
        <ele>828.58</ele>
      </trkpt>
      <trkpt lat="45.98506" lon="13.99676">
        <ele>825.13</ele>
      </trkpt>
      <trkpt lat="45.98511" lon="13.99676">
        <ele>823.86</ele>
      </trkpt>
      <trkpt lat="45.98517" lon="13.99681">
        <ele>820.22</ele>
      </trkpt>
      <trkpt lat="45.98526" lon="13.99692">
        <ele>812.7</ele>
      </trkpt>
      <trkpt lat="45.98533" lon="13.99698">
        <ele>811.01</ele>
      </trkpt>
      <trkpt lat="45.98542" lon="13.99702">
        <ele>811.56</ele>
      </trkpt>
      <trkpt lat="45.98551" lon="13.99705">
        <ele>812.38</ele>
      </trkpt>
      <trkpt lat="45.98555" lon="13.99702">
        <ele>813.55</ele>
      </trkpt>
      <trkpt lat="45.98573" lon="13.99683">
        <ele>812.86</ele>
      </trkpt>
      <trkpt lat="45.98579" lon="13.99682">
        <ele>811.38</ele>
      </trkpt>
      <trkpt lat="45.98593" lon="13.99686">
        <ele>808.67</ele>
      </trkpt>
      <trkpt lat="45.98601" lon="13.99684">
        <ele>808.76</ele>
      </trkpt>
      <trkpt lat="45.98611" lon="13.99674">
        <ele>810.42</ele>
      </trkpt>
      <trkpt lat="45.98619" lon="13.99663">
        <ele>813.06</ele>
      </trkpt>
      <trkpt lat="45.98634" lon="13.99659">
        <ele>814.21</ele>
      </trkpt>
      <trkpt lat="45.98646" lon="13.99651">
        <ele>814.8</ele>
      </trkpt>
      <trkpt lat="45.98665" lon="13.99653">
        <ele>809.85</ele>
      </trkpt>
      <trkpt lat="45.98678" lon="13.9965">
        <ele>807.55</ele>
      </trkpt>
      <trkpt lat="45.98687" lon="13.99652">
        <ele>805.25</ele>
      </trkpt>
      <trkpt lat="45.98694" lon="13.99655">
        <ele>803.2</ele>
      </trkpt>
      <trkpt lat="45.98699" lon="13.99668">
        <ele>802.96</ele>
      </trkpt>
      <trkpt lat="45.98702" lon="13.99669">
        <ele>804.19</ele>
      </trkpt>
      <trkpt lat="45.98711" lon="13.99659">
        <ele>808.32</ele>
      </trkpt>
      <trkpt lat="45.98709" lon="13.99658">
        <ele>807.57</ele>
      </trkpt>
      <trkpt lat="45.98708" lon="13.99655">
        <ele>807.19</ele>
      </trkpt>
      <trkpt lat="45.98708" lon="13.99646">
        <ele>807.07</ele>
      </trkpt>
      <trkpt lat="45.98705" lon="13.99632">
        <ele>807.32</ele>
      </trkpt>
      <trkpt lat="45.98706" lon="13.99625">
        <ele>807.92</ele>
      </trkpt>
      <trkpt lat="45.98712" lon="13.99616">
        <ele>808.69</ele>
      </trkpt>
      <trkpt lat="45.98714" lon="13.99613">
        <ele>808.89</ele>
      </trkpt>
      <trkpt lat="45.98724" lon="13.9961">
        <ele>809.09</ele>
      </trkpt>
      <trkpt lat="45.98731" lon="13.99612">
        <ele>809.92</ele>
      </trkpt>
      <trkpt lat="45.98735" lon="13.99605">
        <ele>809.13</ele>
      </trkpt>
      <trkpt lat="45.98737" lon="13.99604">
        <ele>808.99</ele>
      </trkpt>
      <trkpt lat="45.98739" lon="13.99605">
        <ele>809.31</ele>
      </trkpt>
      <trkpt lat="45.98743" lon="13.99601">
        <ele>808.34</ele>
      </trkpt>
      <trkpt lat="45.98747" lon="13.996">
        <ele>808.02</ele>
      </trkpt>
      <trkpt lat="45.98751" lon="13.99602">
        <ele>808.5</ele>
      </trkpt>
      <trkpt lat="45.98757" lon="13.99609">
        <ele>809.34</ele>
      </trkpt>
      <trkpt lat="45.98761" lon="13.99617">
        <ele>809.21</ele>
      </trkpt>
      <trkpt lat="45.9876" lon="13.99622">
        <ele>809.72</ele>
      </trkpt>
      <trkpt lat="45.98753" lon="13.99638">
        <ele>810.9</ele>
      </trkpt>
      <trkpt lat="45.9874" lon="13.99648">
        <ele>811.68</ele>
      </trkpt>
      <trkpt lat="45.9874" lon="13.9966">
        <ele>813.99</ele>
      </trkpt>
      <trkpt lat="45.98736" lon="13.99672">
        <ele>813.84</ele>
      </trkpt>
      <trkpt lat="45.98737" lon="13.9968">
        <ele>812.21</ele>
      </trkpt>
      <trkpt lat="45.98738" lon="13.99687">
        <ele>810.84</ele>
      </trkpt>
      <trkpt lat="45.98743" lon="13.99697">
        <ele>809.49</ele>
      </trkpt>
      <trkpt lat="45.98759" lon="13.99722">
        <ele>805.05</ele>
      </trkpt>
      <trkpt lat="45.98764" lon="13.99738">
        <ele>802.73</ele>
      </trkpt>
      <trkpt lat="45.98765" lon="13.99747">
        <ele>801.5</ele>
      </trkpt>
      <trkpt lat="45.98762" lon="13.99763">
        <ele>799.67</ele>
      </trkpt>
      <trkpt lat="45.98757" lon="13.99782">
        <ele>797.28</ele>
      </trkpt>
      <trkpt lat="45.98727" lon="13.99827">
        <ele>792.08</ele>
      </trkpt>
      <trkpt lat="45.98722" lon="13.99838">
        <ele>789.8</ele>
      </trkpt>
      <trkpt lat="45.98722" lon="13.99849">
        <ele>789.4</ele>
      </trkpt>
      <trkpt lat="45.98718" lon="13.99889">
        <ele>788.55</ele>
      </trkpt>
      <trkpt lat="45.98728" lon="13.99912">
        <ele>791.85</ele>
      </trkpt>
      <trkpt lat="45.9872" lon="13.99927">
        <ele>790.68</ele>
      </trkpt>
      <trkpt lat="45.98713" lon="13.99942">
        <ele>789.67</ele>
      </trkpt>
      <trkpt lat="45.98707" lon="13.99963">
        <ele>788.57</ele>
      </trkpt>
      <trkpt lat="45.98709" lon="13.99978">
        <ele>788.32</ele>
      </trkpt>
      <trkpt lat="45.98704" lon="14.00008">
        <ele>786.87</ele>
      </trkpt>
      <trkpt lat="45.98701" lon="14.00048">
        <ele>785.47</ele>
      </trkpt>
      <trkpt lat="45.98707" lon="14.00069">
        <ele>781.94</ele>
      </trkpt>
      <trkpt lat="45.98723" lon="14.00121">
        <ele>774.69</ele>
      </trkpt>
      <trkpt lat="45.98726" lon="14.00134">
        <ele>772.16</ele>
      </trkpt>
      <trkpt lat="45.98725" lon="14.00148">
        <ele>769.68</ele>
      </trkpt>
      <trkpt lat="45.98718" lon="14.00176">
        <ele>765.7</ele>
      </trkpt>
      <trkpt lat="45.98716" lon="14.00202">
        <ele>763.89</ele>
      </trkpt>
      <trkpt lat="45.98717" lon="14.00211">
        <ele>763.49</ele>
      </trkpt>
      <trkpt lat="45.98721" lon="14.00221">
        <ele>763.78</ele>
      </trkpt>
      <trkpt lat="45.98733" lon="14.00239">
        <ele>767.47</ele>
      </trkpt>
      <trkpt lat="45.9874" lon="14.00255">
        <ele>770.07</ele>
      </trkpt>
      <trkpt lat="45.98746" lon="14.00286">
        <ele>773.73</ele>
      </trkpt>
      <trkpt lat="45.98757" lon="14.0032">
        <ele>774.45</ele>
      </trkpt>
      <trkpt lat="45.98748" lon="14.00398">
        <ele>756.45</ele>
      </trkpt>
      <trkpt lat="45.98749" lon="14.00418">
        <ele>756.63</ele>
      </trkpt>
      <trkpt lat="45.98743" lon="14.00436">
        <ele>753.86</ele>
      </trkpt>
      <trkpt lat="45.98738" lon="14.00466">
        <ele>749.25</ele>
      </trkpt>
      <trkpt lat="45.9873" lon="14.00478">
        <ele>746.01</ele>
      </trkpt>
      <trkpt lat="45.98703" lon="14.00512">
        <ele>742.09</ele>
      </trkpt>
      <trkpt lat="45.98676" lon="14.00524">
        <ele>739.87</ele>
      </trkpt>
      <trkpt lat="45.98654" lon="14.00539">
        <ele>733.87</ele>
      </trkpt>
      <trkpt lat="45.98635" lon="14.00559">
        <ele>726.12</ele>
      </trkpt>
      <trkpt lat="45.98632" lon="14.0057">
        <ele>723.97</ele>
      </trkpt>
      <trkpt lat="45.98633" lon="14.00628">
        <ele>718.74</ele>
      </trkpt>
      <trkpt lat="45.98626" lon="14.00658">
        <ele>709.69</ele>
      </trkpt>
      <trkpt lat="45.9862" lon="14.00662">
        <ele>706.49</ele>
      </trkpt>
      <trkpt lat="45.98615" lon="14.00679">
        <ele>700.11</ele>
      </trkpt>
      <trkpt lat="45.98592" lon="14.00712">
        <ele>687.32</ele>
      </trkpt>
      <trkpt lat="45.9859" lon="14.00712">
        <ele>686.98</ele>
      </trkpt>
      <trkpt lat="45.98587" lon="14.00716">
        <ele>685.71</ele>
      </trkpt>
      <trkpt lat="45.98579" lon="14.00713">
        <ele>684.93</ele>
      </trkpt>
      <trkpt lat="45.98576" lon="14.00713">
        <ele>684.43</ele>
      </trkpt>
      <trkpt lat="45.98573" lon="14.00716">
        <ele>683.59</ele>
      </trkpt>
      <trkpt lat="45.98567" lon="14.00732">
        <ele>680.41</ele>
      </trkpt>
      <trkpt lat="45.98554" lon="14.00737">
        <ele>677.32</ele>
      </trkpt>
      <trkpt lat="45.98551" lon="14.00739">
        <ele>676.04</ele>
      </trkpt>
      <trkpt lat="45.98549" lon="14.00743">
        <ele>674.86</ele>
      </trkpt>
      <trkpt lat="45.98546" lon="14.00755">
        <ele>672.98</ele>
      </trkpt>
      <trkpt lat="45.98537" lon="14.00763">
        <ele>671.04</ele>
      </trkpt>
      <trkpt lat="45.9853" lon="14.00767">
        <ele>669.74</ele>
      </trkpt>
      <trkpt lat="45.98518" lon="14.00794">
        <ele>662.25</ele>
      </trkpt>
      <trkpt lat="45.98509" lon="14.00803">
        <ele>659.93</ele>
      </trkpt>
      <trkpt lat="45.98506" lon="14.00809">
        <ele>659.51</ele>
      </trkpt>
      <trkpt lat="45.98503" lon="14.00822">
        <ele>659.0</ele>
      </trkpt>
      <trkpt lat="45.98504" lon="14.00834">
        <ele>658.48</ele>
      </trkpt>
      <trkpt lat="45.98508" lon="14.00841">
        <ele>656.02</ele>
      </trkpt>
      <trkpt lat="45.98518" lon="14.00849">
        <ele>654.42</ele>
      </trkpt>
      <trkpt lat="45.98521" lon="14.00861">
        <ele>652.56</ele>
      </trkpt>
      <trkpt lat="45.9852" lon="14.0087">
        <ele>651.08</ele>
      </trkpt>
      <trkpt lat="45.98513" lon="14.00882">
        <ele>648.65</ele>
      </trkpt>
      <trkpt lat="45.98512" lon="14.00886">
        <ele>648.15</ele>
      </trkpt>
      <trkpt lat="45.98522" lon="14.00893">
        <ele>648.79</ele>
      </trkpt>
      <trkpt lat="45.98526" lon="14.009">
        <ele>649.6</ele>
      </trkpt>
      <trkpt lat="45.98533" lon="14.00915">
        <ele>650.01</ele>
      </trkpt>
      <trkpt lat="45.98533" lon="14.00922">
        <ele>649.76</ele>
      </trkpt>
      <trkpt lat="45.98531" lon="14.00935">
        <ele>649.53</ele>
      </trkpt>
      <trkpt lat="45.98532" lon="14.00938">
        <ele>649.12</ele>
      </trkpt>
      <trkpt lat="45.98527" lon="14.00946">
        <ele>649.75</ele>
      </trkpt>
      <trkpt lat="45.98516" lon="14.00971">
        <ele>647.08</ele>
      </trkpt>
      <trkpt lat="45.98514" lon="14.00983">
        <ele>646.99</ele>
      </trkpt>
      <trkpt lat="45.98506" lon="14.01018">
        <ele>648.36</ele>
      </trkpt>
      <trkpt lat="45.98504" lon="14.01032">
        <ele>648.84</ele>
      </trkpt>
      <trkpt lat="45.98505" lon="14.01038">
        <ele>648.37</ele>
      </trkpt>
      <trkpt lat="45.98507" lon="14.01042">
        <ele>647.72</ele>
      </trkpt>
      <trkpt lat="45.98523" lon="14.01056">
        <ele>643.17</ele>
      </trkpt>
      <trkpt lat="45.98542" lon="14.01077">
        <ele>633.05</ele>
      </trkpt>
      <trkpt lat="45.9855" lon="14.01092">
        <ele>629.11</ele>
      </trkpt>
      <trkpt lat="45.98552" lon="14.011">
        <ele>628.39</ele>
      </trkpt>
      <trkpt lat="45.9855" lon="14.01114">
        <ele>630.15</ele>
      </trkpt>
      <trkpt lat="45.98539" lon="14.01159">
        <ele>638.14</ele>
      </trkpt>
      <trkpt lat="45.98538" lon="14.01173">
        <ele>639.06</ele>
      </trkpt>
      <trkpt lat="45.98535" lon="14.01179">
        <ele>640.43</ele>
      </trkpt>
      <trkpt lat="45.98538" lon="14.01186">
        <ele>639.82</ele>
      </trkpt>
      <trkpt lat="45.98541" lon="14.01203">
        <ele>639.84</ele>
      </trkpt>
      <trkpt lat="45.98541" lon="14.01237">
        <ele>643.02</ele>
      </trkpt>
      <trkpt lat="45.98549" lon="14.01272">
        <ele>648.16</ele>
      </trkpt>
      <trkpt lat="45.9855" lon="14.01281">
        <ele>650.05</ele>
      </trkpt>
      <trkpt lat="45.98555" lon="14.01296">
        <ele>652.36</ele>
      </trkpt>
      <trkpt lat="45.98553" lon="14.01305">
        <ele>654.35</ele>
      </trkpt>
      <trkpt lat="45.98545" lon="14.01331">
        <ele>661.3</ele>
      </trkpt>
      <trkpt lat="45.9854" lon="14.01345">
        <ele>665.75</ele>
      </trkpt>
      <trkpt lat="45.98539" lon="14.01349">
        <ele>666.89</ele>
      </trkpt>
      <trkpt lat="45.98539" lon="14.01359">
        <ele>668.76</ele>
      </trkpt>
      <trkpt lat="45.98547" lon="14.01401">
        <ele>671.77</ele>
      </trkpt>
      <trkpt lat="45.98548" lon="14.01424">
        <ele>674.14</ele>
      </trkpt>
      <trkpt lat="45.98552" lon="14.01434">
        <ele>674.32</ele>
      </trkpt>
      <trkpt lat="45.98557" lon="14.01442">
        <ele>674.55</ele>
      </trkpt>
      <trkpt lat="45.98567" lon="14.0145">
        <ele>674.66</ele>
      </trkpt>
      <trkpt lat="45.98577" lon="14.01462">
        <ele>676.88</ele>
      </trkpt>
      <trkpt lat="45.98588" lon="14.01469">
        <ele>678.01</ele>
      </trkpt>
      <trkpt lat="45.98606" lon="14.01489">
        <ele>677.9</ele>
      </trkpt>
      <trkpt lat="45.98612" lon="14.01494">
        <ele>677.56</ele>
      </trkpt>
      <trkpt lat="45.98614" lon="14.01497">
        <ele>677.3</ele>
      </trkpt>
      <trkpt lat="45.98617" lon="14.01508">
        <ele>678.17</ele>
      </trkpt>
      <trkpt lat="45.98616" lon="14.01542">
        <ele>684.47</ele>
      </trkpt>
      <trkpt lat="45.98617" lon="14.01571">
        <ele>686.78</ele>
      </trkpt>
      <trkpt lat="45.98608" lon="14.01639">
        <ele>681.54</ele>
      </trkpt>
      <trkpt lat="45.9861" lon="14.01722">
        <ele>673.05</ele>
      </trkpt>
      <trkpt lat="45.98613" lon="14.01757">
        <ele>674.2</ele>
      </trkpt>
      <trkpt lat="45.98617" lon="14.01776">
        <ele>672.65</ele>
      </trkpt>
      <trkpt lat="45.98631" lon="14.01798">
        <ele>667.96</ele>
      </trkpt>
      <trkpt lat="45.98641" lon="14.01817">
        <ele>664.89</ele>
      </trkpt>
      <trkpt lat="45.98656" lon="14.01868">
        <ele>655.58</ele>
      </trkpt>
      <trkpt lat="45.98678" lon="14.01928">
        <ele>641.6</ele>
      </trkpt>
      <trkpt lat="45.98692" lon="14.01953">
        <ele>636.64</ele>
      </trkpt>
      <trkpt lat="45.98701" lon="14.01976">
        <ele>632.51</ele>
      </trkpt>
      <trkpt lat="45.98718" lon="14.02004">
        <ele>625.83</ele>
      </trkpt>
      <trkpt lat="45.98739" lon="14.02044">
        <ele>621.58</ele>
      </trkpt>
      <trkpt lat="45.98738" lon="14.02045">
        <ele>621.54</ele>
      </trkpt>
      <trkpt lat="45.98745" lon="14.02084">
        <ele>619.96</ele>
      </trkpt>
      <trkpt lat="45.98759" lon="14.02122">
        <ele>617.49</ele>
      </trkpt>
      <trkpt lat="45.9876" lon="14.02139">
        <ele>617.56</ele>
      </trkpt>
      <trkpt lat="45.98767" lon="14.02179">
        <ele>617.88</ele>
      </trkpt>
      <trkpt lat="45.98777" lon="14.02204">
        <ele>617.67</ele>
      </trkpt>
      <trkpt lat="45.9879" lon="14.02217">
        <ele>615.01</ele>
      </trkpt>
      <trkpt lat="45.98815" lon="14.02232">
        <ele>612.47</ele>
      </trkpt>
      <trkpt lat="45.98843" lon="14.02246">
        <ele>613.93</ele>
      </trkpt>
      <trkpt lat="45.98884" lon="14.02258">
        <ele>618.9</ele>
      </trkpt>
      <trkpt lat="45.98909" lon="14.02272">
        <ele>622.48</ele>
      </trkpt>
      <trkpt lat="45.98927" lon="14.02286">
        <ele>622.11</ele>
      </trkpt>
      <trkpt lat="45.98952" lon="14.02313">
        <ele>616.91</ele>
      </trkpt>
      <trkpt lat="45.98968" lon="14.02334">
        <ele>610.45</ele>
      </trkpt>
      <trkpt lat="45.98979" lon="14.02341">
        <ele>605.94</ele>
      </trkpt>
      <trkpt lat="45.98986" lon="14.02341">
        <ele>603.74</ele>
      </trkpt>
      <trkpt lat="45.99006" lon="14.02337">
        <ele>598.88</ele>
      </trkpt>
      <trkpt lat="45.99018" lon="14.02332">
        <ele>597.3</ele>
      </trkpt>
      <trkpt lat="45.99031" lon="14.02322">
        <ele>595.61</ele>
      </trkpt>
      <trkpt lat="45.99048" lon="14.02296">
        <ele>591.31</ele>
      </trkpt>
      <trkpt lat="45.99052" lon="14.02294">
        <ele>589.61</ele>
      </trkpt>
      <trkpt lat="45.99056" lon="14.02296">
        <ele>588.07</ele>
      </trkpt>
      <trkpt lat="45.99062" lon="14.02306">
        <ele>585.26</ele>
      </trkpt>
      <trkpt lat="45.9906" lon="14.02326">
        <ele>585.09</ele>
      </trkpt>
      <trkpt lat="45.99056" lon="14.02337">
        <ele>586.11</ele>
      </trkpt>
      <trkpt lat="45.99043" lon="14.0236">
        <ele>584.95</ele>
      </trkpt>
      <trkpt lat="45.99038" lon="14.02373">
        <ele>583.38</ele>
      </trkpt>
      <trkpt lat="45.99037" lon="14.02378">
        <ele>582.56</ele>
      </trkpt>
      <trkpt lat="45.99049" lon="14.02411">
        <ele>576.21</ele>
      </trkpt>
      <trkpt lat="45.99056" lon="14.02459">
        <ele>578.44</ele>
      </trkpt>
      <trkpt lat="45.99062" lon="14.02475">
        <ele>578.26</ele>
      </trkpt>
      <trkpt lat="45.99067" lon="14.02483">
        <ele>577.5</ele>
      </trkpt>
      <trkpt lat="45.99071" lon="14.02486">
        <ele>576.93</ele>
      </trkpt>
      <trkpt lat="45.99076" lon="14.02487">
        <ele>576.07</ele>
      </trkpt>
      <trkpt lat="45.99079" lon="14.02486">
        <ele>575.34</ele>
      </trkpt>
      <trkpt lat="45.99088" lon="14.02479">
        <ele>572.51</ele>
      </trkpt>
      <trkpt lat="45.99095" lon="14.02477">
        <ele>571.11</ele>
      </trkpt>
      <trkpt lat="45.99113" lon="14.02477">
        <ele>568.6</ele>
      </trkpt>
      <trkpt lat="45.99126" lon="14.02474">
        <ele>567.65</ele>
      </trkpt>
      <trkpt lat="45.99137" lon="14.02477">
        <ele>567.44</ele>
      </trkpt>
      <trkpt lat="45.99158" lon="14.0249">
        <ele>571.09</ele>
      </trkpt>
      <trkpt lat="45.99177" lon="14.02507">
        <ele>571.67</ele>
      </trkpt>
      <trkpt lat="45.99201" lon="14.02524">
        <ele>569.5</ele>
      </trkpt>
      <trkpt lat="45.9922" lon="14.02541">
        <ele>566.95</ele>
      </trkpt>
      <trkpt lat="45.99253" lon="14.02561">
        <ele>564.08</ele>
      </trkpt>
      <trkpt lat="45.99259" lon="14.02572">
        <ele>561.23</ele>
      </trkpt>
      <trkpt lat="45.99261" lon="14.02578">
        <ele>560.1</ele>
      </trkpt>
      <trkpt lat="45.99261" lon="14.0261">
        <ele>552.26</ele>
      </trkpt>
      <trkpt lat="45.99264" lon="14.02614">
        <ele>551.69</ele>
      </trkpt>
      <trkpt lat="45.99276" lon="14.02625">
        <ele>550.68</ele>
      </trkpt>
      <trkpt lat="45.99284" lon="14.02629">
        <ele>551.19</ele>
      </trkpt>
      <trkpt lat="45.99292" lon="14.0263">
        <ele>552.63</ele>
      </trkpt>
      <trkpt lat="45.99319" lon="14.0264">
        <ele>553.16</ele>
      </trkpt>
      <trkpt lat="45.99339" lon="14.02638">
        <ele>553.78</ele>
      </trkpt>
      <trkpt lat="45.99345" lon="14.02639">
        <ele>553.13</ele>
      </trkpt>
      <trkpt lat="45.99362" lon="14.02647">
        <ele>549.66</ele>
      </trkpt>
      <trkpt lat="45.99392" lon="14.02647">
        <ele>538.78</ele>
      </trkpt>
      <trkpt lat="45.99415" lon="14.02637">
        <ele>525.66</ele>
      </trkpt>
      <trkpt lat="45.99431" lon="14.02627">
        <ele>520.95</ele>
      </trkpt>
      <trkpt lat="45.9944" lon="14.02615">
        <ele>521.27</ele>
      </trkpt>
      <trkpt lat="45.9946" lon="14.02579">
        <ele>524.69</ele>
      </trkpt>
      <trkpt lat="45.99465" lon="14.02573">
        <ele>524.13</ele>
      </trkpt>
      <trkpt lat="45.99471" lon="14.0257">
        <ele>522.79</ele>
      </trkpt>
      <trkpt lat="45.99481" lon="14.02571">
        <ele>516.47</ele>
      </trkpt>
      <trkpt lat="45.99498" lon="14.02574">
        <ele>503.78</ele>
      </trkpt>
      <trkpt lat="45.99521" lon="14.02585">
        <ele>487.04</ele>
      </trkpt>
      <trkpt lat="45.99535" lon="14.02589">
        <ele>479.09</ele>
      </trkpt>
      <trkpt lat="45.99547" lon="14.02584">
        <ele>473.54</ele>
      </trkpt>
      <trkpt lat="45.9956" lon="14.02576">
        <ele>469.2</ele>
      </trkpt>
      <trkpt lat="45.9958" lon="14.02574">
        <ele>461.95</ele>
      </trkpt>
      <trkpt lat="45.99588" lon="14.02562">
        <ele>459.55</ele>
      </trkpt>
      <trkpt lat="45.99594" lon="14.02558">
        <ele>457.0</ele>
      </trkpt>
      <trkpt lat="45.99598" lon="14.02558">
        <ele>455.19</ele>
      </trkpt>
      <trkpt lat="45.99615" lon="14.02567">
        <ele>450.39</ele>
      </trkpt>
      <trkpt lat="45.99643" lon="14.02586">
        <ele>449.56</ele>
      </trkpt>
      <trkpt lat="45.99649" lon="14.02589">
        <ele>449.81</ele>
      </trkpt>
      <trkpt lat="45.99672" lon="14.02577">
        <ele>447.61</ele>
      </trkpt>
      <trkpt lat="45.99691" lon="14.02569">
        <ele>436.15</ele>
      </trkpt>
      <trkpt lat="45.99702" lon="14.02568">
        <ele>431.19</ele>
      </trkpt>
      <trkpt lat="45.99708" lon="14.02564">
        <ele>427.77</ele>
      </trkpt>
      <trkpt lat="45.99712" lon="14.0256">
        <ele>424.99</ele>
      </trkpt>
      <trkpt lat="45.99714" lon="14.02546">
        <ele>419.55</ele>
      </trkpt>
      <trkpt lat="45.99704" lon="14.02541">
        <ele>422.12</ele>
      </trkpt>
      <trkpt lat="45.99699" lon="14.02538">
        <ele>423.12</ele>
      </trkpt>
      <trkpt lat="45.99695" lon="14.02533">
        <ele>422.84</ele>
      </trkpt>
      <trkpt lat="45.99701" lon="14.02529">
        <ele>418.87</ele>
      </trkpt>
      <trkpt lat="45.99706" lon="14.02516">
        <ele>412.78</ele>
      </trkpt>
      <trkpt lat="45.99712" lon="14.02508">
        <ele>408.09</ele>
      </trkpt>
      <trkpt lat="45.99722" lon="14.02501">
        <ele>402.37</ele>
      </trkpt>
      <trkpt lat="45.9973" lon="14.02498">
        <ele>401.29</ele>
      </trkpt>
      <trkpt lat="45.99748" lon="14.02497">
        <ele>400.42</ele>
      </trkpt>
      <trkpt lat="45.99755" lon="14.02495">
        <ele>399.38</ele>
      </trkpt>
      <trkpt lat="45.99757" lon="14.02473">
        <ele>394.41</ele>
      </trkpt>
      <trkpt lat="45.99759" lon="14.02469">
        <ele>393.33</ele>
      </trkpt>
      <trkpt lat="45.99763" lon="14.02468">
        <ele>392.68</ele>
      </trkpt>
      <trkpt lat="45.99782" lon="14.02474">
        <ele>391.75</ele>
      </trkpt>
      <trkpt lat="45.99787" lon="14.02474">
        <ele>390.99</ele>
      </trkpt>
      <trkpt lat="45.99813" lon="14.02463">
        <ele>386.63</ele>
      </trkpt>
      <trkpt lat="45.99824" lon="14.02456">
        <ele>385.71</ele>
      </trkpt>
      <trkpt lat="45.99831" lon="14.02449">
        <ele>384.2</ele>
      </trkpt>
      <trkpt lat="45.99845" lon="14.02429">
        <ele>377.2</ele>
      </trkpt>
      <trkpt lat="45.99863" lon="14.02406">
        <ele>370.03</ele>
      </trkpt>
      <trkpt lat="45.99868" lon="14.02403">
        <ele>368.45</ele>
      </trkpt>
      <trkpt lat="45.99882" lon="14.02398">
        <ele>364.52</ele>
      </trkpt>
      <trkpt lat="45.99889" lon="14.02393">
        <ele>361.47</ele>
      </trkpt>
      <trkpt lat="45.99905" lon="14.02384">
        <ele>357.56</ele>
      </trkpt>
      <trkpt lat="45.99913" lon="14.02377">
        <ele>355.68</ele>
      </trkpt>
      <trkpt lat="45.99923" lon="14.02377">
        <ele>354.38</ele>
      </trkpt>
      <trkpt lat="45.99946" lon="14.0237">
        <ele>350.15</ele>
      </trkpt>
      <trkpt lat="45.9996" lon="14.02359">
        <ele>347.58</ele>
      </trkpt>
      <trkpt lat="45.99968" lon="14.02362">
        <ele>347.4</ele>
      </trkpt>
      <trkpt lat="45.99996" lon="14.02374">
        <ele>347.14</ele>
      </trkpt>
      <trkpt lat="46.00001" lon="14.02374">
        <ele>346.97</ele>
      </trkpt>
      <trkpt lat="46.00004" lon="14.02372">
        <ele>346.96</ele>
      </trkpt>
      <trkpt lat="46.00014" lon="14.02356">
        <ele>346.64</ele>
      </trkpt>
      <trkpt lat="46.00022" lon="14.02338">
        <ele>346.41</ele>
      </trkpt>
      <trkpt lat="46.00025" lon="14.02327">
        <ele>346.17</ele>
      </trkpt>
      <trkpt lat="46.00026" lon="14.02319">
        <ele>345.75</ele>
      </trkpt>
      <trkpt lat="46.00014" lon="14.02305">
        <ele>343.46</ele>
      </trkpt>
      <trkpt lat="45.99986" lon="14.02277">
        <ele>340.51</ele>
      </trkpt>
      <trkpt lat="45.99978" lon="14.02267">
        <ele>340.29</ele>
      </trkpt>
      <trkpt lat="45.99975" lon="14.02257">
        <ele>340.17</ele>
      </trkpt>
      <trkpt lat="45.99978" lon="14.0224">
        <ele>340.13</ele>
      </trkpt>
      <trkpt lat="45.99981" lon="14.02233">
        <ele>340.21</ele>
      </trkpt>
      <trkpt lat="45.99988" lon="14.02225">
        <ele>340.75</ele>
      </trkpt>
      <trkpt lat="46.00013" lon="14.02202">
        <ele>341.49</ele>
      </trkpt>
      <trkpt lat="46.00023" lon="14.02197">
        <ele>341.77</ele>
      </trkpt>
      <trkpt lat="46.00031" lon="14.02184">
        <ele>340.91</ele>
      </trkpt>
      <trkpt lat="46.0004" lon="14.02178">
        <ele>339.84</ele>
      </trkpt>
      <trkpt lat="46.00069" lon="14.02169">
        <ele>340.25</ele>
      </trkpt>
    </trkseg>
  </trk>
</gpx>
