<?xml version="1.0" encoding="UTF-8"?>
<gpx creator="https://gpx.studio" version="1.1" xmlns="http://www.topografix.com/GPX/1/1" xmlns:xsi="http://www.w3.org/2001/XMLSchema-instance" xsi:schemaLocation="http://www.topografix.com/GPX/1/1 http://www.topografix.com/GPX/1/1/gpx.xsd http://www.garmin.com/xmlschemas/GpxExtensions/v3 http://www.garmin.com/xmlschemas/GpxExtensionsv3.xsd http://www.garmin.com/xmlschemas/TrackPointExtension/v1 http://www.garmin.com/xmlschemas/TrackPointExtensionv1.xsd http://www.garmin.com/xmlschemas/PowerExtension/v1 http://www.garmin.com/xmlschemas/PowerExtensionv1.xsd http://www.topografix.com/GPX/gpx_style/0/2 http://www.topografix.com/GPX/gpx_style/0/2/gpx_style.xsd" xmlns:gpxtpx="http://www.garmin.com/xmlschemas/TrackPointExtension/v1" xmlns:gpxx="http://www.garmin.com/xmlschemas/GpxExtensions/v3" xmlns:gpxpx="http://www.garmin.com/xmlschemas/PowerExtension/v1" xmlns:gpx_style="http://www.topografix.com/GPX/gpx_style/0/2">
  <metadata>
    <name>New file 1</name>
    <author>
      <name>gpx.studio</name>
      <link href="https://gpx.studio"/>
    </author>
  </metadata>
  <trk>
    <name>New file 1</name>
    <trkseg>
      <trkpt lat="45.760571" lon="14.725932">
        <ele>495.01</ele>
      </trkpt>
      <trkpt lat="45.76056" lon="14.726079">
        <ele>495.07</ele>
      </trkpt>
      <trkpt lat="45.760574" lon="14.726318">
        <ele>496.42</ele>
      </trkpt>
      <trkpt lat="45.760577" lon="14.726592">
        <ele>498.01</ele>
      </trkpt>
      <trkpt lat="45.760591" lon="14.726685">
        <ele>498.14</ele>
      </trkpt>
      <trkpt lat="45.760632" lon="14.726854">
        <ele>499.73</ele>
      </trkpt>
      <trkpt lat="45.760677" lon="14.726963">
        <ele>501.17</ele>
      </trkpt>
      <trkpt lat="45.760711" lon="14.727075">
        <ele>501.87</ele>
      </trkpt>
      <trkpt lat="45.760732" lon="14.727453">
        <ele>504.69</ele>
      </trkpt>
      <trkpt lat="45.760697" lon="14.727764">
        <ele>507.66</ele>
      </trkpt>
      <trkpt lat="45.76065" lon="14.727935">
        <ele>509.71</ele>
      </trkpt>
      <trkpt lat="45.760641" lon="14.727999">
        <ele>510.48</ele>
      </trkpt>
      <trkpt lat="45.760639" lon="14.728097">
        <ele>511.62</ele>
      </trkpt>
      <trkpt lat="45.760664" lon="14.728172">
        <ele>512.49</ele>
      </trkpt>
      <trkpt lat="45.76095" lon="14.728619">
        <ele>517.65</ele>
      </trkpt>
      <trkpt lat="45.761031" lon="14.729019">
        <ele>519.96</ele>
      </trkpt>
      <trkpt lat="45.761093" lon="14.729213">
        <ele>520.71</ele>
      </trkpt>
      <trkpt lat="45.761208" lon="14.729484">
        <ele>523.24</ele>
      </trkpt>
      <trkpt lat="45.761308" lon="14.72976">
        <ele>523.72</ele>
      </trkpt>
      <trkpt lat="45.761467" lon="14.730095">
        <ele>523.1</ele>
      </trkpt>
      <trkpt lat="45.761626" lon="14.730681">
        <ele>522.59</ele>
      </trkpt>
      <trkpt lat="45.761647" lon="14.730839">
        <ele>523.03</ele>
      </trkpt>
      <trkpt lat="45.761662" lon="14.731167">
        <ele>524.66</ele>
      </trkpt>
      <trkpt lat="45.761672" lon="14.731223">
        <ele>524.98</ele>
      </trkpt>
      <trkpt lat="45.761859" lon="14.731687">
        <ele>525.66</ele>
      </trkpt>
      <trkpt lat="45.761898" lon="14.731824">
        <ele>525.7</ele>
      </trkpt>
      <trkpt lat="45.761924" lon="14.731969">
        <ele>525.56</ele>
      </trkpt>
      <trkpt lat="45.761898" lon="14.732472">
        <ele>528.25</ele>
      </trkpt>
      <trkpt lat="45.761891" lon="14.732802">
        <ele>530.26</ele>
      </trkpt>
      <trkpt lat="45.761875" lon="14.733042">
        <ele>532.11</ele>
      </trkpt>
      <trkpt lat="45.761853" lon="14.733188">
        <ele>532.81</ele>
      </trkpt>
      <trkpt lat="45.761848" lon="14.733481">
        <ele>535.53</ele>
      </trkpt>
      <trkpt lat="45.761828" lon="14.733747">
        <ele>538.12</ele>
      </trkpt>
      <trkpt lat="45.761829" lon="14.734018">
        <ele>540.69</ele>
      </trkpt>
      <trkpt lat="45.761819" lon="14.734236">
        <ele>542.04</ele>
      </trkpt>
      <trkpt lat="45.761785" lon="14.734572">
        <ele>544.45</ele>
      </trkpt>
      <trkpt lat="45.761785" lon="14.734656">
        <ele>544.94</ele>
      </trkpt>
      <trkpt lat="45.761807" lon="14.734778">
        <ele>545.24</ele>
      </trkpt>
      <trkpt lat="45.76188" lon="14.734884">
        <ele>546.24</ele>
      </trkpt>
      <trkpt lat="45.762009" lon="14.735017">
        <ele>548.09</ele>
      </trkpt>
      <trkpt lat="45.762118" lon="14.735146">
        <ele>550.5</ele>
      </trkpt>
      <trkpt lat="45.762068" lon="14.735361">
        <ele>551.68</ele>
      </trkpt>
      <trkpt lat="45.762012" lon="14.735677">
        <ele>554.66</ele>
      </trkpt>
      <trkpt lat="45.761937" lon="14.735808">
        <ele>556.18</ele>
      </trkpt>
      <trkpt lat="45.761911" lon="14.735986">
        <ele>559.25</ele>
      </trkpt>
      <trkpt lat="45.761886" lon="14.736047">
        <ele>560.1</ele>
      </trkpt>
      <trkpt lat="45.761881" lon="14.736187">
        <ele>562.51</ele>
      </trkpt>
      <trkpt lat="45.761888" lon="14.736287">
        <ele>564.74</ele>
      </trkpt>
      <trkpt lat="45.761858" lon="14.736443">
        <ele>567.85</ele>
      </trkpt>
      <trkpt lat="45.761854" lon="14.736537">
        <ele>569.61</ele>
      </trkpt>
      <trkpt lat="45.761881" lon="14.736616">
        <ele>571.37</ele>
      </trkpt>
      <trkpt lat="45.761847" lon="14.736842">
        <ele>575.76</ele>
      </trkpt>
      <trkpt lat="45.761871" lon="14.737016">
        <ele>578.29</ele>
      </trkpt>
      <trkpt lat="45.761909" lon="14.737089">
        <ele>579.37</ele>
      </trkpt>
      <trkpt lat="45.761956" lon="14.737268">
        <ele>581.21</ele>
      </trkpt>
      <trkpt lat="45.761934" lon="14.737418">
        <ele>582.43</ele>
      </trkpt>
      <trkpt lat="45.761943" lon="14.737521">
        <ele>584.31</ele>
      </trkpt>
      <trkpt lat="45.761935" lon="14.737615">
        <ele>585.66</ele>
      </trkpt>
      <trkpt lat="45.761964" lon="14.737841">
        <ele>588.94</ele>
      </trkpt>
      <trkpt lat="45.761951" lon="14.737939">
        <ele>589.73</ele>
      </trkpt>
      <trkpt lat="45.761883" lon="14.738201">
        <ele>590.1</ele>
      </trkpt>
      <trkpt lat="45.761837" lon="14.738454">
        <ele>591.85</ele>
      </trkpt>
      <trkpt lat="45.761964" lon="14.738691">
        <ele>596.29</ele>
      </trkpt>
      <trkpt lat="45.762045" lon="14.738746">
        <ele>599.1</ele>
      </trkpt>
      <trkpt lat="45.762228" lon="14.738969">
        <ele>605.45</ele>
      </trkpt>
      <trkpt lat="45.76239" lon="14.73916">
        <ele>608.65</ele>
      </trkpt>
      <trkpt lat="45.762614" lon="14.739334">
        <ele>614.39</ele>
      </trkpt>
      <trkpt lat="45.762863" lon="14.739495">
        <ele>620.49</ele>
      </trkpt>
      <trkpt lat="45.763078" lon="14.7398">
        <ele>626.62</ele>
      </trkpt>
      <trkpt lat="45.763387" lon="14.740189">
        <ele>635.76</ele>
      </trkpt>
      <trkpt lat="45.763523" lon="14.740458">
        <ele>640.47</ele>
      </trkpt>
      <trkpt lat="45.763626" lon="14.740595">
        <ele>643.47</ele>
      </trkpt>
      <trkpt lat="45.763575" lon="14.740885">
        <ele>647.42</ele>
      </trkpt>
      <trkpt lat="45.763595" lon="14.741069">
        <ele>649.72</ele>
      </trkpt>
      <trkpt lat="45.763577" lon="14.741181">
        <ele>650.88</ele>
      </trkpt>
      <trkpt lat="45.763588" lon="14.74131">
        <ele>652.61</ele>
      </trkpt>
      <trkpt lat="45.763588" lon="14.74131">
        <ele>652.61</ele>
      </trkpt>
      <trkpt lat="45.763609" lon="14.741399">
        <ele>654.16</ele>
      </trkpt>
      <trkpt lat="45.76372" lon="14.741479">
        <ele>656.71</ele>
      </trkpt>
      <trkpt lat="45.763806" lon="14.741558">
        <ele>659.17</ele>
      </trkpt>
      <trkpt lat="45.763631" lon="14.741969">
        <ele>662.25</ele>
      </trkpt>
      <trkpt lat="45.763558" lon="14.742221">
        <ele>664.76</ele>
      </trkpt>
      <trkpt lat="45.763521" lon="14.742394">
        <ele>665.56</ele>
      </trkpt>
      <trkpt lat="45.763483" lon="14.742508">
        <ele>666.52</ele>
      </trkpt>
      <trkpt lat="45.763339" lon="14.742806">
        <ele>668.37</ele>
      </trkpt>
      <trkpt lat="45.763327" lon="14.742859">
        <ele>668.66</ele>
      </trkpt>
      <trkpt lat="45.763339" lon="14.742964">
        <ele>669.62</ele>
      </trkpt>
      <trkpt lat="45.763396" lon="14.743148">
        <ele>672.11</ele>
      </trkpt>
      <trkpt lat="45.763413" lon="14.743266">
        <ele>673.48</ele>
      </trkpt>
      <trkpt lat="45.763415" lon="14.743374">
        <ele>674.31</ele>
      </trkpt>
      <trkpt lat="45.763362" lon="14.743689">
        <ele>676.93</ele>
      </trkpt>
      <trkpt lat="45.763414" lon="14.744014">
        <ele>680.7</ele>
      </trkpt>
      <trkpt lat="45.763554" lon="14.74431">
        <ele>682.75</ele>
      </trkpt>
      <trkpt lat="45.763555" lon="14.744469">
        <ele>682.71</ele>
      </trkpt>
      <trkpt lat="45.763533" lon="14.744697">
        <ele>686.21</ele>
      </trkpt>
      <trkpt lat="45.76363" lon="14.744839">
        <ele>688.78</ele>
      </trkpt>
      <trkpt lat="45.763859" lon="14.745583">
        <ele>697.62</ele>
      </trkpt>
      <trkpt lat="45.763889" lon="14.745795">
        <ele>700.04</ele>
      </trkpt>
      <trkpt lat="45.764046" lon="14.746171">
        <ele>706.96</ele>
      </trkpt>
      <trkpt lat="45.764138" lon="14.746581">
        <ele>712.86</ele>
      </trkpt>
      <trkpt lat="45.76428" lon="14.7469">
        <ele>720</ele>
      </trkpt>
      <trkpt lat="45.764316" lon="14.74716">
        <ele>722.74</ele>
      </trkpt>
      <trkpt lat="45.76448" lon="14.747548">
        <ele>729.44</ele>
      </trkpt>
      <trkpt lat="45.764865" lon="14.747922">
        <ele>743.4</ele>
      </trkpt>
      <trkpt lat="45.765031" lon="14.748153">
        <ele>749.93</ele>
      </trkpt>
      <trkpt lat="45.765458" lon="14.748347">
        <ele>764.14</ele>
      </trkpt>
      <trkpt lat="45.765639" lon="14.74834">
        <ele>770.55</ele>
      </trkpt>
      <trkpt lat="45.765742" lon="14.74845">
        <ele>773.48</ele>
      </trkpt>
      <trkpt lat="45.765881" lon="14.748423">
        <ele>778.25</ele>
      </trkpt>
      <trkpt lat="45.765977" lon="14.748497">
        <ele>780.98</ele>
      </trkpt>
      <trkpt lat="45.766255" lon="14.748201">
        <ele>790.73</ele>
      </trkpt>
      <trkpt lat="45.766365" lon="14.747819">
        <ele>796.93</ele>
      </trkpt>
      <trkpt lat="45.766392" lon="14.747634">
        <ele>799.5</ele>
      </trkpt>
      <trkpt lat="45.766448" lon="14.747423">
        <ele>803.82</ele>
      </trkpt>
      <trkpt lat="45.766568" lon="14.747124">
        <ele>810.15</ele>
      </trkpt>
      <trkpt lat="45.766687" lon="14.746825">
        <ele>813.82</ele>
      </trkpt>
      <trkpt lat="45.766906" lon="14.746618">
        <ele>819.92</ele>
      </trkpt>
      <trkpt lat="45.767041" lon="14.746347">
        <ele>823.74</ele>
      </trkpt>
      <trkpt lat="45.76719" lon="14.745993">
        <ele>827.1</ele>
      </trkpt>
      <trkpt lat="45.767215" lon="14.745744">
        <ele>826.17</ele>
      </trkpt>
      <trkpt lat="45.767426" lon="14.745467">
        <ele>835.96</ele>
      </trkpt>
      <trkpt lat="45.767551" lon="14.745207">
        <ele>846.71</ele>
      </trkpt>
      <trkpt lat="45.767671" lon="14.744993">
        <ele>852.42</ele>
      </trkpt>
      <trkpt lat="45.767797" lon="14.744883">
        <ele>858.68</ele>
      </trkpt>
      <trkpt lat="45.767897" lon="14.744811">
        <ele>863.67</ele>
      </trkpt>
      <trkpt lat="45.768012" lon="14.744835">
        <ele>869.44</ele>
      </trkpt>
      <trkpt lat="45.768146" lon="14.74491">
        <ele>876.04</ele>
      </trkpt>
      <trkpt lat="45.768182" lon="14.744813">
        <ele>877.97</ele>
      </trkpt>
      <trkpt lat="45.768275" lon="14.744754">
        <ele>883.82</ele>
      </trkpt>
      <trkpt lat="45.768337" lon="14.744618">
        <ele>888.67</ele>
      </trkpt>
      <trkpt lat="45.768415" lon="14.744584">
        <ele>892.63</ele>
      </trkpt>
      <trkpt lat="45.768495" lon="14.744601">
        <ele>896.5</ele>
      </trkpt>
      <trkpt lat="45.768661" lon="14.744657">
        <ele>902.78</ele>
      </trkpt>
      <trkpt lat="45.76878" lon="14.744657">
        <ele>906.83</ele>
      </trkpt>
      <trkpt lat="45.768876" lon="14.744603">
        <ele>910.33</ele>
      </trkpt>
      <trkpt lat="45.768938" lon="14.74458">
        <ele>912.55</ele>
      </trkpt>
      <trkpt lat="45.768971" lon="14.744551">
        <ele>913.69</ele>
      </trkpt>
      <trkpt lat="45.76906" lon="14.744372">
        <ele>916.32</ele>
      </trkpt>
      <trkpt lat="45.769203" lon="14.744168">
        <ele>918.82</ele>
      </trkpt>
    </trkseg>
  </trk>
</gpx>
