<?xml version="1.0" encoding="UTF-8"?><gpx xmlns="http://www.topografix.com/GPX/1/1"  creator="TraceDeTrail http://www.tracedetrail.fr" version="1.1" xmlns:xsi="http://www.w3.org/2001/XMLSchema-instance" xsi:schemaLocation="http://www.topografix.com/GPX/1/1 http://www.topografix.com/GPX/1/1/gpx.xsd "><metadata><name>Rapallo Trail 10  km 2023</name><link href="http://tracedetrail.fr/fr/trace/trace/192055"><text>methode de calcul : google </text></link></metadata><trk><name>Rapallo Trail 10  km 2023 sur TraceDeTrail.fr</name><trkseg><trkpt lat="46.21479" lon="13.97403"><ele>532</ele><time>2022-08-09T00:00:00.000Z</time></trkpt><trkpt lat="46.21499" lon="13.97403"><ele>534</ele><time>2022-08-09T00:00:11.000Z</time></trkpt><trkpt lat="46.21506" lon="13.97399"><ele>535</ele><time>2022-08-09T00:00:21.000Z</time></trkpt><trkpt lat="46.21523" lon="13.97368"><ele>536</ele><time>2022-08-09T00:00:29.000Z</time></trkpt><trkpt lat="46.21531" lon="13.97361"><ele>538</ele><time>2022-08-09T00:00:39.000Z</time></trkpt><trkpt lat="46.21547" lon="13.97357"><ele>540</ele><time>2022-08-09T00:00:44.000Z</time></trkpt><trkpt lat="46.21573" lon="13.97355"><ele>543</ele><time>2022-08-09T00:00:54.000Z</time></trkpt><trkpt lat="46.21604" lon="13.97353"><ele>547</ele><time>2022-08-09T00:01:25.000Z</time></trkpt><trkpt lat="46.21648" lon="13.97356"><ele>547</ele><time>2022-08-09T00:01:52.000Z</time></trkpt><trkpt lat="46.21657" lon="13.97362"><ele>547</ele><time>2022-08-09T00:02:02.000Z</time></trkpt><trkpt lat="46.21665" lon="13.97374"><ele>547</ele><time>2022-08-09T00:02:03.000Z</time></trkpt><trkpt lat="46.21672" lon="13.97391"><ele>547</ele><time>2022-08-09T00:02:13.000Z</time></trkpt><trkpt lat="46.21691" lon="13.97424"><ele>547</ele><time>2022-08-09T00:02:25.000Z</time></trkpt><trkpt lat="46.21707" lon="13.97444"><ele>548</ele><time>2022-08-09T00:02:45.000Z</time></trkpt><trkpt lat="46.21728" lon="13.97463"><ele>551</ele><time>2022-08-09T00:03:08.000Z</time></trkpt><trkpt lat="46.21748" lon="13.97489"><ele>554</ele><time>2022-08-09T00:03:33.000Z</time></trkpt><trkpt lat="46.21765" lon="13.97505"><ele>557</ele><time>2022-08-09T00:03:45.000Z</time></trkpt><trkpt lat="46.2178" lon="13.97514"><ele>559.5</ele><time>2022-08-09T00:03:55.000Z</time></trkpt><trkpt lat="46.2181" lon="13.97523"><ele>562</ele><time>2022-08-09T00:04:10.000Z</time></trkpt><trkpt lat="46.21834" lon="13.97526"><ele>566</ele><time>2022-08-09T00:04:24.000Z</time></trkpt><trkpt lat="46.21878" lon="13.97522"><ele>577</ele><time>2022-08-09T00:04:50.000Z</time></trkpt><trkpt lat="46.21886" lon="13.97524"><ele>576.67</ele><time>2022-08-09T00:05:00.000Z</time></trkpt><trkpt lat="46.21892" lon="13.97535"><ele>576.33</ele><time>2022-08-09T00:05:10.000Z</time></trkpt><trkpt lat="46.21897" lon="13.97551"><ele>576</ele><time>2022-08-09T00:05:08.000Z</time></trkpt><trkpt lat="46.21897" lon="13.97581"><ele>576</ele><time>2022-08-09T00:05:24.000Z</time></trkpt><trkpt lat="46.21902" lon="13.976"><ele>577.5</ele><time>2022-08-09T00:05:34.000Z</time></trkpt><trkpt lat="46.21914" lon="13.97612"><ele>579</ele><time>2022-08-09T00:05:45.000Z</time></trkpt><trkpt lat="46.2194" lon="13.97626"><ele>586</ele><time>2022-08-09T00:06:05.000Z</time></trkpt><trkpt lat="46.21948" lon="13.97635"><ele>586</ele><time>2022-08-09T00:06:15.000Z</time></trkpt><trkpt lat="46.21955" lon="13.97647"><ele>586</ele><time>2022-08-09T00:06:13.000Z</time></trkpt><trkpt lat="46.21959" lon="13.97681"><ele>582</ele><time>2022-08-09T00:06:21.000Z</time></trkpt><trkpt lat="46.21969" lon="13.9772"><ele>582</ele><time>2022-08-09T00:06:30.000Z</time></trkpt><trkpt lat="46.21976" lon="13.97732"><ele>582.5</ele><time>2022-08-09T00:06:40.000Z</time></trkpt><trkpt lat="46.21984" lon="13.97734"><ele>583</ele><time>2022-08-09T00:06:36.000Z</time></trkpt><trkpt lat="46.21994" lon="13.97731"><ele>583.67</ele><time>2022-08-09T00:06:46.000Z</time></trkpt><trkpt lat="46.21995" lon="13.97727"><ele>584.33</ele><time>2022-08-09T00:06:56.000Z</time></trkpt><trkpt lat="46.22004" lon="13.97721"><ele>585</ele><time>2022-08-09T00:06:45.000Z</time></trkpt><trkpt lat="46.22016" lon="13.97717"><ele>587.5</ele><time>2022-08-09T00:06:55.000Z</time></trkpt><trkpt lat="46.22047" lon="13.97719"><ele>590</ele><time>2022-08-09T00:07:02.000Z</time></trkpt><trkpt lat="46.22077" lon="13.97716"><ele>593</ele><time>2022-08-09T00:07:12.000Z</time></trkpt><trkpt lat="46.22101" lon="13.97715"><ele>593</ele><time>2022-08-09T00:07:22.000Z</time></trkpt><trkpt lat="46.22129" lon="13.97713"><ele>594</ele><time>2022-08-09T00:07:48.000Z</time></trkpt><trkpt lat="46.22149" lon="13.97716"><ele>597</ele><time>2022-08-09T00:08:01.000Z</time></trkpt><trkpt lat="46.22162" lon="13.97722"><ele>597.5</ele><time>2022-08-09T00:08:11.000Z</time></trkpt><trkpt lat="46.2217" lon="13.9773"><ele>598</ele><time>2022-08-09T00:08:18.000Z</time></trkpt><trkpt lat="46.22193" lon="13.97746"><ele>602</ele><time>2022-08-09T00:08:28.000Z</time></trkpt><trkpt lat="46.22223" lon="13.97767"><ele>607</ele><time>2022-08-09T00:08:59.000Z</time></trkpt><trkpt lat="46.22237" lon="13.97782"><ele>608.5</ele><time>2022-08-09T00:09:09.000Z</time></trkpt><trkpt lat="46.22254" lon="13.97792"><ele>610</ele><time>2022-08-09T00:09:20.000Z</time></trkpt><trkpt lat="46.22276" lon="13.97811"><ele>609</ele><time>2022-08-09T00:09:34.000Z</time></trkpt><trkpt lat="46.22281" lon="13.97819"><ele>609</ele><time>2022-08-09T00:09:44.000Z</time></trkpt><trkpt lat="46.22282" lon="13.9783"><ele>609</ele><time>2022-08-09T00:09:54.000Z</time></trkpt><trkpt lat="46.2228" lon="13.97849"><ele>609</ele><time>2022-08-09T00:09:43.000Z</time></trkpt><trkpt lat="46.2227" lon="13.97859"><ele>609.5</ele><time>2022-08-09T00:09:53.000Z</time></trkpt><trkpt lat="46.22259" lon="13.97876"><ele>610</ele><time>2022-08-09T00:09:50.000Z</time></trkpt><trkpt lat="46.22249" lon="13.9793"><ele>612</ele><time>2022-08-09T00:10:03.000Z</time></trkpt><trkpt lat="46.22246" lon="13.9794"><ele>611.67</ele><time>2022-08-09T00:10:13.000Z</time></trkpt><trkpt lat="46.22237" lon="13.97945"><ele>611.33</ele><time>2022-08-09T00:10:23.000Z</time></trkpt><trkpt lat="46.22224" lon="13.97941"><ele>611</ele><time>2022-08-09T00:10:21.000Z</time></trkpt><trkpt lat="46.2222" lon="13.97932"><ele>611</ele><time>2022-08-09T00:10:31.000Z</time></trkpt><trkpt lat="46.22217" lon="13.97908"><ele>611</ele><time>2022-08-09T00:10:35.000Z</time></trkpt><trkpt lat="46.22215" lon="13.97884"><ele>608.5</ele><time>2022-08-09T00:10:45.000Z</time></trkpt><trkpt lat="46.22205" lon="13.97868"><ele>606</ele><time>2022-08-09T00:10:45.000Z</time></trkpt><trkpt lat="46.22181" lon="13.97853"><ele>606</ele><time>2022-08-09T00:10:47.000Z</time></trkpt><trkpt lat="46.2217" lon="13.97851"><ele>606</ele><time>2022-08-09T00:10:57.000Z</time></trkpt><trkpt lat="46.22158" lon="13.97836"><ele>606</ele><time>2022-08-09T00:10:48.000Z</time></trkpt><trkpt lat="46.22141" lon="13.97825"><ele>606</ele><time>2022-08-09T00:10:57.000Z</time></trkpt><trkpt lat="46.22132" lon="13.97828"><ele>606</ele><time>2022-08-09T00:11:07.000Z</time></trkpt><trkpt lat="46.22119" lon="13.9784"><ele>606</ele><time>2022-08-09T00:11:18.000Z</time></trkpt><trkpt lat="46.22101" lon="13.97843"><ele>609</ele><time>2022-08-09T00:11:28.000Z</time></trkpt><trkpt lat="46.22086" lon="13.97868"><ele>612</ele><time>2022-08-09T00:11:55.000Z</time></trkpt><trkpt lat="46.22073" lon="13.97917"><ele>619</ele><time>2022-08-09T00:12:20.000Z</time></trkpt><trkpt lat="46.22053" lon="13.97917"><ele>621</ele><time>2022-08-09T00:12:32.000Z</time></trkpt><trkpt lat="46.22046" lon="13.97914"><ele>621</ele><time>2022-08-09T00:12:42.000Z</time></trkpt><trkpt lat="46.22039" lon="13.979"><ele>621</ele><time>2022-08-09T00:12:45.000Z</time></trkpt><trkpt lat="46.22032" lon="13.97897"><ele>621.33</ele><time>2022-08-09T00:12:55.000Z</time></trkpt><trkpt lat="46.22021" lon="13.97894"><ele>621.67</ele><time>2022-08-09T00:13:05.000Z</time></trkpt><trkpt lat="46.22009" lon="13.979"><ele>622</ele><time>2022-08-09T00:13:01.000Z</time></trkpt><trkpt lat="46.21995" lon="13.97902"><ele>623</ele><time>2022-08-09T00:13:11.000Z</time></trkpt><trkpt lat="46.21984" lon="13.97896"><ele>624</ele><time>2022-08-09T00:13:13.000Z</time></trkpt><trkpt lat="46.2196" lon="13.97896"><ele>626</ele><time>2022-08-09T00:13:23.000Z</time></trkpt><trkpt lat="46.21944" lon="13.97884"><ele>626</ele><time>2022-08-09T00:13:33.000Z</time></trkpt><trkpt lat="46.21932" lon="13.97885"><ele>626</ele><time>2022-08-09T00:13:44.000Z</time></trkpt><trkpt lat="46.2192" lon="13.97892"><ele>630</ele><time>2022-08-09T00:13:54.000Z</time></trkpt><trkpt lat="46.21912" lon="13.979"><ele>634</ele><time>2022-08-09T00:14:04.000Z</time></trkpt><trkpt lat="46.21903" lon="13.97903"><ele>632.5</ele><time>2022-08-09T00:14:14.000Z</time></trkpt><trkpt lat="46.21894" lon="13.97898"><ele>631</ele><time>2022-08-09T00:14:21.000Z</time></trkpt><trkpt lat="46.21889" lon="13.97888"><ele>630</ele><time>2022-08-09T00:14:31.000Z</time></trkpt><trkpt lat="46.21883" lon="13.97854"><ele>629</ele><time>2022-08-09T00:14:43.000Z</time></trkpt><trkpt lat="46.21868" lon="13.97812"><ele>626</ele><time>2022-08-09T00:14:50.000Z</time></trkpt><trkpt lat="46.21841" lon="13.97775"><ele>625</ele><time>2022-08-09T00:14:57.000Z</time></trkpt><trkpt lat="46.21824" lon="13.97762"><ele>624</ele><time>2022-08-09T00:14:58.000Z</time></trkpt><trkpt lat="46.21801" lon="13.97736"><ele>624</ele><time>2022-08-09T00:14:59.000Z</time></trkpt><trkpt lat="46.21791" lon="13.97731"><ele>624</ele><time>2022-08-09T00:15:09.000Z</time></trkpt><trkpt lat="46.21775" lon="13.97732"><ele>624</ele><time>2022-08-09T00:15:00.000Z</time></trkpt><trkpt lat="46.21758" lon="13.97729"><ele>623</ele><time>2022-08-09T00:15:10.000Z</time></trkpt><trkpt lat="46.21736" lon="13.97716"><ele>622</ele><time>2022-08-09T00:15:07.000Z</time></trkpt><trkpt lat="46.21724" lon="13.97717"><ele>624</ele><time>2022-08-09T00:15:17.000Z</time></trkpt><trkpt lat="46.21715" lon="13.97722"><ele>626</ele><time>2022-08-09T00:15:11.000Z</time></trkpt><trkpt lat="46.2171" lon="13.9773"><ele>628.5</ele><time>2022-08-09T00:15:21.000Z</time></trkpt><trkpt lat="46.21711" lon="13.97779"><ele>631</ele><time>2022-08-09T00:15:34.000Z</time></trkpt><trkpt lat="46.21709" lon="13.97802"><ele>635.5</ele><time>2022-08-09T00:15:44.000Z</time></trkpt><trkpt lat="46.21713" lon="13.97827"><ele>640</ele><time>2022-08-09T00:16:08.000Z</time></trkpt><trkpt lat="46.21715" lon="13.97846"><ele>643.5</ele><time>2022-08-09T00:16:18.000Z</time></trkpt><trkpt lat="46.21705" lon="13.97889"><ele>647</ele><time>2022-08-09T00:16:49.000Z</time></trkpt><trkpt lat="46.21715" lon="13.97922"><ele>658</ele><time>2022-08-09T00:16:59.000Z</time></trkpt><trkpt lat="46.21725" lon="13.97958"><ele>662</ele><time>2022-08-09T00:17:27.000Z</time></trkpt><trkpt lat="46.21723" lon="13.97976"><ele>664</ele><time>2022-08-09T00:17:37.000Z</time></trkpt><trkpt lat="46.2172" lon="13.9799"><ele>666</ele><time>2022-08-09T00:17:41.000Z</time></trkpt><trkpt lat="46.2172" lon="13.98003"><ele>667.5</ele><time>2022-08-09T00:17:51.000Z</time></trkpt><trkpt lat="46.21728" lon="13.98035"><ele>669</ele><time>2022-08-09T00:17:51.000Z</time></trkpt><trkpt lat="46.21728" lon="13.98053"><ele>669.5</ele><time>2022-08-09T00:18:01.000Z</time></trkpt><trkpt lat="46.21724" lon="13.9807"><ele>670</ele><time>2022-08-09T00:17:59.000Z</time></trkpt><trkpt lat="46.21724" lon="13.98085"><ele>670.5</ele><time>2022-08-09T00:18:09.000Z</time></trkpt><trkpt lat="46.21727" lon="13.98098"><ele>671</ele><time>2022-08-09T00:18:07.000Z</time></trkpt><trkpt lat="46.21736" lon="13.98114"><ele>678</ele><time>2022-08-09T00:18:17.000Z</time></trkpt><trkpt lat="46.21757" lon="13.98133"><ele>685</ele><time>2022-08-09T00:18:41.000Z</time></trkpt><trkpt lat="46.21764" lon="13.98143"><ele>685.5</ele><time>2022-08-09T00:18:51.000Z</time></trkpt><trkpt lat="46.21764" lon="13.98157"><ele>686</ele><time>2022-08-09T00:18:58.000Z</time></trkpt><trkpt lat="46.21761" lon="13.98172"><ele>685.5</ele><time>2022-08-09T00:19:08.000Z</time></trkpt><trkpt lat="46.21752" lon="13.98183"><ele>685</ele><time>2022-08-09T00:19:16.000Z</time></trkpt><trkpt lat="46.21744" lon="13.98196"><ele>686.5</ele><time>2022-08-09T00:19:26.000Z</time></trkpt><trkpt lat="46.21741" lon="13.98214"><ele>688</ele><time>2022-08-09T00:19:31.000Z</time></trkpt><trkpt lat="46.21747" lon="13.98235"><ele>690</ele><time>2022-08-09T00:19:41.000Z</time></trkpt><trkpt lat="46.21755" lon="13.98249"><ele>692</ele><time>2022-08-09T00:19:49.000Z</time></trkpt><trkpt lat="46.21789" lon="13.98293"><ele>692</ele><time>2022-08-09T00:20:08.000Z</time></trkpt><trkpt lat="46.21792" lon="13.98306"><ele>692</ele><time>2022-08-09T00:20:18.000Z</time></trkpt><trkpt lat="46.21788" lon="13.98317"><ele>692</ele><time>2022-08-09T00:20:28.000Z</time></trkpt><trkpt lat="46.21729" lon="13.9838"><ele>692</ele><time>2022-08-09T00:20:43.000Z</time></trkpt><trkpt lat="46.2172" lon="13.98396"><ele>694.5</ele><time>2022-08-09T00:20:53.000Z</time></trkpt><trkpt lat="46.21719" lon="13.98409"><ele>697</ele><time>2022-08-09T00:20:58.000Z</time></trkpt><trkpt lat="46.21722" lon="13.98431"><ele>699.5</ele><time>2022-08-09T00:21:08.000Z</time></trkpt><trkpt lat="46.21722" lon="13.9846"><ele>702</ele><time>2022-08-09T00:21:26.000Z</time></trkpt><trkpt lat="46.21726" lon="13.98484"><ele>708.5</ele><time>2022-08-09T00:21:36.000Z</time></trkpt><trkpt lat="46.21735" lon="13.98517"><ele>715</ele><time>2022-08-09T00:22:13.000Z</time></trkpt><trkpt lat="46.21731" lon="13.98533"><ele>713</ele><time>2022-08-09T00:22:23.000Z</time></trkpt><trkpt lat="46.2173" lon="13.98565"><ele>711</ele><time>2022-08-09T00:22:48.000Z</time></trkpt><trkpt lat="46.21728" lon="13.9858"><ele>710</ele><time>2022-08-09T00:22:58.000Z</time></trkpt><trkpt lat="46.21722" lon="13.98587"><ele>709</ele><time>2022-08-09T00:23:08.000Z</time></trkpt><trkpt lat="46.21707" lon="13.9858"><ele>708</ele><time>2022-08-09T00:23:04.000Z</time></trkpt><trkpt lat="46.21697" lon="13.98579"><ele>708.5</ele><time>2022-08-09T00:23:14.000Z</time></trkpt><trkpt lat="46.21686" lon="13.98592"><ele>709</ele><time>2022-08-09T00:23:16.000Z</time></trkpt><trkpt lat="46.21677" lon="13.9861"><ele>706</ele><time>2022-08-09T00:23:26.000Z</time></trkpt><trkpt lat="46.21672" lon="13.98643"><ele>703</ele><time>2022-08-09T00:23:39.000Z</time></trkpt><trkpt lat="46.2165" lon="13.98654"><ele>705</ele><time>2022-08-09T00:23:56.000Z</time></trkpt><trkpt lat="46.21641" lon="13.98694"><ele>708</ele><time>2022-08-09T00:24:16.000Z</time></trkpt><trkpt lat="46.21622" lon="13.98753"><ele>718</ele><time>2022-08-09T00:24:54.000Z</time></trkpt><trkpt lat="46.21614" lon="13.98776"><ele>716.5</ele><time>2022-08-09T00:25:04.000Z</time></trkpt><trkpt lat="46.21603" lon="13.98794"><ele>715</ele><time>2022-08-09T00:25:23.000Z</time></trkpt><trkpt lat="46.21586" lon="13.98792"><ele>714</ele><time>2022-08-09T00:25:33.000Z</time></trkpt><trkpt lat="46.21563" lon="13.988"><ele>713</ele><time>2022-08-09T00:25:34.000Z</time></trkpt><trkpt lat="46.21548" lon="13.98801"><ele>715</ele><time>2022-08-09T00:25:44.000Z</time></trkpt><trkpt lat="46.21539" lon="13.98806"><ele>717</ele><time>2022-08-09T00:25:37.000Z</time></trkpt><trkpt lat="46.21532" lon="13.98854"><ele>717</ele><time>2022-08-09T00:25:49.000Z</time></trkpt><trkpt lat="46.21524" lon="13.98867"><ele>717</ele><time>2022-08-09T00:25:59.000Z</time></trkpt><trkpt lat="46.21514" lon="13.98878"><ele>717</ele><time>2022-08-09T00:26:08.000Z</time></trkpt><trkpt lat="46.21506" lon="13.98897"><ele>718.5</ele><time>2022-08-09T00:26:18.000Z</time></trkpt><trkpt lat="46.21505" lon="13.98914"><ele>720</ele><time>2022-08-09T00:26:29.000Z</time></trkpt><trkpt lat="46.21499" lon="13.98931"><ele>719.5</ele><time>2022-08-09T00:26:39.000Z</time></trkpt><trkpt lat="46.21478" lon="13.98979"><ele>719</ele><time>2022-08-09T00:26:49.000Z</time></trkpt><trkpt lat="46.21468" lon="13.98988"><ele>719</ele><time>2022-08-09T00:26:59.000Z</time></trkpt><trkpt lat="46.21459" lon="13.99004"><ele>719</ele><time>2022-08-09T00:26:54.000Z</time></trkpt><trkpt lat="46.21455" lon="13.99066"><ele>722</ele><time>2022-08-09T00:27:05.000Z</time></trkpt><trkpt lat="46.21443" lon="13.99085"><ele>724</ele><time>2022-08-09T00:27:15.000Z</time></trkpt><trkpt lat="46.21436" lon="13.9911"><ele>726</ele><time>2022-08-09T00:27:17.000Z</time></trkpt><trkpt lat="46.21436" lon="13.99135"><ele>729.5</ele><time>2022-08-09T00:27:27.000Z</time></trkpt><trkpt lat="46.21441" lon="13.99156"><ele>733</ele><time>2022-08-09T00:27:39.000Z</time></trkpt><trkpt lat="46.21452" lon="13.99177"><ele>739</ele><time>2022-08-09T00:27:49.000Z</time></trkpt><trkpt lat="46.21466" lon="13.99191"><ele>745</ele><time>2022-08-09T00:28:26.000Z</time></trkpt><trkpt lat="46.21486" lon="13.99193"><ele>755</ele><time>2022-08-09T00:28:53.000Z</time></trkpt><trkpt lat="46.21524" lon="13.99216"><ele>775</ele><time>2022-08-09T00:29:24.000Z</time></trkpt><trkpt lat="46.21531" lon="13.99229"><ele>774</ele><time>2022-08-09T00:29:34.000Z</time></trkpt><trkpt lat="46.21531" lon="13.99243"><ele>773</ele><time>2022-08-09T00:29:33.000Z</time></trkpt><trkpt lat="46.21525" lon="13.99256"><ele>772.5</ele><time>2022-08-09T00:29:43.000Z</time></trkpt><trkpt lat="46.21516" lon="13.99267"><ele>772</ele><time>2022-08-09T00:29:43.000Z</time></trkpt><trkpt lat="46.2151" lon="13.99267"><ele>771</ele><time>2022-08-09T00:29:53.000Z</time></trkpt><trkpt lat="46.21497" lon="13.9928"><ele>770</ele><time>2022-08-09T00:29:52.000Z</time></trkpt><trkpt lat="46.21484" lon="13.99298"><ele>770.5</ele><time>2022-08-09T00:30:02.000Z</time></trkpt><trkpt lat="46.21487" lon="13.99314"><ele>771</ele><time>2022-08-09T00:30:02.000Z</time></trkpt><trkpt lat="46.21489" lon="13.99333"><ele>770</ele><time>2022-08-09T00:30:12.000Z</time></trkpt><trkpt lat="46.21484" lon="13.9934"><ele>769</ele><time>2022-08-09T00:30:09.000Z</time></trkpt><trkpt lat="46.21464" lon="13.99343"><ele>767</ele><time>2022-08-09T00:30:17.000Z</time></trkpt><trkpt lat="46.21428" lon="13.99356"><ele>762</ele><time>2022-08-09T00:30:23.000Z</time></trkpt><trkpt lat="46.21418" lon="13.99375"><ele>760</ele><time>2022-08-09T00:30:33.000Z</time></trkpt><trkpt lat="46.21403" lon="13.99381"><ele>758</ele><time>2022-08-09T00:30:28.000Z</time></trkpt><trkpt lat="46.21394" lon="13.99392"><ele>760</ele><time>2022-08-09T00:30:38.000Z</time></trkpt><trkpt lat="46.21389" lon="13.99401"><ele>762</ele><time>2022-08-09T00:30:33.000Z</time></trkpt><trkpt lat="46.21388" lon="13.99434"><ele>760</ele><time>2022-08-09T00:30:43.000Z</time></trkpt><trkpt lat="46.21352" lon="13.99435"><ele>760</ele><time>2022-08-09T00:31:00.000Z</time></trkpt><trkpt lat="46.21332" lon="13.9947"><ele>760</ele><time>2022-08-09T00:31:16.000Z</time></trkpt><trkpt lat="46.21323" lon="13.99478"><ele>760.5</ele><time>2022-08-09T00:31:26.000Z</time></trkpt><trkpt lat="46.21317" lon="13.99487"><ele>761</ele><time>2022-08-09T00:31:28.000Z</time></trkpt><trkpt lat="46.21314" lon="13.99497"><ele>762</ele><time>2022-08-09T00:31:38.000Z</time></trkpt><trkpt lat="46.21315" lon="13.99526"><ele>763</ele><time>2022-08-09T00:31:45.000Z</time></trkpt><trkpt lat="46.21321" lon="13.99554"><ele>768</ele><time>2022-08-09T00:31:58.000Z</time></trkpt><trkpt lat="46.21343" lon="13.99606"><ele>774</ele><time>2022-08-09T00:32:36.000Z</time></trkpt><trkpt lat="46.21371" lon="13.99648"><ele>777</ele><time>2022-08-09T00:33:09.000Z</time></trkpt><trkpt lat="46.21374" lon="13.99657"><ele>778.5</ele><time>2022-08-09T00:33:19.000Z</time></trkpt><trkpt lat="46.21376" lon="13.99693"><ele>780</ele><time>2022-08-09T00:33:22.000Z</time></trkpt><trkpt lat="46.21379" lon="13.99707"><ele>781</ele><time>2022-08-09T00:33:32.000Z</time></trkpt><trkpt lat="46.21385" lon="13.99722"><ele>782</ele><time>2022-08-09T00:33:32.000Z</time></trkpt><trkpt lat="46.21407" lon="13.99761"><ele>788</ele><time>2022-08-09T00:33:50.000Z</time></trkpt><trkpt lat="46.21424" lon="13.99792"><ele>794</ele><time>2022-08-09T00:34:00.000Z</time></trkpt><trkpt lat="46.21432" lon="13.9983"><ele>799</ele><time>2022-08-09T00:34:10.000Z</time></trkpt><trkpt lat="46.21437" lon="13.9986"><ele>800</ele><time>2022-08-09T00:34:20.000Z</time></trkpt><trkpt lat="46.21453" lon="13.9983"><ele>801</ele><time>2022-08-09T00:34:30.000Z</time></trkpt><trkpt lat="46.21472" lon="13.99825"><ele>805</ele><time>2022-08-09T00:34:40.000Z</time></trkpt><trkpt lat="46.21496" lon="13.99817"><ele>809</ele><time>2022-08-09T00:34:50.000Z</time></trkpt><trkpt lat="46.21516" lon="13.99818"><ele>810</ele><time>2022-08-09T00:35:00.000Z</time></trkpt><trkpt lat="46.21517" lon="13.99829"><ele>810.5</ele><time>2022-08-09T00:35:10.000Z</time></trkpt><trkpt lat="46.21513" lon="13.9985"><ele>811</ele><time>2022-08-09T00:35:20.000Z</time></trkpt><trkpt lat="46.21514" lon="13.99872"><ele>811</ele><time>2022-08-09T00:35:30.000Z</time></trkpt><trkpt lat="46.21522" lon="13.99883"><ele>811</ele><time>2022-08-09T00:35:40.000Z</time></trkpt><trkpt lat="46.21526" lon="13.99913"><ele>811</ele><time>2022-08-09T00:35:50.000Z</time></trkpt><trkpt lat="46.21516" lon="13.99926"><ele>808</ele><time>2022-08-09T00:36:00.000Z</time></trkpt><trkpt lat="46.21495" lon="13.99947"><ele>805</ele><time>2022-08-09T00:35:28.000Z</time></trkpt><trkpt lat="46.2148" lon="13.99955"><ele>805</ele><time>2022-08-09T00:35:38.000Z</time></trkpt><trkpt lat="46.21462" lon="13.99957"><ele>805</ele><time>2022-08-09T00:35:53.000Z</time></trkpt><trkpt lat="46.21436" lon="13.99935"><ele>807</ele><time>2022-08-09T00:36:15.000Z</time></trkpt><trkpt lat="46.21417" lon="13.99928"><ele>810</ele><time>2022-08-09T00:36:28.000Z</time></trkpt><trkpt lat="46.21402" lon="13.99911"><ele>810</ele><time>2022-08-09T00:36:35.000Z</time></trkpt><trkpt lat="46.2139" lon="13.99903"><ele>810</ele><time>2022-08-09T00:36:45.000Z</time></trkpt><trkpt lat="46.2138" lon="13.99904"><ele>810</ele><time>2022-08-09T00:36:44.000Z</time></trkpt><trkpt lat="46.21371" lon="13.99913"><ele>810</ele><time>2022-08-09T00:36:54.000Z</time></trkpt><trkpt lat="46.21365" lon="13.99926"><ele>810</ele><time>2022-08-09T00:36:52.000Z</time></trkpt><trkpt lat="46.21361" lon="13.99941"><ele>810</ele><time>2022-08-09T00:37:02.000Z</time></trkpt><trkpt lat="46.21359" lon="13.99945"><ele>810</ele><time>2022-08-09T00:37:12.000Z</time></trkpt><trkpt lat="46.21349" lon="13.99956"><ele>810</ele><time>2022-08-09T00:37:07.000Z</time></trkpt><trkpt lat="46.21339" lon="13.9996"><ele>810</ele><time>2022-08-09T00:37:17.000Z</time></trkpt><trkpt lat="46.21313" lon="13.99952"><ele>810</ele><time>2022-08-09T00:37:33.000Z</time></trkpt><trkpt lat="46.21301" lon="13.99956"><ele>812</ele><time>2022-08-09T00:37:43.000Z</time></trkpt><trkpt lat="46.21278" lon="13.99977"><ele>814</ele><time>2022-08-09T00:38:07.000Z</time></trkpt><trkpt lat="46.21274" lon="13.99978"><ele>820.5</ele><time>2022-08-09T00:38:17.000Z</time></trkpt><trkpt lat="46.21215" lon="14.00009"><ele>827</ele><time>2022-08-09T00:39:28.000Z</time></trkpt><trkpt lat="46.21188" lon="14.00017"><ele>835</ele><time>2022-08-09T00:39:38.000Z</time></trkpt><trkpt lat="46.21152" lon="14.00029"><ele>844</ele><time>2022-08-09T00:39:48.000Z</time></trkpt><trkpt lat="46.21143" lon="14.00053"><ele>849</ele><time>2022-08-09T00:39:58.000Z</time></trkpt><trkpt lat="46.21133" lon="14.00081"><ele>852</ele><time>2022-08-09T00:40:08.000Z</time></trkpt><trkpt lat="46.21103" lon="14.00093"><ele>852</ele><time>2022-08-09T00:40:18.000Z</time></trkpt><trkpt lat="46.211" lon="14.00041"><ele>851</ele><time>2022-08-09T00:40:28.000Z</time></trkpt><trkpt lat="46.21088" lon="14.00007"><ele>848</ele><time>2022-08-09T00:40:38.000Z</time></trkpt><trkpt lat="46.21072" lon="13.99964"><ele>844</ele><time>2022-08-09T00:40:48.000Z</time></trkpt><trkpt lat="46.21058" lon="13.99928"><ele>840</ele><time>2022-08-09T00:40:58.000Z</time></trkpt><trkpt lat="46.21037" lon="13.99871"><ele>835</ele><time>2022-08-09T00:41:08.000Z</time></trkpt><trkpt lat="46.2103" lon="13.99836"><ele>834</ele><time>2022-08-09T00:41:18.000Z</time></trkpt><trkpt lat="46.21023" lon="13.99794"><ele>834</ele><time>2022-08-09T00:42:01.000Z</time></trkpt><trkpt lat="46.21021" lon="13.99794"><ele>834</ele><time>2022-08-09T00:42:11.000Z</time></trkpt><trkpt lat="46.21021" lon="13.99782"><ele>834</ele><time>2022-08-09T00:42:21.000Z</time></trkpt><trkpt lat="46.21009" lon="13.99758"><ele>834</ele><time>2022-08-09T00:42:11.000Z</time></trkpt><trkpt lat="46.20987" lon="13.99725"><ele>835</ele><time>2022-08-09T00:42:24.000Z</time></trkpt><trkpt lat="46.20972" lon="13.99673"><ele>836</ele><time>2022-08-09T00:42:41.000Z</time></trkpt><trkpt lat="46.20955" lon="13.99639"><ele>838</ele><time>2022-08-09T00:42:51.000Z</time></trkpt><trkpt lat="46.20929" lon="13.99585"><ele>842</ele><time>2022-08-09T00:43:12.000Z</time></trkpt><trkpt lat="46.20913" lon="13.99555"><ele>845</ele><time>2022-08-09T00:43:22.000Z</time></trkpt><trkpt lat="46.20891" lon="13.99516"><ele>848</ele><time>2022-08-09T00:44:05.000Z</time></trkpt><trkpt lat="46.20876" lon="13.99499"><ele>851</ele><time>2022-08-09T00:44:15.000Z</time></trkpt><trkpt lat="46.20862" lon="13.9949"><ele>854</ele><time>2022-08-09T00:44:34.000Z</time></trkpt><trkpt lat="46.20838" lon="13.99479"><ele>861</ele><time>2022-08-09T00:44:58.000Z</time></trkpt><trkpt lat="46.20804" lon="13.99472"><ele>867</ele><time>2022-08-09T00:45:27.000Z</time></trkpt><trkpt lat="46.2077" lon="13.99488"><ele>873</ele><time>2022-08-09T00:46:00.000Z</time></trkpt><trkpt lat="46.20765" lon="13.99485"><ele>874.67</ele><time>2022-08-09T00:46:10.000Z</time></trkpt><trkpt lat="46.20765" lon="13.99475"><ele>876.33</ele><time>2022-08-09T00:46:20.000Z</time></trkpt><trkpt lat="46.20767" lon="13.99462"><ele>878</ele><time>2022-08-09T00:46:18.000Z</time></trkpt><trkpt lat="46.20756" lon="13.99438"><ele>882</ele><time>2022-08-09T00:46:37.000Z</time></trkpt><trkpt lat="46.20752" lon="13.99422"><ele>885.5</ele><time>2022-08-09T00:46:47.000Z</time></trkpt><trkpt lat="46.20711" lon="13.99374"><ele>889</ele><time>2022-08-09T00:47:24.000Z</time></trkpt><trkpt lat="46.20693" lon="13.99365"><ele>893</ele><time>2022-08-09T00:47:37.000Z</time></trkpt><trkpt lat="46.20661" lon="13.99355"><ele>899</ele><time>2022-08-09T00:48:04.000Z</time></trkpt><trkpt lat="46.20646" lon="13.99353"><ele>903.5</ele><time>2022-08-09T00:48:14.000Z</time></trkpt><trkpt lat="46.20629" lon="13.99355"><ele>908</ele><time>2022-08-09T00:48:30.000Z</time></trkpt><trkpt lat="46.20605" lon="13.99351"><ele>911</ele><time>2022-08-09T00:48:49.000Z</time></trkpt><trkpt lat="46.20589" lon="13.99336"><ele>912</ele><time>2022-08-09T00:49:00.000Z</time></trkpt><trkpt lat="46.20568" lon="13.99324"><ele>915</ele><time>2022-08-09T00:49:13.000Z</time></trkpt><trkpt lat="46.20562" lon="13.99316"><ele>916.5</ele><time>2022-08-09T00:49:23.000Z</time></trkpt><trkpt lat="46.20543" lon="13.99305"><ele>918</ele><time>2022-08-09T00:49:30.000Z</time></trkpt><trkpt lat="46.20515" lon="13.99298"><ele>923</ele><time>2022-08-09T00:49:53.000Z</time></trkpt><trkpt lat="46.20506" lon="13.99283"><ele>924</ele><time>2022-08-09T00:50:03.000Z</time></trkpt><trkpt lat="46.20493" lon="13.99251"><ele>925</ele><time>2022-08-09T00:50:13.000Z</time></trkpt><trkpt lat="46.20474" lon="13.99226"><ele>928</ele><time>2022-08-09T00:50:23.000Z</time></trkpt><trkpt lat="46.20464" lon="13.99225"><ele>933</ele><time>2022-08-09T00:50:33.000Z</time></trkpt><trkpt lat="46.20448" lon="13.99217"><ele>938</ele><time>2022-08-09T00:50:43.000Z</time></trkpt><trkpt lat="46.20442" lon="13.99216"><ele>941.33</ele><time>2022-08-09T00:50:53.000Z</time></trkpt><trkpt lat="46.20432" lon="13.99221"><ele>944.67</ele><time>2022-08-09T00:51:03.000Z</time></trkpt><trkpt lat="46.20427" lon="13.99214"><ele>948</ele><time>2022-08-09T00:51:13.000Z</time></trkpt><trkpt lat="46.20413" lon="13.99208"><ele>951</ele><time>2022-08-09T00:51:23.000Z</time></trkpt><trkpt lat="46.20407" lon="13.99183"><ele>954</ele><time>2022-08-09T00:52:06.000Z</time></trkpt><trkpt lat="46.20395" lon="13.99158"><ele>957</ele><time>2022-08-09T00:52:21.000Z</time></trkpt><trkpt lat="46.20383" lon="13.99142"><ele>960.5</ele><time>2022-08-09T00:52:31.000Z</time></trkpt><trkpt lat="46.20371" lon="13.99116"><ele>964</ele><time>2022-08-09T00:52:47.000Z</time></trkpt><trkpt lat="46.20369" lon="13.99084"><ele>967</ele><time>2022-08-09T00:52:58.000Z</time></trkpt><trkpt lat="46.20367" lon="13.99069"><ele>967</ele><time>2022-08-09T00:53:08.000Z</time></trkpt><trkpt lat="46.20355" lon="13.99037"><ele>967</ele><time>2022-08-09T00:53:16.000Z</time></trkpt><trkpt lat="46.20356" lon="13.9902"><ele>967.5</ele><time>2022-08-09T00:53:26.000Z</time></trkpt><trkpt lat="46.20365" lon="13.98979"><ele>968</ele><time>2022-08-09T00:53:36.000Z</time></trkpt><trkpt lat="46.2037" lon="13.98951"><ele>969</ele><time>2022-08-09T00:53:45.000Z</time></trkpt><trkpt lat="46.2037" lon="13.98935"><ele>969.5</ele><time>2022-08-09T00:53:55.000Z</time></trkpt><trkpt lat="46.20368" lon="13.98924"><ele>970</ele><time>2022-08-09T00:53:53.000Z</time></trkpt><trkpt lat="46.20359" lon="13.98911"><ele>970</ele><time>2022-08-09T00:54:03.000Z</time></trkpt><trkpt lat="46.20361" lon="13.98893"><ele>970</ele><time>2022-08-09T00:54:05.000Z</time></trkpt><trkpt lat="46.20358" lon="13.98878"><ele>975</ele><time>2022-08-09T00:54:15.000Z</time></trkpt><trkpt lat="46.20349" lon="13.98855"><ele>980</ele><time>2022-08-09T00:54:17.000Z</time></trkpt><trkpt lat="46.20337" lon="13.98812"><ele>979</ele><time>2022-08-09T00:54:32.000Z</time></trkpt><trkpt lat="46.20332" lon="13.98786"><ele>979</ele><time>2022-08-09T00:54:41.000Z</time></trkpt><trkpt lat="46.2033" lon="13.98742"><ele>976</ele><time>2022-08-09T00:54:59.000Z</time></trkpt><trkpt lat="46.20326" lon="13.98709"><ele>976</ele><time>2022-08-09T00:55:13.000Z</time></trkpt><trkpt lat="46.20322" lon="13.98698"><ele>974</ele><time>2022-08-09T00:55:23.000Z</time></trkpt><trkpt lat="46.20321" lon="13.98657"><ele>972</ele><time>2022-08-09T00:55:34.000Z</time></trkpt><trkpt lat="46.20317" lon="13.98635"><ele>971</ele><time>2022-08-09T00:55:44.000Z</time></trkpt><trkpt lat="46.20325" lon="13.98624"><ele>970</ele><time>2022-08-09T00:55:46.000Z</time></trkpt><trkpt lat="46.20333" lon="13.98605"><ele>968.5</ele><time>2022-08-09T00:55:56.000Z</time></trkpt><trkpt lat="46.20335" lon="13.98588"><ele>967</ele><time>2022-08-09T00:55:59.000Z</time></trkpt><trkpt lat="46.20343" lon="13.98577"><ele>964</ele><time>2022-08-09T00:56:09.000Z</time></trkpt><trkpt lat="46.20348" lon="13.98559"><ele>961</ele><time>2022-08-09T00:56:12.000Z</time></trkpt><trkpt lat="46.20375" lon="13.98543"><ele>957</ele><time>2022-08-09T00:56:22.000Z</time></trkpt><trkpt lat="46.20397" lon="13.98531"><ele>955</ele><time>2022-08-09T00:56:32.000Z</time></trkpt><trkpt lat="46.2042" lon="13.98518"><ele>954</ele><time>2022-08-09T00:56:56.000Z</time></trkpt><trkpt lat="46.20441" lon="13.98496"><ele>954</ele><time>2022-08-09T00:57:04.000Z</time></trkpt><trkpt lat="46.20457" lon="13.98482"><ele>954</ele><time>2022-08-09T00:57:10.000Z</time></trkpt><trkpt lat="46.20485" lon="13.98465"><ele>957</ele><time>2022-08-09T00:57:20.000Z</time></trkpt><trkpt lat="46.20494" lon="13.98458"><ele>959</ele><time>2022-08-09T00:57:30.000Z</time></trkpt><trkpt lat="46.20507" lon="13.98442"><ele>961</ele><time>2022-08-09T00:57:44.000Z</time></trkpt><trkpt lat="46.20525" lon="13.98434"><ele>966</ele><time>2022-08-09T00:58:00.000Z</time></trkpt><trkpt lat="46.20532" lon="13.98424"><ele>968.33</ele><time>2022-08-09T00:58:10.000Z</time></trkpt><trkpt lat="46.20533" lon="13.98417"><ele>970.67</ele><time>2022-08-09T00:58:20.000Z</time></trkpt><trkpt lat="46.20531" lon="13.98382"><ele>973</ele><time>2022-08-09T00:58:32.000Z</time></trkpt><trkpt lat="46.20532" lon="13.98365"><ele>975</ele><time>2022-08-09T00:58:42.000Z</time></trkpt><trkpt lat="46.20532" lon="13.98345"><ele>977</ele><time>2022-08-09T00:58:45.000Z</time></trkpt><trkpt lat="46.20538" lon="13.98324"><ele>977</ele><time>2022-08-09T00:58:55.000Z</time></trkpt><trkpt lat="46.20538" lon="13.98316"><ele>977</ele><time>2022-08-09T00:58:57.000Z</time></trkpt><trkpt lat="46.20534" lon="13.98295"><ele>977</ele><time>2022-08-09T00:59:07.000Z</time></trkpt><trkpt lat="46.20535" lon="13.98287"><ele>977</ele><time>2022-08-09T00:59:08.000Z</time></trkpt><trkpt lat="46.20539" lon="13.98278"><ele>976</ele><time>2022-08-09T00:59:18.000Z</time></trkpt><trkpt lat="46.20539" lon="13.98266"><ele>975</ele><time>2022-08-09T00:59:28.000Z</time></trkpt><trkpt lat="46.20537" lon="13.98259"><ele>974</ele><time>2022-08-09T00:59:15.000Z</time></trkpt><trkpt lat="46.20543" lon="13.98231"><ele>974</ele><time>2022-08-09T00:59:20.000Z</time></trkpt><trkpt lat="46.20539" lon="13.98223"><ele>967.5</ele><time>2022-08-09T00:59:30.000Z</time></trkpt><trkpt lat="46.20539" lon="13.98182"><ele>961</ele><time>2022-08-09T00:59:28.000Z</time></trkpt><trkpt lat="46.20542" lon="13.9818"><ele>956</ele><time>2022-08-09T00:59:38.000Z</time></trkpt><trkpt lat="46.20546" lon="13.98158"><ele>951</ele><time>2022-08-09T00:59:31.000Z</time></trkpt><trkpt lat="46.2057" lon="13.98107"><ele>945</ele><time>2022-08-09T00:59:36.000Z</time></trkpt><trkpt lat="46.2059" lon="13.98147"><ele>950</ele><time>2022-08-09T00:59:40.000Z</time></trkpt><trkpt lat="46.20594" lon="13.98145"><ele>952.5</ele><time>2022-08-09T00:59:50.000Z</time></trkpt><trkpt lat="46.20595" lon="13.98172"><ele>955</ele><time>2022-08-09T00:59:54.000Z</time></trkpt><trkpt lat="46.20605" lon="13.98184"><ele>955.5</ele><time>2022-08-09T01:00:04.000Z</time></trkpt><trkpt lat="46.20618" lon="13.9819"><ele>956</ele><time>2022-08-09T01:00:11.000Z</time></trkpt><trkpt lat="46.20632" lon="13.98199"><ele>956</ele><time>2022-08-09T01:00:21.000Z</time></trkpt><trkpt lat="46.20638" lon="13.98207"><ele>956</ele><time>2022-08-09T01:00:26.000Z</time></trkpt><trkpt lat="46.20658" lon="13.98208"><ele>956</ele><time>2022-08-09T01:00:36.000Z</time></trkpt><trkpt lat="46.20664" lon="13.98217"><ele>955.5</ele><time>2022-08-09T01:00:46.000Z</time></trkpt><trkpt lat="46.20676" lon="13.98225"><ele>955</ele><time>2022-08-09T01:00:46.000Z</time></trkpt><trkpt lat="46.20686" lon="13.9823"><ele>955</ele><time>2022-08-09T01:00:56.000Z</time></trkpt><trkpt lat="46.20693" lon="13.98229"><ele>955</ele><time>2022-08-09T01:01:06.000Z</time></trkpt><trkpt lat="46.20699" lon="13.98232"><ele>955</ele><time>2022-08-09T01:00:56.000Z</time></trkpt><trkpt lat="46.20703" lon="13.98241"><ele>952.33</ele><time>2022-08-09T01:01:06.000Z</time></trkpt><trkpt lat="46.20708" lon="13.98246"><ele>949.67</ele><time>2022-08-09T01:01:16.000Z</time></trkpt><trkpt lat="46.2073" lon="13.98251"><ele>947</ele><time>2022-08-09T01:01:08.000Z</time></trkpt><trkpt lat="46.20745" lon="13.98259"><ele>946.5</ele><time>2022-08-09T01:01:18.000Z</time></trkpt><trkpt lat="46.20712" lon="13.98232"><ele>946</ele><time>2022-08-09T01:01:11.000Z</time></trkpt><trkpt lat="46.2071" lon="13.98215"><ele>942.5</ele><time>2022-08-09T01:01:21.000Z</time></trkpt><trkpt lat="46.20681" lon="13.98191"><ele>939</ele><time>2022-08-09T01:01:28.000Z</time></trkpt><trkpt lat="46.20678" lon="13.98179"><ele>926.5</ele><time>2022-08-09T01:01:38.000Z</time></trkpt><trkpt lat="46.20676" lon="13.98144"><ele>914</ele><time>2022-08-09T01:01:45.000Z</time></trkpt><trkpt lat="46.20673" lon="13.98139"><ele>914</ele><time>2022-08-09T01:01:55.000Z</time></trkpt><trkpt lat="46.20663" lon="13.98133"><ele>914</ele><time>2022-08-09T01:02:05.000Z</time></trkpt><trkpt lat="46.20674" lon="13.98129"><ele>914</ele><time>2022-08-09T01:01:55.000Z</time></trkpt><trkpt lat="46.20686" lon="13.98137"><ele>913.5</ele><time>2022-08-09T01:02:05.000Z</time></trkpt><trkpt lat="46.20689" lon="13.98156"><ele>913</ele><time>2022-08-09T01:02:00.000Z</time></trkpt><trkpt lat="46.20697" lon="13.98169"><ele>912.67</ele><time>2022-08-09T01:02:10.000Z</time></trkpt><trkpt lat="46.20703" lon="13.98172"><ele>912.33</ele><time>2022-08-09T01:02:20.000Z</time></trkpt><trkpt lat="46.20719" lon="13.98172"><ele>912</ele><time>2022-08-09T01:02:07.000Z</time></trkpt><trkpt lat="46.20733" lon="13.98177"><ele>910</ele><time>2022-08-09T01:02:17.000Z</time></trkpt><trkpt lat="46.20742" lon="13.98191"><ele>908</ele><time>2022-08-09T01:02:18.000Z</time></trkpt><trkpt lat="46.20765" lon="13.98213"><ele>908</ele><time>2022-08-09T01:02:31.000Z</time></trkpt><trkpt lat="46.20772" lon="13.98227"><ele>906.5</ele><time>2022-08-09T01:02:41.000Z</time></trkpt><trkpt lat="46.20779" lon="13.98235"><ele>905</ele><time>2022-08-09T01:02:41.000Z</time></trkpt><trkpt lat="46.20809" lon="13.98248"><ele>903</ele><time>2022-08-09T01:02:57.000Z</time></trkpt><trkpt lat="46.20832" lon="13.98261"><ele>899</ele><time>2022-08-09T01:03:07.000Z</time></trkpt><trkpt lat="46.20858" lon="13.98275"><ele>894</ele><time>2022-08-09T01:03:26.000Z</time></trkpt><trkpt lat="46.20865" lon="13.98288"><ele>892.33</ele><time>2022-08-09T01:03:36.000Z</time></trkpt><trkpt lat="46.20867" lon="13.98287"><ele>890.67</ele><time>2022-08-09T01:03:46.000Z</time></trkpt><trkpt lat="46.20868" lon="13.98278"><ele>889</ele><time>2022-08-09T01:03:36.000Z</time></trkpt><trkpt lat="46.20866" lon="13.98261"><ele>883.5</ele><time>2022-08-09T01:03:46.000Z</time></trkpt><trkpt lat="46.20861" lon="13.98249"><ele>878</ele><time>2022-08-09T01:03:47.000Z</time></trkpt><trkpt lat="46.20848" lon="13.98233"><ele>877.5</ele><time>2022-08-09T01:03:57.000Z</time></trkpt><trkpt lat="46.20855" lon="13.98234"><ele>877</ele><time>2022-08-09T01:03:59.000Z</time></trkpt><trkpt lat="46.20897" lon="13.98251"><ele>869</ele><time>2022-08-09T01:04:13.000Z</time></trkpt><trkpt lat="46.20906" lon="13.98257"><ele>867.33</ele><time>2022-08-09T01:04:23.000Z</time></trkpt><trkpt lat="46.20911" lon="13.98251"><ele>865.67</ele><time>2022-08-09T01:04:33.000Z</time></trkpt><trkpt lat="46.20912" lon="13.98243"><ele>864</ele><time>2022-08-09T01:04:15.000Z</time></trkpt><trkpt lat="46.20911" lon="13.98234"><ele>861.5</ele><time>2022-08-09T01:04:25.000Z</time></trkpt><trkpt lat="46.20899" lon="13.98224"><ele>859</ele><time>2022-08-09T01:04:17.000Z</time></trkpt><trkpt lat="46.20877" lon="13.98209"><ele>859</ele><time>2022-08-09T01:04:27.000Z</time></trkpt><trkpt lat="46.20853" lon="13.98193"><ele>859</ele><time>2022-08-09T01:04:23.000Z</time></trkpt><trkpt lat="46.20847" lon="13.98185"><ele>854</ele><time>2022-08-09T01:04:33.000Z</time></trkpt><trkpt lat="46.20876" lon="13.98187"><ele>849</ele><time>2022-08-09T01:04:26.000Z</time></trkpt><trkpt lat="46.20887" lon="13.98185"><ele>844</ele><time>2022-08-09T01:04:36.000Z</time></trkpt><trkpt lat="46.2091" lon="13.98173"><ele>839</ele><time>2022-08-09T01:04:38.000Z</time></trkpt><trkpt lat="46.20923" lon="13.98179"><ele>837</ele><time>2022-08-09T01:04:48.000Z</time></trkpt><trkpt lat="46.20933" lon="13.98189"><ele>835</ele><time>2022-08-09T01:04:49.000Z</time></trkpt><trkpt lat="46.20947" lon="13.98197"><ele>834.5</ele><time>2022-08-09T01:04:59.000Z</time></trkpt><trkpt lat="46.20959" lon="13.982"><ele>834</ele><time>2022-08-09T01:05:01.000Z</time></trkpt><trkpt lat="46.20969" lon="13.98198"><ele>830.5</ele><time>2022-08-09T01:05:11.000Z</time></trkpt><trkpt lat="46.20981" lon="13.98191"><ele>827</ele><time>2022-08-09T01:05:06.000Z</time></trkpt><trkpt lat="46.20999" lon="13.98195"><ele>826.5</ele><time>2022-08-09T01:05:16.000Z</time></trkpt><trkpt lat="46.21009" lon="13.982"><ele>826</ele><time>2022-08-09T01:05:09.000Z</time></trkpt><trkpt lat="46.21013" lon="13.98199"><ele>825.33</ele><time>2022-08-09T01:05:19.000Z</time></trkpt><trkpt lat="46.2101" lon="13.98193"><ele>824.67</ele><time>2022-08-09T01:05:29.000Z</time></trkpt><trkpt lat="46.21002" lon="13.98185"><ele>824</ele><time>2022-08-09T01:05:11.000Z</time></trkpt><trkpt lat="46.20964" lon="13.98163"><ele>822</ele><time>2022-08-09T01:05:24.000Z</time></trkpt><trkpt lat="46.20951" lon="13.98151"><ele>820</ele><time>2022-08-09T01:05:34.000Z</time></trkpt><trkpt lat="46.20935" lon="13.98131"><ele>818</ele><time>2022-08-09T01:05:40.000Z</time></trkpt><trkpt lat="46.20925" lon="13.98112"><ele>812</ele><time>2022-08-09T01:05:50.000Z</time></trkpt><trkpt lat="46.20918" lon="13.98083"><ele>806</ele><time>2022-08-09T01:05:58.000Z</time></trkpt><trkpt lat="46.20921" lon="13.98056"><ele>803</ele><time>2022-08-09T01:06:08.000Z</time></trkpt><trkpt lat="46.20926" lon="13.98053"><ele>802</ele><time>2022-08-09T01:06:18.000Z</time></trkpt><trkpt lat="46.20946" lon="13.98098"><ele>801</ele><time>2022-08-09T01:06:28.000Z</time></trkpt><trkpt lat="46.20973" lon="13.98119"><ele>801</ele><time>2022-08-09T01:06:38.000Z</time></trkpt><trkpt lat="46.21002" lon="13.98123"><ele>799</ele><time>2022-08-09T01:06:48.000Z</time></trkpt><trkpt lat="46.21024" lon="13.98108"><ele>788</ele><time>2022-08-09T01:06:58.000Z</time></trkpt><trkpt lat="46.21042" lon="13.98099"><ele>788</ele><time>2022-08-09T01:07:08.000Z</time></trkpt><trkpt lat="46.21059" lon="13.98119"><ele>788</ele><time>2022-08-09T01:07:18.000Z</time></trkpt><trkpt lat="46.21088" lon="13.98136"><ele>784</ele><time>2022-08-09T01:07:28.000Z</time></trkpt><trkpt lat="46.21107" lon="13.98162"><ele>782</ele><time>2022-08-09T01:07:38.000Z</time></trkpt><trkpt lat="46.21133" lon="13.98198"><ele>771</ele><time>2022-08-09T01:07:48.000Z</time></trkpt><trkpt lat="46.21122" lon="13.98152"><ele>769</ele><time>2022-08-09T01:07:58.000Z</time></trkpt><trkpt lat="46.21111" lon="13.98106"><ele>766</ele><time>2022-08-09T01:08:08.000Z</time></trkpt><trkpt lat="46.21103" lon="13.98072"><ele>764</ele><time>2022-08-09T01:08:18.000Z</time></trkpt><trkpt lat="46.21094" lon="13.98032"><ele>757</ele><time>2022-08-09T01:08:28.000Z</time></trkpt><trkpt lat="46.21074" lon="13.98024"><ele>756</ele><time>2022-08-09T01:08:38.000Z</time></trkpt><trkpt lat="46.21087" lon="13.98006"><ele>749</ele><time>2022-08-09T01:08:48.000Z</time></trkpt><trkpt lat="46.21101" lon="13.97981"><ele>742</ele><time>2022-08-09T01:08:13.000Z</time></trkpt><trkpt lat="46.21123" lon="13.97928"><ele>728</ele><time>2022-08-09T01:08:37.000Z</time></trkpt><trkpt lat="46.21135" lon="13.97895"><ele>722</ele><time>2022-08-09T01:08:47.000Z</time></trkpt><trkpt lat="46.21148" lon="13.97858"><ele>718</ele><time>2022-08-09T01:08:56.000Z</time></trkpt><trkpt lat="46.21146" lon="13.97847"><ele>716.5</ele><time>2022-08-09T01:09:06.000Z</time></trkpt><trkpt lat="46.21122" lon="13.97867"><ele>715</ele><time>2022-08-09T01:08:59.000Z</time></trkpt><trkpt lat="46.21114" lon="13.9787"><ele>712</ele><time>2022-08-09T01:09:09.000Z</time></trkpt><trkpt lat="46.21107" lon="13.97866"><ele>709</ele><time>2022-08-09T01:09:19.000Z</time></trkpt><trkpt lat="46.21118" lon="13.97838"><ele>706</ele><time>2022-08-09T01:09:02.000Z</time></trkpt><trkpt lat="46.21124" lon="13.9781"><ele>702</ele><time>2022-08-09T01:09:04.000Z</time></trkpt><trkpt lat="46.2114" lon="13.97771"><ele>696</ele><time>2022-08-09T01:09:07.000Z</time></trkpt><trkpt lat="46.21145" lon="13.97747"><ele>693</ele><time>2022-08-09T01:09:17.000Z</time></trkpt><trkpt lat="46.21135" lon="13.97718"><ele>690</ele><time>2022-08-09T01:09:25.000Z</time></trkpt><trkpt lat="46.21119" lon="13.97693"><ele>687</ele><time>2022-08-09T01:09:35.000Z</time></trkpt><trkpt lat="46.21102" lon="13.97667"><ele>684</ele><time>2022-08-09T01:09:52.000Z</time></trkpt><trkpt lat="46.21079" lon="13.9762"><ele>669</ele><time>2022-08-09T01:10:14.000Z</time></trkpt><trkpt lat="46.21066" lon="13.97584"><ele>656</ele><time>2022-08-09T01:10:30.000Z</time></trkpt><trkpt lat="46.21067" lon="13.9756"><ele>653</ele><time>2022-08-09T01:10:40.000Z</time></trkpt><trkpt lat="46.21079" lon="13.97522"><ele>650</ele><time>2022-08-09T01:10:46.000Z</time></trkpt><trkpt lat="46.21092" lon="13.97498"><ele>645</ele><time>2022-08-09T01:10:51.000Z</time></trkpt><trkpt lat="46.21113" lon="13.9747"><ele>642</ele><time>2022-08-09T01:10:57.000Z</time></trkpt><trkpt lat="46.21123" lon="13.9744"><ele>639</ele><time>2022-08-09T01:11:09.000Z</time></trkpt><trkpt lat="46.21133" lon="13.97388"><ele>621</ele><time>2022-08-09T01:11:30.000Z</time></trkpt><trkpt lat="46.21147" lon="13.9736"><ele>615</ele><time>2022-08-09T01:11:40.000Z</time></trkpt><trkpt lat="46.21162" lon="13.9733"><ele>613</ele><time>2022-08-09T01:11:50.000Z</time></trkpt><trkpt lat="46.21184" lon="13.97386"><ele>614</ele><time>2022-08-09T01:12:00.000Z</time></trkpt><trkpt lat="46.21197" lon="13.9741"><ele>609</ele><time>2022-08-09T01:12:10.000Z</time></trkpt><trkpt lat="46.21229" lon="13.97424"><ele>604</ele><time>2022-08-09T01:12:20.000Z</time></trkpt><trkpt lat="46.2125" lon="13.97435"><ele>597</ele><time>2022-08-09T01:12:30.000Z</time></trkpt><trkpt lat="46.21241" lon="13.974"><ele>595</ele><time>2022-08-09T01:12:40.000Z</time></trkpt><trkpt lat="46.21214" lon="13.97362"><ele>593</ele><time>2022-08-09T01:12:50.000Z</time></trkpt><trkpt lat="46.21228" lon="13.97308"><ele>574</ele><time>2022-08-09T01:13:00.000Z</time></trkpt><trkpt lat="46.21211" lon="13.97252"><ele>564</ele><time>2022-08-09T01:13:10.000Z</time></trkpt><trkpt lat="46.21194" lon="13.97223"><ele>561</ele><time>2022-08-09T01:13:20.000Z</time></trkpt><trkpt lat="46.21172" lon="13.97187"><ele>552</ele><time>2022-08-09T01:13:30.000Z</time></trkpt><trkpt lat="46.21143" lon="13.97165"><ele>548</ele><time>2022-08-09T01:13:40.000Z</time></trkpt><trkpt lat="46.2116" lon="13.97106"><ele>538</ele><time>2022-08-09T01:13:50.000Z</time></trkpt><trkpt lat="46.21149" lon="13.97074"><ele>534</ele><time>2022-08-09T01:14:00.000Z</time></trkpt><trkpt lat="46.21148" lon="13.97035"><ele>528</ele><time>2022-08-09T01:14:10.000Z</time></trkpt><trkpt lat="46.21143" lon="13.97018"><ele>524.5</ele><time>2022-08-09T01:14:20.000Z</time></trkpt><trkpt lat="46.21137" lon="13.97003"><ele>521</ele><time>2022-08-09T01:14:30.000Z</time></trkpt><trkpt lat="46.21139" lon="13.96991"><ele>520.5</ele><time>2022-08-09T01:14:40.000Z</time></trkpt><trkpt lat="46.21154" lon="13.96998"><ele>520</ele><time>2022-08-09T01:14:50.000Z</time></trkpt><trkpt lat="46.21165" lon="13.97"><ele>519.5</ele><time>2022-08-09T01:15:00.000Z</time></trkpt><trkpt lat="46.21169" lon="13.96999"><ele>519</ele><time>2022-08-09T01:15:10.000Z</time></trkpt><trkpt lat="46.21169" lon="13.96997"><ele>518.5</ele><time>2022-08-09T01:15:20.000Z</time></trkpt><trkpt lat="46.21158" lon="13.96987"><ele>518</ele><time>2022-08-09T01:15:30.000Z</time></trkpt><trkpt lat="46.21138" lon="13.96944"><ele>515</ele><time>2022-08-09T01:15:45.000Z</time></trkpt><trkpt lat="46.21137" lon="13.96939"><ele>515.33</ele><time>2022-08-09T01:15:55.000Z</time></trkpt><trkpt lat="46.2113" lon="13.96936"><ele>515.67</ele><time>2022-08-09T01:16:05.000Z</time></trkpt><trkpt lat="46.21115" lon="13.96953"><ele>516</ele><time>2022-08-09T01:15:55.000Z</time></trkpt><trkpt lat="46.2111" lon="13.96962"><ele>515.33</ele><time>2022-08-09T01:16:05.000Z</time></trkpt><trkpt lat="46.21103" lon="13.96965"><ele>514.67</ele><time>2022-08-09T01:16:15.000Z</time></trkpt><trkpt lat="46.21095" lon="13.96957"><ele>514</ele><time>2022-08-09T01:16:01.000Z</time></trkpt><trkpt lat="46.21108" lon="13.96933"><ele>512</ele><time>2022-08-09T01:16:06.000Z</time></trkpt><trkpt lat="46.21113" lon="13.96928"><ele>509.5</ele><time>2022-08-09T01:16:16.000Z</time></trkpt><trkpt lat="46.21126" lon="13.96905"><ele>507</ele><time>2022-08-09T01:16:14.000Z</time></trkpt><trkpt lat="46.21132" lon="13.96911"><ele>506</ele><time>2022-08-09T01:16:16.000Z</time></trkpt></trkseg></trk></gpx>