<?xml version="1.0" encoding="UTF-8"?>
<gpx xmlns="http://www.topografix.com/GPX/1/1" xmlns:xsi="http://www.w3.org/2001/XMLSchema-instance" version="1.1" creator="Trace de Trail" xsi:schemaLocation="http://www.topografix.com/GPX/1/1 http://www.topografix.com/GPX/1/1/gpx.xsd">
  <metadata>
    <name>Kras Trail 2026 - Kras Trail 10 km</name>
    <desc>Parcours créé sur Trace de Trail</desc>
    <link href="https://tracedetrail.fr/en/trace/298929">
      <text>Cartographie du parcours</text>
    </link>
    <time>2025-09-16T15:37:29+00:00</time>
  </metadata>
  <trk>
    <name>Kras Trail 2026 - Kras Trail 10 km sur TraceDeTrail.fr</name>
    <src>Trace de Trail</src>
    <trkseg>
      <trkpt lat="45.66349" lon="13.9896">
        <ele>412</ele>
        <time>2025-09-16T15:37:29+00:00</time>
      </trkpt>
      <trkpt lat="45.66349" lon="13.98967">
        <ele>411</ele>
        <time>2025-09-16T15:37:32+00:00</time>
      </trkpt>
      <trkpt lat="45.66351" lon="13.98984">
        <ele>410</ele>
        <time>2025-09-16T15:37:35+00:00</time>
      </trkpt>
      <trkpt lat="45.66369" lon="13.99014">
        <ele>407</ele>
        <time>2025-09-16T15:37:38+00:00</time>
      </trkpt>
      <trkpt lat="45.66351" lon="13.99012">
        <ele>410</ele>
        <time>2025-09-16T15:37:41+00:00</time>
      </trkpt>
      <trkpt lat="45.66339" lon="13.99019">
        <ele>410</ele>
        <time>2025-09-16T15:37:44+00:00</time>
      </trkpt>
      <trkpt lat="45.66317" lon="13.99044">
        <ele>409</ele>
        <time>2025-09-16T15:37:47+00:00</time>
      </trkpt>
      <trkpt lat="45.66315" lon="13.99064">
        <ele>409</ele>
        <time>2025-09-16T15:37:50+00:00</time>
      </trkpt>
      <trkpt lat="45.66319" lon="13.99074">
        <ele>409</ele>
        <time>2025-09-16T15:37:53+00:00</time>
      </trkpt>
      <trkpt lat="45.6633" lon="13.99087">
        <ele>411</ele>
        <time>2025-09-16T15:37:56+00:00</time>
      </trkpt>
      <trkpt lat="45.6633" lon="13.99094">
        <ele>412</ele>
        <time>2025-09-16T15:37:59+00:00</time>
      </trkpt>
      <trkpt lat="45.66336" lon="13.99117">
        <ele>413</ele>
        <time>2025-09-16T15:38:02+00:00</time>
      </trkpt>
      <trkpt lat="45.66366" lon="13.99141">
        <ele>416</ele>
        <time>2025-09-16T15:38:05+00:00</time>
      </trkpt>
      <trkpt lat="45.66366" lon="13.99178">
        <ele>417</ele>
        <time>2025-09-16T15:38:08+00:00</time>
      </trkpt>
      <trkpt lat="45.66384" lon="13.99201">
        <ele>419</ele>
        <time>2025-09-16T15:38:11+00:00</time>
      </trkpt>
      <trkpt lat="45.6639" lon="13.99244">
        <ele>421</ele>
        <time>2025-09-16T15:38:14+00:00</time>
      </trkpt>
      <trkpt lat="45.66394" lon="13.99253">
        <ele>423</ele>
        <time>2025-09-16T15:38:17+00:00</time>
      </trkpt>
      <trkpt lat="45.66435" lon="13.99289">
        <ele>425</ele>
        <time>2025-09-16T15:38:20+00:00</time>
      </trkpt>
      <trkpt lat="45.66459" lon="13.99313">
        <ele>426</ele>
        <time>2025-09-16T15:38:23+00:00</time>
      </trkpt>
      <trkpt lat="45.66469" lon="13.99334">
        <ele>428</ele>
        <time>2025-09-16T15:38:26+00:00</time>
      </trkpt>
      <trkpt lat="45.66472" lon="13.99349">
        <ele>428</ele>
        <time>2025-09-16T15:38:29+00:00</time>
      </trkpt>
      <trkpt lat="45.66476" lon="13.99356">
        <ele>428</ele>
        <time>2025-09-16T15:38:32+00:00</time>
      </trkpt>
      <trkpt lat="45.66514" lon="13.99356">
        <ele>428</ele>
        <time>2025-09-16T15:38:35+00:00</time>
      </trkpt>
      <trkpt lat="45.66521" lon="13.99353">
        <ele>427</ele>
        <time>2025-09-16T15:38:38+00:00</time>
      </trkpt>
      <trkpt lat="45.66525" lon="13.99347">
        <ele>425</ele>
        <time>2025-09-16T15:38:41+00:00</time>
      </trkpt>
      <trkpt lat="45.66532" lon="13.9933">
        <ele>424</ele>
        <time>2025-09-16T15:38:44+00:00</time>
      </trkpt>
      <trkpt lat="45.66549" lon="13.99336">
        <ele>422</ele>
        <time>2025-09-16T15:38:47+00:00</time>
      </trkpt>
      <trkpt lat="45.66564" lon="13.99356">
        <ele>420</ele>
        <time>2025-09-16T15:38:50+00:00</time>
      </trkpt>
      <trkpt lat="45.66594" lon="13.99407">
        <ele>416</ele>
        <time>2025-09-16T15:38:53+00:00</time>
      </trkpt>
      <trkpt lat="45.66615" lon="13.99435">
        <ele>411</ele>
        <time>2025-09-16T15:38:56+00:00</time>
      </trkpt>
      <trkpt lat="45.66626" lon="13.99439">
        <ele>407</ele>
        <time>2025-09-16T15:38:59+00:00</time>
      </trkpt>
      <trkpt lat="45.6666" lon="13.99431">
        <ele>402</ele>
        <time>2025-09-16T15:39:02+00:00</time>
      </trkpt>
      <trkpt lat="45.6668" lon="13.9942">
        <ele>400</ele>
        <time>2025-09-16T15:39:05+00:00</time>
      </trkpt>
      <trkpt lat="45.6671" lon="13.99388">
        <ele>396</ele>
        <time>2025-09-16T15:39:08+00:00</time>
      </trkpt>
      <trkpt lat="45.66712" lon="13.99377">
        <ele>393</ele>
        <time>2025-09-16T15:39:11+00:00</time>
      </trkpt>
      <trkpt lat="45.66712" lon="13.99369">
        <ele>391</ele>
        <time>2025-09-16T15:39:14+00:00</time>
      </trkpt>
      <trkpt lat="45.66699" lon="13.99296">
        <ele>387</ele>
        <time>2025-09-16T15:39:17+00:00</time>
      </trkpt>
      <trkpt lat="45.66688" lon="13.9927">
        <ele>384</ele>
        <time>2025-09-16T15:39:20+00:00</time>
      </trkpt>
      <trkpt lat="45.66663" lon="13.9919">
        <ele>376</ele>
        <time>2025-09-16T15:39:23+00:00</time>
      </trkpt>
      <trkpt lat="45.6666" lon="13.9916">
        <ele>374</ele>
        <time>2025-09-16T15:39:26+00:00</time>
      </trkpt>
      <trkpt lat="45.66652" lon="13.99171">
        <ele>373</ele>
        <time>2025-09-16T15:39:29+00:00</time>
      </trkpt>
      <trkpt lat="45.66647" lon="13.99167">
        <ele>371</ele>
        <time>2025-09-16T15:39:32+00:00</time>
      </trkpt>
      <trkpt lat="45.66647" lon="13.99145">
        <ele>370</ele>
        <time>2025-09-16T15:39:35+00:00</time>
      </trkpt>
      <trkpt lat="45.66641" lon="13.99132">
        <ele>370</ele>
        <time>2025-09-16T15:39:38+00:00</time>
      </trkpt>
      <trkpt lat="45.66613" lon="13.99126">
        <ele>369</ele>
        <time>2025-09-16T15:39:41+00:00</time>
      </trkpt>
      <trkpt lat="45.66598" lon="13.9912">
        <ele>369</ele>
        <time>2025-09-16T15:39:44+00:00</time>
      </trkpt>
      <trkpt lat="45.66553" lon="13.99113">
        <ele>370</ele>
        <time>2025-09-16T15:39:47+00:00</time>
      </trkpt>
      <trkpt lat="45.66517" lon="13.99117">
        <ele>375</ele>
        <time>2025-09-16T15:39:50+00:00</time>
      </trkpt>
      <trkpt lat="45.66499" lon="13.99111">
        <ele>377</ele>
        <time>2025-09-16T15:39:53+00:00</time>
      </trkpt>
      <trkpt lat="45.66489" lon="13.99105">
        <ele>380</ele>
        <time>2025-09-16T15:39:56+00:00</time>
      </trkpt>
      <trkpt lat="45.66461" lon="13.991">
        <ele>383</ele>
        <time>2025-09-16T15:39:59+00:00</time>
      </trkpt>
      <trkpt lat="45.66444" lon="13.99092">
        <ele>386</ele>
        <time>2025-09-16T15:40:02+00:00</time>
      </trkpt>
      <trkpt lat="45.66416" lon="13.99066">
        <ele>392</ele>
        <time>2025-09-16T15:40:05+00:00</time>
      </trkpt>
      <trkpt lat="45.66411" lon="13.99059">
        <ele>395</ele>
        <time>2025-09-16T15:40:08+00:00</time>
      </trkpt>
      <trkpt lat="45.66405" lon="13.99029">
        <ele>401</ele>
        <time>2025-09-16T15:40:11+00:00</time>
      </trkpt>
      <trkpt lat="45.66379" lon="13.99025">
        <ele>404</ele>
        <time>2025-09-16T15:40:14+00:00</time>
      </trkpt>
      <trkpt lat="45.66369" lon="13.99014">
        <ele>407</ele>
        <time>2025-09-16T15:40:17+00:00</time>
      </trkpt>
      <trkpt lat="45.66351" lon="13.98984">
        <ele>410</ele>
        <time>2025-09-16T15:40:20+00:00</time>
      </trkpt>
      <trkpt lat="45.66384" lon="13.98972">
        <ele>415</ele>
        <time>2025-09-16T15:40:23+00:00</time>
      </trkpt>
      <trkpt lat="45.66403" lon="13.98965">
        <ele>417</ele>
        <time>2025-09-16T15:40:26+00:00</time>
      </trkpt>
      <trkpt lat="45.66476" lon="13.9892">
        <ele>424</ele>
        <time>2025-09-16T15:40:29+00:00</time>
      </trkpt>
      <trkpt lat="45.66545" lon="13.98886">
        <ele>431</ele>
        <time>2025-09-16T15:40:32+00:00</time>
      </trkpt>
      <trkpt lat="45.6657" lon="13.98877">
        <ele>436</ele>
        <time>2025-09-16T15:40:35+00:00</time>
      </trkpt>
      <trkpt lat="45.66678" lon="13.9886">
        <ele>445</ele>
        <time>2025-09-16T15:40:38+00:00</time>
      </trkpt>
      <trkpt lat="45.66712" lon="13.98851">
        <ele>448</ele>
        <time>2025-09-16T15:40:41+00:00</time>
      </trkpt>
      <trkpt lat="45.66731" lon="13.98851">
        <ele>450</ele>
        <time>2025-09-16T15:40:44+00:00</time>
      </trkpt>
      <trkpt lat="45.66776" lon="13.98832">
        <ele>451</ele>
        <time>2025-09-16T15:40:47+00:00</time>
      </trkpt>
      <trkpt lat="45.66808" lon="13.98839">
        <ele>452</ele>
        <time>2025-09-16T15:40:50+00:00</time>
      </trkpt>
      <trkpt lat="45.66843" lon="13.98823">
        <ele>452</ele>
        <time>2025-09-16T15:40:53+00:00</time>
      </trkpt>
      <trkpt lat="45.66875" lon="13.98817">
        <ele>451</ele>
        <time>2025-09-16T15:40:56+00:00</time>
      </trkpt>
      <trkpt lat="45.66894" lon="13.98802">
        <ele>450</ele>
        <time>2025-09-16T15:40:59+00:00</time>
      </trkpt>
      <trkpt lat="45.66941" lon="13.98785">
        <ele>449</ele>
        <time>2025-09-16T15:41:02+00:00</time>
      </trkpt>
      <trkpt lat="45.66999" lon="13.98806">
        <ele>448</ele>
        <time>2025-09-16T15:41:05+00:00</time>
      </trkpt>
      <trkpt lat="45.67027" lon="13.98804">
        <ele>447</ele>
        <time>2025-09-16T15:41:08+00:00</time>
      </trkpt>
      <trkpt lat="45.67066" lon="13.98789">
        <ele>446</ele>
        <time>2025-09-16T15:41:11+00:00</time>
      </trkpt>
      <trkpt lat="45.67122" lon="13.98761">
        <ele>445</ele>
        <time>2025-09-16T15:41:14+00:00</time>
      </trkpt>
      <trkpt lat="45.67165" lon="13.98671">
        <ele>444</ele>
        <time>2025-09-16T15:41:17+00:00</time>
      </trkpt>
      <trkpt lat="45.6718" lon="13.98652">
        <ele>443</ele>
        <time>2025-09-16T15:41:20+00:00</time>
      </trkpt>
      <trkpt lat="45.67216" lon="13.98652">
        <ele>442</ele>
        <time>2025-09-16T15:41:23+00:00</time>
      </trkpt>
      <trkpt lat="45.67227" lon="13.98643">
        <ele>442</ele>
        <time>2025-09-16T15:41:26+00:00</time>
      </trkpt>
      <trkpt lat="45.67255" lon="13.98652">
        <ele>442</ele>
        <time>2025-09-16T15:41:29+00:00</time>
      </trkpt>
      <trkpt lat="45.67289" lon="13.9866">
        <ele>442</ele>
        <time>2025-09-16T15:41:32+00:00</time>
      </trkpt>
      <trkpt lat="45.67293" lon="13.98701">
        <ele>443</ele>
        <time>2025-09-16T15:41:35+00:00</time>
      </trkpt>
      <trkpt lat="45.67293" lon="13.98731">
        <ele>443</ele>
        <time>2025-09-16T15:41:38+00:00</time>
      </trkpt>
      <trkpt lat="45.67289" lon="13.98761">
        <ele>444</ele>
        <time>2025-09-16T15:41:41+00:00</time>
      </trkpt>
      <trkpt lat="45.67306" lon="13.98856">
        <ele>448</ele>
        <time>2025-09-16T15:41:44+00:00</time>
      </trkpt>
      <trkpt lat="45.67291" lon="13.98888">
        <ele>449</ele>
        <time>2025-09-16T15:41:47+00:00</time>
      </trkpt>
      <trkpt lat="45.6728" lon="13.98941">
        <ele>452</ele>
        <time>2025-09-16T15:41:50+00:00</time>
      </trkpt>
      <trkpt lat="45.6727" lon="13.98965">
        <ele>454</ele>
        <time>2025-09-16T15:41:53+00:00</time>
      </trkpt>
      <trkpt lat="45.67272" lon="13.99019">
        <ele>458</ele>
        <time>2025-09-16T15:41:56+00:00</time>
      </trkpt>
      <trkpt lat="45.67276" lon="13.99032">
        <ele>459</ele>
        <time>2025-09-16T15:41:59+00:00</time>
      </trkpt>
      <trkpt lat="45.67278" lon="13.99034">
        <ele>461</ele>
        <time>2025-09-16T15:42:02+00:00</time>
      </trkpt>
      <trkpt lat="45.67289" lon="13.99006">
        <ele>463</ele>
        <time>2025-09-16T15:42:05+00:00</time>
      </trkpt>
      <trkpt lat="45.67304" lon="13.9898">
        <ele>464</ele>
        <time>2025-09-16T15:42:08+00:00</time>
      </trkpt>
      <trkpt lat="45.67315" lon="13.98969">
        <ele>466</ele>
        <time>2025-09-16T15:42:11+00:00</time>
      </trkpt>
      <trkpt lat="45.67338" lon="13.98954">
        <ele>467</ele>
        <time>2025-09-16T15:42:14+00:00</time>
      </trkpt>
      <trkpt lat="45.67364" lon="13.98954">
        <ele>468</ele>
        <time>2025-09-16T15:42:17+00:00</time>
      </trkpt>
      <trkpt lat="45.67377" lon="13.98959">
        <ele>470</ele>
        <time>2025-09-16T15:42:20+00:00</time>
      </trkpt>
      <trkpt lat="45.67398" lon="13.98978">
        <ele>471</ele>
        <time>2025-09-16T15:42:23+00:00</time>
      </trkpt>
      <trkpt lat="45.67403" lon="13.98989">
        <ele>471</ele>
        <time>2025-09-16T15:42:26+00:00</time>
      </trkpt>
      <trkpt lat="45.67403" lon="13.99021">
        <ele>472</ele>
        <time>2025-09-16T15:42:29+00:00</time>
      </trkpt>
      <trkpt lat="45.67409" lon="13.9904">
        <ele>473</ele>
        <time>2025-09-16T15:42:32+00:00</time>
      </trkpt>
      <trkpt lat="45.67424" lon="13.99042">
        <ele>473</ele>
        <time>2025-09-16T15:42:35+00:00</time>
      </trkpt>
      <trkpt lat="45.67444" lon="13.99085">
        <ele>474</ele>
        <time>2025-09-16T15:42:38+00:00</time>
      </trkpt>
      <trkpt lat="45.6745" lon="13.99096">
        <ele>474</ele>
        <time>2025-09-16T15:42:41+00:00</time>
      </trkpt>
      <trkpt lat="45.67463" lon="13.99105">
        <ele>474</ele>
        <time>2025-09-16T15:42:44+00:00</time>
      </trkpt>
      <trkpt lat="45.67482" lon="13.99109">
        <ele>473</ele>
        <time>2025-09-16T15:42:47+00:00</time>
      </trkpt>
      <trkpt lat="45.67527" lon="13.99111">
        <ele>472</ele>
        <time>2025-09-16T15:42:50+00:00</time>
      </trkpt>
      <trkpt lat="45.67544" lon="13.9912">
        <ele>471</ele>
        <time>2025-09-16T15:42:53+00:00</time>
      </trkpt>
      <trkpt lat="45.67622" lon="13.99199">
        <ele>467</ele>
        <time>2025-09-16T15:42:56+00:00</time>
      </trkpt>
      <trkpt lat="45.67662" lon="13.99223">
        <ele>464</ele>
        <time>2025-09-16T15:42:59+00:00</time>
      </trkpt>
      <trkpt lat="45.67692" lon="13.99253">
        <ele>462</ele>
        <time>2025-09-16T15:43:02+00:00</time>
      </trkpt>
      <trkpt lat="45.67733" lon="13.99285">
        <ele>459</ele>
        <time>2025-09-16T15:43:05+00:00</time>
      </trkpt>
      <trkpt lat="45.67785" lon="13.99371">
        <ele>453</ele>
        <time>2025-09-16T15:43:08+00:00</time>
      </trkpt>
      <trkpt lat="45.67785" lon="13.99388">
        <ele>452</ele>
        <time>2025-09-16T15:43:11+00:00</time>
      </trkpt>
      <trkpt lat="45.67778" lon="13.99439">
        <ele>449</ele>
        <time>2025-09-16T15:43:14+00:00</time>
      </trkpt>
      <trkpt lat="45.67783" lon="13.99465">
        <ele>448</ele>
        <time>2025-09-16T15:43:17+00:00</time>
      </trkpt>
      <trkpt lat="45.67791" lon="13.99486">
        <ele>447</ele>
        <time>2025-09-16T15:43:20+00:00</time>
      </trkpt>
      <trkpt lat="45.67804" lon="13.99499">
        <ele>446</ele>
        <time>2025-09-16T15:43:23+00:00</time>
      </trkpt>
      <trkpt lat="45.67862" lon="13.99534">
        <ele>443</ele>
        <time>2025-09-16T15:43:26+00:00</time>
      </trkpt>
      <trkpt lat="45.67871" lon="13.99542">
        <ele>442</ele>
        <time>2025-09-16T15:43:29+00:00</time>
      </trkpt>
      <trkpt lat="45.6789" lon="13.996">
        <ele>440</ele>
        <time>2025-09-16T15:43:32+00:00</time>
      </trkpt>
      <trkpt lat="45.67909" lon="13.99626">
        <ele>439</ele>
        <time>2025-09-16T15:43:35+00:00</time>
      </trkpt>
      <trkpt lat="45.67937" lon="13.99647">
        <ele>436</ele>
        <time>2025-09-16T15:43:38+00:00</time>
      </trkpt>
      <trkpt lat="45.67982" lon="13.99665">
        <ele>434</ele>
        <time>2025-09-16T15:43:41+00:00</time>
      </trkpt>
      <trkpt lat="45.68214" lon="13.99738">
        <ele>425</ele>
        <time>2025-09-16T15:43:44+00:00</time>
      </trkpt>
      <trkpt lat="45.68233" lon="13.9975">
        <ele>424</ele>
        <time>2025-09-16T15:43:47+00:00</time>
      </trkpt>
      <trkpt lat="45.68306" lon="13.99793">
        <ele>422</ele>
        <time>2025-09-16T15:43:50+00:00</time>
      </trkpt>
      <trkpt lat="45.68371" lon="13.9983">
        <ele>421</ele>
        <time>2025-09-16T15:43:53+00:00</time>
      </trkpt>
      <trkpt lat="45.68396" lon="13.99849">
        <ele>421</ele>
        <time>2025-09-16T15:43:56+00:00</time>
      </trkpt>
      <trkpt lat="45.68437" lon="13.99864">
        <ele>421</ele>
        <time>2025-09-16T15:43:59+00:00</time>
      </trkpt>
      <trkpt lat="45.68474" lon="13.99879">
        <ele>421</ele>
        <time>2025-09-16T15:44:02+00:00</time>
      </trkpt>
      <trkpt lat="45.68538" lon="13.99933">
        <ele>420</ele>
        <time>2025-09-16T15:44:05+00:00</time>
      </trkpt>
      <trkpt lat="45.68551" lon="13.99939">
        <ele>420</ele>
        <time>2025-09-16T15:44:08+00:00</time>
      </trkpt>
      <trkpt lat="45.68568" lon="13.99918">
        <ele>420</ele>
        <time>2025-09-16T15:44:11+00:00</time>
      </trkpt>
      <trkpt lat="45.68613" lon="13.99894">
        <ele>420</ele>
        <time>2025-09-16T15:44:14+00:00</time>
      </trkpt>
      <trkpt lat="45.68632" lon="13.99877">
        <ele>420</ele>
        <time>2025-09-16T15:44:17+00:00</time>
      </trkpt>
      <trkpt lat="45.68662" lon="13.99868">
        <ele>420</ele>
        <time>2025-09-16T15:44:20+00:00</time>
      </trkpt>
      <trkpt lat="45.68669" lon="13.99862">
        <ele>420</ele>
        <time>2025-09-16T15:44:23+00:00</time>
      </trkpt>
      <trkpt lat="45.68677" lon="13.99845">
        <ele>420</ele>
        <time>2025-09-16T15:44:26+00:00</time>
      </trkpt>
      <trkpt lat="45.68699" lon="13.99821">
        <ele>420</ele>
        <time>2025-09-16T15:44:29+00:00</time>
      </trkpt>
      <trkpt lat="45.68748" lon="13.99793">
        <ele>420</ele>
        <time>2025-09-16T15:44:32+00:00</time>
      </trkpt>
      <trkpt lat="45.6878" lon="13.99761">
        <ele>420</ele>
        <time>2025-09-16T15:44:35+00:00</time>
      </trkpt>
      <trkpt lat="45.68785" lon="13.9975">
        <ele>420</ele>
        <time>2025-09-16T15:44:38+00:00</time>
      </trkpt>
      <trkpt lat="45.68789" lon="13.99733">
        <ele>420</ele>
        <time>2025-09-16T15:44:41+00:00</time>
      </trkpt>
      <trkpt lat="45.68804" lon="13.99723">
        <ele>420</ele>
        <time>2025-09-16T15:44:44+00:00</time>
      </trkpt>
      <trkpt lat="45.68823" lon="13.99693">
        <ele>420</ele>
        <time>2025-09-16T15:44:47+00:00</time>
      </trkpt>
      <trkpt lat="45.68845" lon="13.99675">
        <ele>420</ele>
        <time>2025-09-16T15:44:50+00:00</time>
      </trkpt>
      <trkpt lat="45.68866" lon="13.99662">
        <ele>420</ele>
        <time>2025-09-16T15:44:53+00:00</time>
      </trkpt>
      <trkpt lat="45.68892" lon="13.99665">
        <ele>420</ele>
        <time>2025-09-16T15:44:56+00:00</time>
      </trkpt>
      <trkpt lat="45.68907" lon="13.99669">
        <ele>420</ele>
        <time>2025-09-16T15:44:59+00:00</time>
      </trkpt>
      <trkpt lat="45.68933" lon="13.99669">
        <ele>421</ele>
        <time>2025-09-16T15:45:02+00:00</time>
      </trkpt>
      <trkpt lat="45.68961" lon="13.99656">
        <ele>422</ele>
        <time>2025-09-16T15:45:05+00:00</time>
      </trkpt>
      <trkpt lat="45.69019" lon="13.99602">
        <ele>423</ele>
        <time>2025-09-16T15:45:08+00:00</time>
      </trkpt>
      <trkpt lat="45.69051" lon="13.99583">
        <ele>426</ele>
        <time>2025-09-16T15:45:11+00:00</time>
      </trkpt>
      <trkpt lat="45.69081" lon="13.99555">
        <ele>428</ele>
        <time>2025-09-16T15:45:14+00:00</time>
      </trkpt>
      <trkpt lat="45.69104" lon="13.99506">
        <ele>430</ele>
        <time>2025-09-16T15:45:17+00:00</time>
      </trkpt>
      <trkpt lat="45.69124" lon="13.99476">
        <ele>431</ele>
        <time>2025-09-16T15:45:20+00:00</time>
      </trkpt>
      <trkpt lat="45.69141" lon="13.99452">
        <ele>432</ele>
        <time>2025-09-16T15:45:23+00:00</time>
      </trkpt>
      <trkpt lat="45.6916" lon="13.99439">
        <ele>434</ele>
        <time>2025-09-16T15:45:26+00:00</time>
      </trkpt>
      <trkpt lat="45.69177" lon="13.99459">
        <ele>435</ele>
        <time>2025-09-16T15:45:29+00:00</time>
      </trkpt>
      <trkpt lat="45.69216" lon="13.99461">
        <ele>438</ele>
        <time>2025-09-16T15:45:32+00:00</time>
      </trkpt>
      <trkpt lat="45.6924" lon="13.99454">
        <ele>440</ele>
        <time>2025-09-16T15:45:35+00:00</time>
      </trkpt>
      <trkpt lat="45.69261" lon="13.99459">
        <ele>441</ele>
        <time>2025-09-16T15:45:38+00:00</time>
      </trkpt>
      <trkpt lat="45.69278" lon="13.99471">
        <ele>442</ele>
        <time>2025-09-16T15:45:41+00:00</time>
      </trkpt>
      <trkpt lat="45.69362" lon="13.99482">
        <ele>452</ele>
        <time>2025-09-16T15:45:44+00:00</time>
      </trkpt>
      <trkpt lat="45.6942" lon="13.99482">
        <ele>450</ele>
        <time>2025-09-16T15:45:47+00:00</time>
      </trkpt>
      <trkpt lat="45.69362" lon="13.99482">
        <ele>452</ele>
        <time>2025-09-16T15:45:50+00:00</time>
      </trkpt>
      <trkpt lat="45.69329" lon="13.99478">
        <ele>451</ele>
        <time>2025-09-16T15:45:53+00:00</time>
      </trkpt>
      <trkpt lat="45.69362" lon="13.99482">
        <ele>452</ele>
        <time>2025-09-16T15:45:56+00:00</time>
      </trkpt>
      <trkpt lat="45.69437" lon="13.99482">
        <ele>454</ele>
        <time>2025-09-16T15:45:59+00:00</time>
      </trkpt>
      <trkpt lat="45.69454" lon="13.99484">
        <ele>454</ele>
        <time>2025-09-16T15:46:02+00:00</time>
      </trkpt>
      <trkpt lat="45.69463" lon="13.99495">
        <ele>455</ele>
        <time>2025-09-16T15:46:05+00:00</time>
      </trkpt>
      <trkpt lat="45.69463" lon="13.99504">
        <ele>456</ele>
        <time>2025-09-16T15:46:08+00:00</time>
      </trkpt>
      <trkpt lat="45.69508" lon="13.99579">
        <ele>461</ele>
        <time>2025-09-16T15:46:11+00:00</time>
      </trkpt>
      <trkpt lat="45.69538" lon="13.99617">
        <ele>464</ele>
        <time>2025-09-16T15:46:14+00:00</time>
      </trkpt>
      <trkpt lat="45.69598" lon="13.99677">
        <ele>472</ele>
        <time>2025-09-16T15:46:17+00:00</time>
      </trkpt>
      <trkpt lat="45.69654" lon="13.99763">
        <ele>479</ele>
        <time>2025-09-16T15:46:20+00:00</time>
      </trkpt>
      <trkpt lat="45.69684" lon="13.99783">
        <ele>483</ele>
        <time>2025-09-16T15:46:23+00:00</time>
      </trkpt>
      <trkpt lat="45.69697" lon="13.99817">
        <ele>485</ele>
        <time>2025-09-16T15:46:26+00:00</time>
      </trkpt>
      <trkpt lat="45.69737" lon="13.99815">
        <ele>489</ele>
        <time>2025-09-16T15:46:29+00:00</time>
      </trkpt>
      <trkpt lat="45.698" lon="13.99804">
        <ele>492</ele>
        <time>2025-09-16T15:46:32+00:00</time>
      </trkpt>
      <trkpt lat="45.69812" lon="13.99774">
        <ele>494</ele>
        <time>2025-09-16T15:46:35+00:00</time>
      </trkpt>
      <trkpt lat="45.69815" lon="13.99738">
        <ele>495</ele>
        <time>2025-09-16T15:46:38+00:00</time>
      </trkpt>
      <trkpt lat="45.6981" lon="13.99686">
        <ele>497</ele>
        <time>2025-09-16T15:46:41+00:00</time>
      </trkpt>
      <trkpt lat="45.69789" lon="13.99583">
        <ele>497</ele>
        <time>2025-09-16T15:46:44+00:00</time>
      </trkpt>
      <trkpt lat="45.69772" lon="13.99411">
        <ele>492</ele>
        <time>2025-09-16T15:46:47+00:00</time>
      </trkpt>
      <trkpt lat="45.6975" lon="13.99381">
        <ele>490</ele>
        <time>2025-09-16T15:46:50+00:00</time>
      </trkpt>
      <trkpt lat="45.69707" lon="13.99338">
        <ele>487</ele>
        <time>2025-09-16T15:46:53+00:00</time>
      </trkpt>
      <trkpt lat="45.69643" lon="13.99203">
        <ele>477</ele>
        <time>2025-09-16T15:46:56+00:00</time>
      </trkpt>
      <trkpt lat="45.69564" lon="13.99085">
        <ele>469</ele>
        <time>2025-09-16T15:46:59+00:00</time>
      </trkpt>
      <trkpt lat="45.69521" lon="13.98989">
        <ele>465</ele>
        <time>2025-09-16T15:47:02+00:00</time>
      </trkpt>
      <trkpt lat="45.69386" lon="13.98811">
        <ele>459</ele>
        <time>2025-09-16T15:47:05+00:00</time>
      </trkpt>
      <trkpt lat="45.6931" lon="13.98641">
        <ele>457</ele>
        <time>2025-09-16T15:47:08+00:00</time>
      </trkpt>
      <trkpt lat="45.69285" lon="13.98598">
        <ele>457</ele>
        <time>2025-09-16T15:47:11+00:00</time>
      </trkpt>
      <trkpt lat="45.69265" lon="13.98562">
        <ele>457</ele>
        <time>2025-09-16T15:47:14+00:00</time>
      </trkpt>
      <trkpt lat="45.69222" lon="13.98497">
        <ele>457</ele>
        <time>2025-09-16T15:47:17+00:00</time>
      </trkpt>
      <trkpt lat="45.69147" lon="13.98371">
        <ele>457</ele>
        <time>2025-09-16T15:47:20+00:00</time>
      </trkpt>
      <trkpt lat="45.69137" lon="13.98345">
        <ele>457</ele>
        <time>2025-09-16T15:47:23+00:00</time>
      </trkpt>
      <trkpt lat="45.69064" lon="13.98212">
        <ele>458</ele>
        <time>2025-09-16T15:47:26+00:00</time>
      </trkpt>
      <trkpt lat="45.69049" lon="13.9819">
        <ele>459</ele>
        <time>2025-09-16T15:47:29+00:00</time>
      </trkpt>
      <trkpt lat="45.69023" lon="13.98173">
        <ele>459</ele>
        <time>2025-09-16T15:47:32+00:00</time>
      </trkpt>
      <trkpt lat="45.68978" lon="13.9809">
        <ele>461</ele>
        <time>2025-09-16T15:47:35+00:00</time>
      </trkpt>
      <trkpt lat="45.68954" lon="13.98113">
        <ele>462</ele>
        <time>2025-09-16T15:47:38+00:00</time>
      </trkpt>
      <trkpt lat="45.68866" lon="13.98126">
        <ele>464</ele>
        <time>2025-09-16T15:47:41+00:00</time>
      </trkpt>
      <trkpt lat="45.68823" lon="13.98145">
        <ele>466</ele>
        <time>2025-09-16T15:47:44+00:00</time>
      </trkpt>
      <trkpt lat="45.68748" lon="13.98163">
        <ele>468</ele>
        <time>2025-09-16T15:47:47+00:00</time>
      </trkpt>
      <trkpt lat="45.68667" lon="13.9819">
        <ele>469</ele>
        <time>2025-09-16T15:47:50+00:00</time>
      </trkpt>
      <trkpt lat="45.6863" lon="13.98233">
        <ele>469</ele>
        <time>2025-09-16T15:47:53+00:00</time>
      </trkpt>
      <trkpt lat="45.68602" lon="13.98246">
        <ele>469</ele>
        <time>2025-09-16T15:47:56+00:00</time>
      </trkpt>
      <trkpt lat="45.68521" lon="13.98231">
        <ele>468</ele>
        <time>2025-09-16T15:47:59+00:00</time>
      </trkpt>
      <trkpt lat="45.68467" lon="13.98236">
        <ele>466</ele>
        <time>2025-09-16T15:48:02+00:00</time>
      </trkpt>
      <trkpt lat="45.68409" lon="13.98203">
        <ele>463</ele>
        <time>2025-09-16T15:48:05+00:00</time>
      </trkpt>
      <trkpt lat="45.68315" lon="13.98205">
        <ele>457</ele>
        <time>2025-09-16T15:48:08+00:00</time>
      </trkpt>
      <trkpt lat="45.68302" lon="13.98201">
        <ele>455</ele>
        <time>2025-09-16T15:48:11+00:00</time>
      </trkpt>
      <trkpt lat="45.68285" lon="13.98188">
        <ele>454</ele>
        <time>2025-09-16T15:48:14+00:00</time>
      </trkpt>
      <trkpt lat="45.68255" lon="13.9815">
        <ele>451</ele>
        <time>2025-09-16T15:48:17+00:00</time>
      </trkpt>
      <trkpt lat="45.68218" lon="13.98094">
        <ele>448</ele>
        <time>2025-09-16T15:48:20+00:00</time>
      </trkpt>
      <trkpt lat="45.68199" lon="13.98038">
        <ele>446</ele>
        <time>2025-09-16T15:48:23+00:00</time>
      </trkpt>
      <trkpt lat="45.68197" lon="13.98023">
        <ele>445</ele>
        <time>2025-09-16T15:48:26+00:00</time>
      </trkpt>
      <trkpt lat="45.68207" lon="13.97963">
        <ele>442</ele>
        <time>2025-09-16T15:48:29+00:00</time>
      </trkpt>
      <trkpt lat="45.68205" lon="13.97946">
        <ele>441</ele>
        <time>2025-09-16T15:48:32+00:00</time>
      </trkpt>
      <trkpt lat="45.68195" lon="13.97907">
        <ele>440</ele>
        <time>2025-09-16T15:48:35+00:00</time>
      </trkpt>
      <trkpt lat="45.6818" lon="13.97896">
        <ele>439</ele>
        <time>2025-09-16T15:48:38+00:00</time>
      </trkpt>
      <trkpt lat="45.68177" lon="13.97869">
        <ele>438</ele>
        <time>2025-09-16T15:48:41+00:00</time>
      </trkpt>
      <trkpt lat="45.68141" lon="13.97755">
        <ele>435</ele>
        <time>2025-09-16T15:48:44+00:00</time>
      </trkpt>
      <trkpt lat="45.68135" lon="13.9768">
        <ele>434</ele>
        <time>2025-09-16T15:48:47+00:00</time>
      </trkpt>
      <trkpt lat="45.68122" lon="13.97598">
        <ele>433</ele>
        <time>2025-09-16T15:48:50+00:00</time>
      </trkpt>
      <trkpt lat="45.68126" lon="13.9757">
        <ele>432</ele>
        <time>2025-09-16T15:48:53+00:00</time>
      </trkpt>
      <trkpt lat="45.68132" lon="13.9756">
        <ele>432</ele>
        <time>2025-09-16T15:48:56+00:00</time>
      </trkpt>
      <trkpt lat="45.68147" lon="13.97547">
        <ele>431</ele>
        <time>2025-09-16T15:48:59+00:00</time>
      </trkpt>
      <trkpt lat="45.68165" lon="13.97549">
        <ele>430</ele>
        <time>2025-09-16T15:49:02+00:00</time>
      </trkpt>
      <trkpt lat="45.68195" lon="13.97577">
        <ele>430</ele>
        <time>2025-09-16T15:49:05+00:00</time>
      </trkpt>
      <trkpt lat="45.68214" lon="13.97581">
        <ele>430</ele>
        <time>2025-09-16T15:49:08+00:00</time>
      </trkpt>
      <trkpt lat="45.68229" lon="13.97577">
        <ele>430</ele>
        <time>2025-09-16T15:49:11+00:00</time>
      </trkpt>
      <trkpt lat="45.68246" lon="13.97555">
        <ele>430</ele>
        <time>2025-09-16T15:49:14+00:00</time>
      </trkpt>
      <trkpt lat="45.68321" lon="13.9736">
        <ele>433</ele>
        <time>2025-09-16T15:49:17+00:00</time>
      </trkpt>
      <trkpt lat="45.68336" lon="13.97343">
        <ele>433</ele>
        <time>2025-09-16T15:49:20+00:00</time>
      </trkpt>
      <trkpt lat="45.68345" lon="13.97334">
        <ele>434</ele>
        <time>2025-09-16T15:49:23+00:00</time>
      </trkpt>
      <trkpt lat="45.68394" lon="13.97328">
        <ele>434</ele>
        <time>2025-09-16T15:49:26+00:00</time>
      </trkpt>
      <trkpt lat="45.68426" lon="13.97304">
        <ele>435</ele>
        <time>2025-09-16T15:49:29+00:00</time>
      </trkpt>
      <trkpt lat="45.68489" lon="13.97251">
        <ele>436</ele>
        <time>2025-09-16T15:49:32+00:00</time>
      </trkpt>
      <trkpt lat="45.68469" lon="13.97218">
        <ele>437</ele>
        <time>2025-09-16T15:49:35+00:00</time>
      </trkpt>
      <trkpt lat="45.68435" lon="13.97167">
        <ele>438</ele>
        <time>2025-09-16T15:49:38+00:00</time>
      </trkpt>
      <trkpt lat="45.68426" lon="13.97148">
        <ele>439</ele>
        <time>2025-09-16T15:49:41+00:00</time>
      </trkpt>
      <trkpt lat="45.68415" lon="13.97127">
        <ele>439</ele>
        <time>2025-09-16T15:49:44+00:00</time>
      </trkpt>
      <trkpt lat="45.6842" lon="13.97099">
        <ele>439</ele>
        <time>2025-09-16T15:49:47+00:00</time>
      </trkpt>
      <trkpt lat="45.68416" lon="13.97088">
        <ele>439</ele>
        <time>2025-09-16T15:49:50+00:00</time>
      </trkpt>
      <trkpt lat="45.68413" lon="13.97052">
        <ele>439</ele>
        <time>2025-09-16T15:49:53+00:00</time>
      </trkpt>
    </trkseg>
  </trk>
</gpx>
