<?xml version="1.0" encoding="UTF-8"?>
<gpx xmlns:gpxdata="http://www.cluetrust.com/XML/GPXDATA/1/0" xmlns:xsi="http://www.w3.org/2001/XMLSchema-instance" xmlns="http://www.topografix.com/GPX/1/1" version="1.1" creator="http://ridewithgps.com/" xsi:schemaLocation="http://www.topografix.com/GPX/1/1 http://www.topografix.com/GPX/1/1/gpx.xsd http://www.cluetrust.com/XML/GPXDATA/1/0 http://www.cluetrust.com/Schemas/gpxdata10.xsd">
  <metadata>
    <name>KOF 10 km</name>
    <link href="https://ridewithgps.com/routes/50782737">
      <text>KOF 10 km</text>
    </link>
    <time>2025-05-16T09:41:34Z</time>
  </metadata>
  <trk>
    <name>KOF 10 km</name>
    <trkseg>
      <trkpt lat="45.645359" lon="14.87194">
        <ele>479.4</ele>
      </trkpt>
      <trkpt lat="45.645359" lon="14.87199">
        <ele>479.6</ele>
      </trkpt>
      <trkpt lat="45.645359" lon="14.87199">
        <ele>479.6</ele>
      </trkpt>
      <trkpt lat="45.64556" lon="14.8727">
        <ele>479.5</ele>
      </trkpt>
      <trkpt lat="45.64581" lon="14.87336">
        <ele>477.3</ele>
      </trkpt>
      <trkpt lat="45.64589" lon="14.87356">
        <ele>477.8</ele>
      </trkpt>
      <trkpt lat="45.64621" lon="14.87422">
        <ele>478.8</ele>
      </trkpt>
      <trkpt lat="45.64615" lon="14.8745">
        <ele>480.0</ele>
      </trkpt>
      <trkpt lat="45.64613" lon="14.87467">
        <ele>480.6</ele>
      </trkpt>
      <trkpt lat="45.64612" lon="14.87473">
        <ele>480.8</ele>
      </trkpt>
      <trkpt lat="45.64613" lon="14.87477">
        <ele>480.9</ele>
      </trkpt>
      <trkpt lat="45.646266" lon="14.875149">
        <ele>482.5</ele>
      </trkpt>
      <trkpt lat="45.646591" lon="14.875344">
        <ele>483.2</ele>
      </trkpt>
      <trkpt lat="45.647243" lon="14.87573">
        <ele>485.5</ele>
      </trkpt>
      <trkpt lat="45.647003" lon="14.876571">
        <ele>485.8</ele>
      </trkpt>
      <trkpt lat="45.646983" lon="14.87774">
        <ele>485.5</ele>
      </trkpt>
      <trkpt lat="45.646858" lon="14.877759">
        <ele>486.0</ele>
      </trkpt>
      <trkpt lat="45.646532" lon="14.877614">
        <ele>487.9</ele>
      </trkpt>
      <trkpt lat="45.646383" lon="14.877529">
        <ele>489.0</ele>
      </trkpt>
      <trkpt lat="45.646333" lon="14.87747">
        <ele>489.3</ele>
      </trkpt>
      <trkpt lat="45.646085" lon="14.877118">
        <ele>489.9</ele>
      </trkpt>
      <trkpt lat="45.64609" lon="14.87711">
        <ele>489.9</ele>
      </trkpt>
      <trkpt lat="45.64606" lon="14.87707">
        <ele>489.9</ele>
      </trkpt>
      <trkpt lat="45.64606" lon="14.87707">
        <ele>489.9</ele>
      </trkpt>
      <trkpt lat="45.645829" lon="14.87744">
        <ele>492.7</ele>
      </trkpt>
      <trkpt lat="45.64559" lon="14.87775">
        <ele>493.1</ele>
      </trkpt>
      <trkpt lat="45.64547" lon="14.8779">
        <ele>493.1</ele>
      </trkpt>
      <trkpt lat="45.64537" lon="14.87797">
        <ele>492.9</ele>
      </trkpt>
      <trkpt lat="45.64529" lon="14.87802">
        <ele>492.8</ele>
      </trkpt>
      <trkpt lat="45.645269" lon="14.87804">
        <ele>492.8</ele>
      </trkpt>
      <trkpt lat="45.64524" lon="14.87805">
        <ele>492.7</ele>
      </trkpt>
      <trkpt lat="45.64521" lon="14.87807">
        <ele>492.7</ele>
      </trkpt>
      <trkpt lat="45.64515" lon="14.87807">
        <ele>492.6</ele>
      </trkpt>
      <trkpt lat="45.64515" lon="14.87807">
        <ele>492.6</ele>
      </trkpt>
      <trkpt lat="45.64515" lon="14.87812">
        <ele>492.5</ele>
      </trkpt>
      <trkpt lat="45.64521" lon="14.87852">
        <ele>492.4</ele>
      </trkpt>
      <trkpt lat="45.64525" lon="14.87861">
        <ele>492.5</ele>
      </trkpt>
      <trkpt lat="45.64534" lon="14.87884">
        <ele>492.6</ele>
      </trkpt>
      <trkpt lat="45.64535" lon="14.87887">
        <ele>492.6</ele>
      </trkpt>
      <trkpt lat="45.64548" lon="14.87913">
        <ele>492.6</ele>
      </trkpt>
      <trkpt lat="45.6456" lon="14.87932">
        <ele>492.0</ele>
      </trkpt>
      <trkpt lat="45.64565" lon="14.87939">
        <ele>491.8</ele>
      </trkpt>
      <trkpt lat="45.64565" lon="14.87939">
        <ele>491.8</ele>
      </trkpt>
      <trkpt lat="45.64562" lon="14.87946">
        <ele>491.4</ele>
      </trkpt>
      <trkpt lat="45.64559" lon="14.87952">
        <ele>491.1</ele>
      </trkpt>
      <trkpt lat="45.64558" lon="14.87959">
        <ele>490.8</ele>
      </trkpt>
      <trkpt lat="45.64556" lon="14.87965">
        <ele>490.5</ele>
      </trkpt>
      <trkpt lat="45.64553" lon="14.8797">
        <ele>490.3</ele>
      </trkpt>
      <trkpt lat="45.64549" lon="14.87976">
        <ele>490.0</ele>
      </trkpt>
      <trkpt lat="45.64548" lon="14.87977">
        <ele>490.0</ele>
      </trkpt>
      <trkpt lat="45.64541" lon="14.87987">
        <ele>489.5</ele>
      </trkpt>
      <trkpt lat="45.64537" lon="14.87991">
        <ele>489.4</ele>
      </trkpt>
      <trkpt lat="45.64537" lon="14.87991">
        <ele>489.4</ele>
      </trkpt>
      <trkpt lat="45.64532" lon="14.88003">
        <ele>488.8</ele>
      </trkpt>
      <trkpt lat="45.64531" lon="14.88012">
        <ele>488.4</ele>
      </trkpt>
      <trkpt lat="45.64531" lon="14.88026">
        <ele>487.7</ele>
      </trkpt>
      <trkpt lat="45.64531" lon="14.88051">
        <ele>486.5</ele>
      </trkpt>
      <trkpt lat="45.64531" lon="14.88063">
        <ele>485.9</ele>
      </trkpt>
      <trkpt lat="45.64531" lon="14.88072">
        <ele>485.4</ele>
      </trkpt>
      <trkpt lat="45.6453" lon="14.88082">
        <ele>485.0</ele>
      </trkpt>
      <trkpt lat="45.64529" lon="14.88095">
        <ele>484.6</ele>
      </trkpt>
      <trkpt lat="45.64526" lon="14.88122">
        <ele>483.8</ele>
      </trkpt>
      <trkpt lat="45.64513" lon="14.88209">
        <ele>481.8</ele>
      </trkpt>
      <trkpt lat="45.64513" lon="14.88209">
        <ele>481.8</ele>
      </trkpt>
      <trkpt lat="45.64516" lon="14.88211">
        <ele>481.5</ele>
      </trkpt>
      <trkpt lat="45.64558" lon="14.88228">
        <ele>478.8</ele>
      </trkpt>
      <trkpt lat="45.64587" lon="14.88241">
        <ele>477.2</ele>
      </trkpt>
      <trkpt lat="45.64604" lon="14.88248">
        <ele>477.1</ele>
      </trkpt>
      <trkpt lat="45.64613" lon="14.88252">
        <ele>476.9</ele>
      </trkpt>
      <trkpt lat="45.64621" lon="14.88256">
        <ele>476.8</ele>
      </trkpt>
      <trkpt lat="45.64638" lon="14.88264">
        <ele>476.4</ele>
      </trkpt>
      <trkpt lat="45.64655" lon="14.88272">
        <ele>476.0</ele>
      </trkpt>
      <trkpt lat="45.64658" lon="14.88273">
        <ele>476.0</ele>
      </trkpt>
      <trkpt lat="45.646949" lon="14.88293">
        <ele>475.5</ele>
      </trkpt>
      <trkpt lat="45.6473" lon="14.88305">
        <ele>475.6</ele>
      </trkpt>
      <trkpt lat="45.64739" lon="14.88308">
        <ele>475.7</ele>
      </trkpt>
      <trkpt lat="45.64741" lon="14.88309">
        <ele>475.7</ele>
      </trkpt>
      <trkpt lat="45.647509" lon="14.88314">
        <ele>475.7</ele>
      </trkpt>
      <trkpt lat="45.6476" lon="14.88319">
        <ele>475.5</ele>
      </trkpt>
      <trkpt lat="45.64775" lon="14.88325">
        <ele>475.3</ele>
      </trkpt>
      <trkpt lat="45.64786" lon="14.88327">
        <ele>475.2</ele>
      </trkpt>
      <trkpt lat="45.64792" lon="14.88324">
        <ele>475.3</ele>
      </trkpt>
      <trkpt lat="45.647979" lon="14.8832">
        <ele>475.5</ele>
      </trkpt>
      <trkpt lat="45.64807" lon="14.88314">
        <ele>475.7</ele>
      </trkpt>
      <trkpt lat="45.64824" lon="14.88306">
        <ele>476.0</ele>
      </trkpt>
      <trkpt lat="45.64835" lon="14.88305">
        <ele>475.9</ele>
      </trkpt>
      <trkpt lat="45.64844" lon="14.88301">
        <ele>475.7</ele>
      </trkpt>
      <trkpt lat="45.64844" lon="14.88301">
        <ele>475.7</ele>
      </trkpt>
      <trkpt lat="45.648449" lon="14.88306">
        <ele>475.5</ele>
      </trkpt>
      <trkpt lat="45.6485" lon="14.88323">
        <ele>474.7</ele>
      </trkpt>
      <trkpt lat="45.64863" lon="14.8837">
        <ele>473.1</ele>
      </trkpt>
      <trkpt lat="45.6487" lon="14.88397">
        <ele>472.4</ele>
      </trkpt>
      <trkpt lat="45.648739" lon="14.88411">
        <ele>472.1</ele>
      </trkpt>
      <trkpt lat="45.64878" lon="14.88417">
        <ele>472.0</ele>
      </trkpt>
      <trkpt lat="45.64879" lon="14.88419">
        <ele>472.0</ele>
      </trkpt>
      <trkpt lat="45.64882" lon="14.88422">
        <ele>472.0</ele>
      </trkpt>
      <trkpt lat="45.64884" lon="14.88424">
        <ele>472.0</ele>
      </trkpt>
      <trkpt lat="45.64887" lon="14.88425">
        <ele>472.0</ele>
      </trkpt>
      <trkpt lat="45.6489" lon="14.88425">
        <ele>472.0</ele>
      </trkpt>
      <trkpt lat="45.64895" lon="14.88425">
        <ele>472.0</ele>
      </trkpt>
      <trkpt lat="45.64896" lon="14.88425">
        <ele>472.0</ele>
      </trkpt>
      <trkpt lat="45.649" lon="14.88425">
        <ele>472.0</ele>
      </trkpt>
      <trkpt lat="45.64904" lon="14.88427">
        <ele>472.0</ele>
      </trkpt>
      <trkpt lat="45.64909" lon="14.88432">
        <ele>472.0</ele>
      </trkpt>
      <trkpt lat="45.64911" lon="14.88435">
        <ele>472.0</ele>
      </trkpt>
      <trkpt lat="45.64923" lon="14.88455">
        <ele>472.0</ele>
      </trkpt>
      <trkpt lat="45.64937" lon="14.88471">
        <ele>471.9</ele>
      </trkpt>
      <trkpt lat="45.6496" lon="14.88498">
        <ele>472.0</ele>
      </trkpt>
      <trkpt lat="45.64972" lon="14.88515">
        <ele>472.4</ele>
      </trkpt>
      <trkpt lat="45.64989" lon="14.88534">
        <ele>472.9</ele>
      </trkpt>
      <trkpt lat="45.64998" lon="14.88548">
        <ele>473.2</ele>
      </trkpt>
      <trkpt lat="45.65007" lon="14.88572">
        <ele>473.9</ele>
      </trkpt>
      <trkpt lat="45.65009" lon="14.88574">
        <ele>473.9</ele>
      </trkpt>
      <trkpt lat="45.650149" lon="14.88584">
        <ele>474.2</ele>
      </trkpt>
      <trkpt lat="45.65017" lon="14.8859">
        <ele>474.2</ele>
      </trkpt>
      <trkpt lat="45.65017" lon="14.88598">
        <ele>474.1</ele>
      </trkpt>
      <trkpt lat="45.65014" lon="14.88634">
        <ele>473.9</ele>
      </trkpt>
      <trkpt lat="45.65013" lon="14.88671">
        <ele>473.6</ele>
      </trkpt>
      <trkpt lat="45.65013" lon="14.88687">
        <ele>473.5</ele>
      </trkpt>
      <trkpt lat="45.65013" lon="14.88707">
        <ele>473.3</ele>
      </trkpt>
      <trkpt lat="45.65018" lon="14.88752">
        <ele>472.5</ele>
      </trkpt>
      <trkpt lat="45.65021" lon="14.88763">
        <ele>472.4</ele>
      </trkpt>
      <trkpt lat="45.65027" lon="14.88784">
        <ele>472.3</ele>
      </trkpt>
      <trkpt lat="45.65037" lon="14.88816">
        <ele>472.0</ele>
      </trkpt>
      <trkpt lat="45.650419" lon="14.88833">
        <ele>472.0</ele>
      </trkpt>
      <trkpt lat="45.65058" lon="14.88879">
        <ele>473.7</ele>
      </trkpt>
      <trkpt lat="45.65068" lon="14.88909">
        <ele>475.5</ele>
      </trkpt>
      <trkpt lat="45.65082" lon="14.88952">
        <ele>477.7</ele>
      </trkpt>
      <trkpt lat="45.65092" lon="14.88966">
        <ele>478.6</ele>
      </trkpt>
      <trkpt lat="45.65099" lon="14.88979">
        <ele>479.5</ele>
      </trkpt>
      <trkpt lat="45.65109" lon="14.88998">
        <ele>480.8</ele>
      </trkpt>
      <trkpt lat="45.65112" lon="14.89007">
        <ele>481.3</ele>
      </trkpt>
      <trkpt lat="45.65113" lon="14.89014">
        <ele>481.7</ele>
      </trkpt>
      <trkpt lat="45.65113" lon="14.8902">
        <ele>481.9</ele>
      </trkpt>
      <trkpt lat="45.65111" lon="14.8903">
        <ele>482.3</ele>
      </trkpt>
      <trkpt lat="45.65109" lon="14.89039">
        <ele>482.7</ele>
      </trkpt>
      <trkpt lat="45.65108" lon="14.89042">
        <ele>482.8</ele>
      </trkpt>
      <trkpt lat="45.65099" lon="14.89065">
        <ele>483.5</ele>
      </trkpt>
      <trkpt lat="45.65093" lon="14.8908">
        <ele>484.1</ele>
      </trkpt>
      <trkpt lat="45.6509" lon="14.89089">
        <ele>484.3</ele>
      </trkpt>
      <trkpt lat="45.65087" lon="14.89097">
        <ele>484.4</ele>
      </trkpt>
      <trkpt lat="45.65086" lon="14.89103">
        <ele>484.6</ele>
      </trkpt>
      <trkpt lat="45.65085" lon="14.89107">
        <ele>484.6</ele>
      </trkpt>
      <trkpt lat="45.65085" lon="14.89112">
        <ele>484.7</ele>
      </trkpt>
      <trkpt lat="45.65085" lon="14.89117">
        <ele>484.9</ele>
      </trkpt>
      <trkpt lat="45.65085" lon="14.8912">
        <ele>484.9</ele>
      </trkpt>
      <trkpt lat="45.65086" lon="14.89123">
        <ele>485.0</ele>
      </trkpt>
      <trkpt lat="45.65087" lon="14.89124">
        <ele>485.1</ele>
      </trkpt>
      <trkpt lat="45.65088" lon="14.89126">
        <ele>485.2</ele>
      </trkpt>
      <trkpt lat="45.650889" lon="14.89127">
        <ele>485.3</ele>
      </trkpt>
      <trkpt lat="45.65091" lon="14.89128">
        <ele>485.4</ele>
      </trkpt>
      <trkpt lat="45.65095" lon="14.89129">
        <ele>485.5</ele>
      </trkpt>
      <trkpt lat="45.650979" lon="14.8913">
        <ele>485.7</ele>
      </trkpt>
      <trkpt lat="45.65102" lon="14.89132">
        <ele>485.9</ele>
      </trkpt>
      <trkpt lat="45.65105" lon="14.89133">
        <ele>486.0</ele>
      </trkpt>
      <trkpt lat="45.65107" lon="14.89134">
        <ele>486.1</ele>
      </trkpt>
      <trkpt lat="45.65109" lon="14.89136">
        <ele>486.3</ele>
      </trkpt>
      <trkpt lat="45.65111" lon="14.89138">
        <ele>486.4</ele>
      </trkpt>
      <trkpt lat="45.65112" lon="14.89139">
        <ele>486.5</ele>
      </trkpt>
      <trkpt lat="45.6512" lon="14.89145">
        <ele>487.0</ele>
      </trkpt>
      <trkpt lat="45.651269" lon="14.89151">
        <ele>487.5</ele>
      </trkpt>
      <trkpt lat="45.65133" lon="14.89157">
        <ele>488.0</ele>
      </trkpt>
      <trkpt lat="45.65137" lon="14.89161">
        <ele>488.4</ele>
      </trkpt>
      <trkpt lat="45.65141" lon="14.89166">
        <ele>488.7</ele>
      </trkpt>
      <trkpt lat="45.65143" lon="14.89169">
        <ele>488.9</ele>
      </trkpt>
      <trkpt lat="45.65146" lon="14.89173">
        <ele>489.2</ele>
      </trkpt>
      <trkpt lat="45.65147" lon="14.89177">
        <ele>489.4</ele>
      </trkpt>
      <trkpt lat="45.65148" lon="14.89181">
        <ele>489.5</ele>
      </trkpt>
      <trkpt lat="45.65148" lon="14.89185">
        <ele>489.7</ele>
      </trkpt>
      <trkpt lat="45.65148" lon="14.89189">
        <ele>489.8</ele>
      </trkpt>
      <trkpt lat="45.65148" lon="14.8919">
        <ele>489.8</ele>
      </trkpt>
      <trkpt lat="45.65148" lon="14.89194">
        <ele>489.9</ele>
      </trkpt>
      <trkpt lat="45.65148" lon="14.89197">
        <ele>490.0</ele>
      </trkpt>
      <trkpt lat="45.65148" lon="14.89201">
        <ele>490.2</ele>
      </trkpt>
      <trkpt lat="45.65149" lon="14.89204">
        <ele>490.3</ele>
      </trkpt>
      <trkpt lat="45.6515" lon="14.8921">
        <ele>490.6</ele>
      </trkpt>
      <trkpt lat="45.65152" lon="14.89222">
        <ele>491.1</ele>
      </trkpt>
      <trkpt lat="45.65153" lon="14.89229">
        <ele>491.3</ele>
      </trkpt>
      <trkpt lat="45.65154" lon="14.89234">
        <ele>491.6</ele>
      </trkpt>
      <trkpt lat="45.65157" lon="14.8924">
        <ele>492.0</ele>
      </trkpt>
      <trkpt lat="45.6516" lon="14.89246">
        <ele>492.4</ele>
      </trkpt>
      <trkpt lat="45.65162" lon="14.89251">
        <ele>492.7</ele>
      </trkpt>
      <trkpt lat="45.651649" lon="14.89257">
        <ele>493.5</ele>
      </trkpt>
      <trkpt lat="45.651649" lon="14.8926">
        <ele>493.7</ele>
      </trkpt>
      <trkpt lat="45.65166" lon="14.89265">
        <ele>494.2</ele>
      </trkpt>
      <trkpt lat="45.65167" lon="14.89271">
        <ele>494.8</ele>
      </trkpt>
      <trkpt lat="45.65166" lon="14.89282">
        <ele>495.6</ele>
      </trkpt>
      <trkpt lat="45.65166" lon="14.89286">
        <ele>496.0</ele>
      </trkpt>
      <trkpt lat="45.65166" lon="14.8929">
        <ele>496.3</ele>
      </trkpt>
      <trkpt lat="45.65166" lon="14.89294">
        <ele>496.6</ele>
      </trkpt>
      <trkpt lat="45.65166" lon="14.893">
        <ele>497.1</ele>
      </trkpt>
      <trkpt lat="45.65167" lon="14.89306">
        <ele>497.7</ele>
      </trkpt>
      <trkpt lat="45.65167" lon="14.8931">
        <ele>498.0</ele>
      </trkpt>
      <trkpt lat="45.65172" lon="14.89326">
        <ele>499.5</ele>
      </trkpt>
      <trkpt lat="45.65175" lon="14.89336">
        <ele>500.2</ele>
      </trkpt>
      <trkpt lat="45.65181" lon="14.89352">
        <ele>500.2</ele>
      </trkpt>
      <trkpt lat="45.651829" lon="14.89357">
        <ele>500.2</ele>
      </trkpt>
      <trkpt lat="45.65188" lon="14.89368">
        <ele>500.3</ele>
      </trkpt>
      <trkpt lat="45.65191" lon="14.89375">
        <ele>500.4</ele>
      </trkpt>
      <trkpt lat="45.65193" lon="14.89379">
        <ele>500.4</ele>
      </trkpt>
      <trkpt lat="45.65195" lon="14.89382">
        <ele>500.5</ele>
      </trkpt>
      <trkpt lat="45.652" lon="14.89392">
        <ele>500.7</ele>
      </trkpt>
      <trkpt lat="45.65204" lon="14.894">
        <ele>500.8</ele>
      </trkpt>
      <trkpt lat="45.6521" lon="14.89412">
        <ele>501.1</ele>
      </trkpt>
      <trkpt lat="45.65214" lon="14.89421">
        <ele>501.2</ele>
      </trkpt>
      <trkpt lat="45.65223" lon="14.89443">
        <ele>501.3</ele>
      </trkpt>
      <trkpt lat="45.65226" lon="14.89451">
        <ele>501.3</ele>
      </trkpt>
      <trkpt lat="45.65231" lon="14.8946">
        <ele>501.4</ele>
      </trkpt>
      <trkpt lat="45.65234" lon="14.89464">
        <ele>501.6</ele>
      </trkpt>
      <trkpt lat="45.65236" lon="14.89466">
        <ele>501.6</ele>
      </trkpt>
      <trkpt lat="45.65241" lon="14.89476">
        <ele>501.8</ele>
      </trkpt>
      <trkpt lat="45.65246" lon="14.89486">
        <ele>501.9</ele>
      </trkpt>
      <trkpt lat="45.65248" lon="14.89492">
        <ele>502.0</ele>
      </trkpt>
      <trkpt lat="45.65248" lon="14.89496">
        <ele>501.9</ele>
      </trkpt>
      <trkpt lat="45.65249" lon="14.89501">
        <ele>501.8</ele>
      </trkpt>
      <trkpt lat="45.65249" lon="14.89509">
        <ele>500.9</ele>
      </trkpt>
      <trkpt lat="45.65249" lon="14.89528">
        <ele>498.6</ele>
      </trkpt>
      <trkpt lat="45.65249" lon="14.89534">
        <ele>497.9</ele>
      </trkpt>
      <trkpt lat="45.65248" lon="14.8954">
        <ele>497.1</ele>
      </trkpt>
      <trkpt lat="45.65248" lon="14.89548">
        <ele>496.2</ele>
      </trkpt>
      <trkpt lat="45.65248" lon="14.89557">
        <ele>495.1</ele>
      </trkpt>
      <trkpt lat="45.65248" lon="14.89559">
        <ele>494.9</ele>
      </trkpt>
      <trkpt lat="45.65249" lon="14.89563">
        <ele>494.4</ele>
      </trkpt>
      <trkpt lat="45.65252" lon="14.89591">
        <ele>492.7</ele>
      </trkpt>
      <trkpt lat="45.65252" lon="14.89603">
        <ele>493.4</ele>
      </trkpt>
      <trkpt lat="45.65253" lon="14.8961">
        <ele>493.8</ele>
      </trkpt>
      <trkpt lat="45.65254" lon="14.89616">
        <ele>494.2</ele>
      </trkpt>
      <trkpt lat="45.65256" lon="14.89622">
        <ele>494.6</ele>
      </trkpt>
      <trkpt lat="45.6526" lon="14.89631">
        <ele>495.2</ele>
      </trkpt>
      <trkpt lat="45.652679" lon="14.89651">
        <ele>496.0</ele>
      </trkpt>
      <trkpt lat="45.65279" lon="14.89678">
        <ele>495.7</ele>
      </trkpt>
      <trkpt lat="45.65282" lon="14.89684">
        <ele>495.4</ele>
      </trkpt>
      <trkpt lat="45.65292" lon="14.89708">
        <ele>494.5</ele>
      </trkpt>
      <trkpt lat="45.65299" lon="14.89721">
        <ele>493.9</ele>
      </trkpt>
      <trkpt lat="45.65307" lon="14.89736">
        <ele>493.3</ele>
      </trkpt>
      <trkpt lat="45.65312" lon="14.89744">
        <ele>492.9</ele>
      </trkpt>
      <trkpt lat="45.653239" lon="14.89756">
        <ele>492.4</ele>
      </trkpt>
      <trkpt lat="45.653239" lon="14.89757">
        <ele>492.4</ele>
      </trkpt>
      <trkpt lat="45.65325" lon="14.89758">
        <ele>492.4</ele>
      </trkpt>
      <trkpt lat="45.65331" lon="14.89764">
        <ele>492.2</ele>
      </trkpt>
      <trkpt lat="45.65339" lon="14.89772">
        <ele>492.1</ele>
      </trkpt>
      <trkpt lat="45.65339" lon="14.89773">
        <ele>492.1</ele>
      </trkpt>
      <trkpt lat="45.65345" lon="14.89781">
        <ele>492.0</ele>
      </trkpt>
      <trkpt lat="45.65349" lon="14.89788">
        <ele>492.0</ele>
      </trkpt>
      <trkpt lat="45.6535" lon="14.89791">
        <ele>492.0</ele>
      </trkpt>
      <trkpt lat="45.65353" lon="14.89798">
        <ele>492.0</ele>
      </trkpt>
      <trkpt lat="45.65356" lon="14.89806">
        <ele>491.9</ele>
      </trkpt>
      <trkpt lat="45.65361" lon="14.89817">
        <ele>491.9</ele>
      </trkpt>
      <trkpt lat="45.65346" lon="14.89831">
        <ele>492.5</ele>
      </trkpt>
      <trkpt lat="45.65345" lon="14.89832">
        <ele>492.6</ele>
      </trkpt>
      <trkpt lat="45.65334" lon="14.89838">
        <ele>493.1</ele>
      </trkpt>
      <trkpt lat="45.65326" lon="14.89841">
        <ele>493.3</ele>
      </trkpt>
      <trkpt lat="45.65318" lon="14.89844">
        <ele>493.6</ele>
      </trkpt>
      <trkpt lat="45.65313" lon="14.89845">
        <ele>493.7</ele>
      </trkpt>
      <trkpt lat="45.65311" lon="14.89846">
        <ele>493.8</ele>
      </trkpt>
      <trkpt lat="45.65305" lon="14.89846">
        <ele>493.9</ele>
      </trkpt>
      <trkpt lat="45.653" lon="14.89846">
        <ele>494.0</ele>
      </trkpt>
      <trkpt lat="45.65295" lon="14.89847">
        <ele>494.1</ele>
      </trkpt>
      <trkpt lat="45.6529" lon="14.89845">
        <ele>494.2</ele>
      </trkpt>
      <trkpt lat="45.65284" lon="14.89841">
        <ele>494.3</ele>
      </trkpt>
      <trkpt lat="45.65278" lon="14.89837">
        <ele>494.4</ele>
      </trkpt>
      <trkpt lat="45.65256" lon="14.89825">
        <ele>494.8</ele>
      </trkpt>
      <trkpt lat="45.65252" lon="14.89822">
        <ele>494.9</ele>
      </trkpt>
      <trkpt lat="45.65247" lon="14.89821">
        <ele>495.3</ele>
      </trkpt>
      <trkpt lat="45.65244" lon="14.89821">
        <ele>495.6</ele>
      </trkpt>
      <trkpt lat="45.65242" lon="14.89821">
        <ele>495.8</ele>
      </trkpt>
      <trkpt lat="45.652389" lon="14.89822">
        <ele>496.1</ele>
      </trkpt>
      <trkpt lat="45.65231" lon="14.89827">
        <ele>496.7</ele>
      </trkpt>
      <trkpt lat="45.65225" lon="14.89829">
        <ele>497.2</ele>
      </trkpt>
      <trkpt lat="45.65219" lon="14.89831">
        <ele>497.7</ele>
      </trkpt>
      <trkpt lat="45.65198" lon="14.89837">
        <ele>499.1</ele>
      </trkpt>
      <trkpt lat="45.65193" lon="14.89841">
        <ele>499.3</ele>
      </trkpt>
      <trkpt lat="45.651919" lon="14.89841">
        <ele>499.4</ele>
      </trkpt>
      <trkpt lat="45.65187" lon="14.89845">
        <ele>499.4</ele>
      </trkpt>
      <trkpt lat="45.65181" lon="14.8985">
        <ele>499.5</ele>
      </trkpt>
      <trkpt lat="45.65177" lon="14.89854">
        <ele>499.4</ele>
      </trkpt>
      <trkpt lat="45.65173" lon="14.89856">
        <ele>499.5</ele>
      </trkpt>
      <trkpt lat="45.65166" lon="14.89861">
        <ele>499.4</ele>
      </trkpt>
      <trkpt lat="45.65161" lon="14.89864">
        <ele>499.6</ele>
      </trkpt>
      <trkpt lat="45.65158" lon="14.89865">
        <ele>499.8</ele>
      </trkpt>
      <trkpt lat="45.65155" lon="14.89865">
        <ele>500.1</ele>
      </trkpt>
      <trkpt lat="45.65152" lon="14.89866">
        <ele>500.3</ele>
      </trkpt>
      <trkpt lat="45.65148" lon="14.89866">
        <ele>500.7</ele>
      </trkpt>
      <trkpt lat="45.651449" lon="14.89866">
        <ele>501.0</ele>
      </trkpt>
      <trkpt lat="45.65141" lon="14.89866">
        <ele>501.4</ele>
      </trkpt>
      <trkpt lat="45.65137" lon="14.89866">
        <ele>501.8</ele>
      </trkpt>
      <trkpt lat="45.65132" lon="14.89866">
        <ele>502.4</ele>
      </trkpt>
      <trkpt lat="45.6513" lon="14.89867">
        <ele>502.5</ele>
      </trkpt>
      <trkpt lat="45.65128" lon="14.89868">
        <ele>502.6</ele>
      </trkpt>
      <trkpt lat="45.65125" lon="14.8987">
        <ele>502.7</ele>
      </trkpt>
      <trkpt lat="45.65122" lon="14.89871">
        <ele>502.9</ele>
      </trkpt>
      <trkpt lat="45.65116" lon="14.89876">
        <ele>503.1</ele>
      </trkpt>
      <trkpt lat="45.65108" lon="14.8988">
        <ele>503.5</ele>
      </trkpt>
      <trkpt lat="45.65105" lon="14.89882">
        <ele>503.7</ele>
      </trkpt>
      <trkpt lat="45.65102" lon="14.89884">
        <ele>503.8</ele>
      </trkpt>
      <trkpt lat="45.650979" lon="14.89887">
        <ele>504.0</ele>
      </trkpt>
      <trkpt lat="45.65093" lon="14.8989">
        <ele>504.2</ele>
      </trkpt>
      <trkpt lat="45.65092" lon="14.89891">
        <ele>504.3</ele>
      </trkpt>
      <trkpt lat="45.6509" lon="14.89892">
        <ele>504.4</ele>
      </trkpt>
      <trkpt lat="45.65086" lon="14.89897">
        <ele>504.4</ele>
      </trkpt>
      <trkpt lat="45.65082" lon="14.89901">
        <ele>504.4</ele>
      </trkpt>
      <trkpt lat="45.65073" lon="14.89907">
        <ele>504.3</ele>
      </trkpt>
      <trkpt lat="45.65064" lon="14.89911">
        <ele>504.4</ele>
      </trkpt>
      <trkpt lat="45.65045" lon="14.8992">
        <ele>504.7</ele>
      </trkpt>
      <trkpt lat="45.65043" lon="14.89921">
        <ele>504.8</ele>
      </trkpt>
      <trkpt lat="45.65031" lon="14.89925">
        <ele>505.2</ele>
      </trkpt>
      <trkpt lat="45.65018" lon="14.89931">
        <ele>505.6</ele>
      </trkpt>
      <trkpt lat="45.65008" lon="14.89935">
        <ele>505.9</ele>
      </trkpt>
      <trkpt lat="45.65007" lon="14.89936">
        <ele>505.9</ele>
      </trkpt>
      <trkpt lat="45.64998" lon="14.89941">
        <ele>506.2</ele>
      </trkpt>
      <trkpt lat="45.64992" lon="14.89947">
        <ele>506.2</ele>
      </trkpt>
      <trkpt lat="45.64991" lon="14.89948">
        <ele>506.2</ele>
      </trkpt>
      <trkpt lat="45.6498" lon="14.89958">
        <ele>506.2</ele>
      </trkpt>
      <trkpt lat="45.649769" lon="14.8996">
        <ele>506.3</ele>
      </trkpt>
      <trkpt lat="45.64962" lon="14.89971">
        <ele>506.4</ele>
      </trkpt>
      <trkpt lat="45.64961" lon="14.89972">
        <ele>506.4</ele>
      </trkpt>
      <trkpt lat="45.6495" lon="14.89978">
        <ele>506.6</ele>
      </trkpt>
      <trkpt lat="45.64936" lon="14.89986">
        <ele>506.8</ele>
      </trkpt>
      <trkpt lat="45.64923" lon="14.89989">
        <ele>507.2</ele>
      </trkpt>
      <trkpt lat="45.64909" lon="14.89993">
        <ele>506.8</ele>
      </trkpt>
      <trkpt lat="45.64891" lon="14.89997">
        <ele>505.6</ele>
      </trkpt>
      <trkpt lat="45.648739" lon="14.9">
        <ele>504.4</ele>
      </trkpt>
      <trkpt lat="45.64856" lon="14.90003">
        <ele>503.4</ele>
      </trkpt>
      <trkpt lat="45.64847" lon="14.90004">
        <ele>503.0</ele>
      </trkpt>
      <trkpt lat="45.648359" lon="14.90006">
        <ele>502.4</ele>
      </trkpt>
      <trkpt lat="45.64829" lon="14.90008">
        <ele>502.1</ele>
      </trkpt>
      <trkpt lat="45.648269" lon="14.90009">
        <ele>502.0</ele>
      </trkpt>
      <trkpt lat="45.6482" lon="14.90012">
        <ele>501.7</ele>
      </trkpt>
      <trkpt lat="45.64811" lon="14.90018">
        <ele>501.4</ele>
      </trkpt>
      <trkpt lat="45.64811" lon="14.90018">
        <ele>501.4</ele>
      </trkpt>
      <trkpt lat="45.64811" lon="14.90028">
        <ele>501.9</ele>
      </trkpt>
      <trkpt lat="45.64811" lon="14.90033">
        <ele>502.2</ele>
      </trkpt>
      <trkpt lat="45.64812" lon="14.90037">
        <ele>502.5</ele>
      </trkpt>
      <trkpt lat="45.64812" lon="14.90043">
        <ele>502.8</ele>
      </trkpt>
      <trkpt lat="45.64813" lon="14.90044">
        <ele>502.9</ele>
      </trkpt>
      <trkpt lat="45.64814" lon="14.90051">
        <ele>503.3</ele>
      </trkpt>
      <trkpt lat="45.64815" lon="14.90059">
        <ele>503.8</ele>
      </trkpt>
      <trkpt lat="45.64817" lon="14.90066">
        <ele>504.3</ele>
      </trkpt>
      <trkpt lat="45.64818" lon="14.90068">
        <ele>504.5</ele>
      </trkpt>
      <trkpt lat="45.64818" lon="14.9007">
        <ele>504.6</ele>
      </trkpt>
      <trkpt lat="45.64819" lon="14.90073">
        <ele>504.8</ele>
      </trkpt>
      <trkpt lat="45.64821" lon="14.90076">
        <ele>505.0</ele>
      </trkpt>
      <trkpt lat="45.64823" lon="14.90079">
        <ele>505.3</ele>
      </trkpt>
      <trkpt lat="45.64825" lon="14.90083">
        <ele>505.6</ele>
      </trkpt>
      <trkpt lat="45.648269" lon="14.90086">
        <ele>505.8</ele>
      </trkpt>
      <trkpt lat="45.64829" lon="14.90089">
        <ele>506.1</ele>
      </trkpt>
      <trkpt lat="45.64834" lon="14.90095">
        <ele>506.5</ele>
      </trkpt>
      <trkpt lat="45.64843" lon="14.90105">
        <ele>506.7</ele>
      </trkpt>
      <trkpt lat="45.64846" lon="14.9011">
        <ele>506.8</ele>
      </trkpt>
      <trkpt lat="45.64851" lon="14.90113">
        <ele>506.8</ele>
      </trkpt>
      <trkpt lat="45.64857" lon="14.90118">
        <ele>506.7</ele>
      </trkpt>
      <trkpt lat="45.64862" lon="14.90123">
        <ele>506.7</ele>
      </trkpt>
      <trkpt lat="45.64877" lon="14.90144">
        <ele>506.7</ele>
      </trkpt>
      <trkpt lat="45.64902" lon="14.90161">
        <ele>505.8</ele>
      </trkpt>
      <trkpt lat="45.64909" lon="14.90166">
        <ele>505.4</ele>
      </trkpt>
      <trkpt lat="45.649209" lon="14.90173">
        <ele>505.5</ele>
      </trkpt>
      <trkpt lat="45.64926" lon="14.90176">
        <ele>505.8</ele>
      </trkpt>
      <trkpt lat="45.6494" lon="14.90184">
        <ele>506.6</ele>
      </trkpt>
      <trkpt lat="45.64943" lon="14.90185">
        <ele>506.8</ele>
      </trkpt>
      <trkpt lat="45.64946" lon="14.90186">
        <ele>506.9</ele>
      </trkpt>
      <trkpt lat="45.64951" lon="14.90187">
        <ele>507.1</ele>
      </trkpt>
      <trkpt lat="45.64958" lon="14.90189">
        <ele>507.4</ele>
      </trkpt>
      <trkpt lat="45.64964" lon="14.90189">
        <ele>507.5</ele>
      </trkpt>
      <trkpt lat="45.64973" lon="14.90189">
        <ele>507.6</ele>
      </trkpt>
      <trkpt lat="45.64988" lon="14.90191">
        <ele>508.1</ele>
      </trkpt>
      <trkpt lat="45.64996" lon="14.90191">
        <ele>508.3</ele>
      </trkpt>
      <trkpt lat="45.65007" lon="14.90192">
        <ele>508.9</ele>
      </trkpt>
      <trkpt lat="45.65011" lon="14.90192">
        <ele>509.2</ele>
      </trkpt>
      <trkpt lat="45.65041" lon="14.90198">
        <ele>512.0</ele>
      </trkpt>
      <trkpt lat="45.6505" lon="14.90199">
        <ele>512.7</ele>
      </trkpt>
      <trkpt lat="45.65054" lon="14.902">
        <ele>513.1</ele>
      </trkpt>
      <trkpt lat="45.65065" lon="14.902">
        <ele>513.9</ele>
      </trkpt>
      <trkpt lat="45.65068" lon="14.902">
        <ele>514.1</ele>
      </trkpt>
      <trkpt lat="45.65072" lon="14.902">
        <ele>514.4</ele>
      </trkpt>
      <trkpt lat="45.65088" lon="14.90199">
        <ele>515.3</ele>
      </trkpt>
      <trkpt lat="45.651" lon="14.90198">
        <ele>515.6</ele>
      </trkpt>
      <trkpt lat="45.65104" lon="14.90198">
        <ele>515.8</ele>
      </trkpt>
      <trkpt lat="45.65109" lon="14.90199">
        <ele>516.0</ele>
      </trkpt>
      <trkpt lat="45.65115" lon="14.90202">
        <ele>516.5</ele>
      </trkpt>
      <trkpt lat="45.6512" lon="14.90206">
        <ele>517.1</ele>
      </trkpt>
      <trkpt lat="45.65125" lon="14.90209">
        <ele>517.6</ele>
      </trkpt>
      <trkpt lat="45.65138" lon="14.90216">
        <ele>518.7</ele>
      </trkpt>
      <trkpt lat="45.65148" lon="14.90221">
        <ele>519.5</ele>
      </trkpt>
      <trkpt lat="45.65159" lon="14.90229">
        <ele>520.7</ele>
      </trkpt>
      <trkpt lat="45.65159" lon="14.90229">
        <ele>520.7</ele>
      </trkpt>
      <trkpt lat="45.65163" lon="14.90243">
        <ele>522.2</ele>
      </trkpt>
      <trkpt lat="45.65169" lon="14.90265">
        <ele>524.4</ele>
      </trkpt>
      <trkpt lat="45.65172" lon="14.90278">
        <ele>525.6</ele>
      </trkpt>
      <trkpt lat="45.65172" lon="14.90279">
        <ele>525.7</ele>
      </trkpt>
      <trkpt lat="45.65176" lon="14.90302">
        <ele>527.7</ele>
      </trkpt>
      <trkpt lat="45.65178" lon="14.90317">
        <ele>529.1</ele>
      </trkpt>
      <trkpt lat="45.65178" lon="14.90324">
        <ele>529.7</ele>
      </trkpt>
      <trkpt lat="45.65179" lon="14.9033">
        <ele>530.2</ele>
      </trkpt>
      <trkpt lat="45.65179" lon="14.90337">
        <ele>530.8</ele>
      </trkpt>
      <trkpt lat="45.6518" lon="14.90342">
        <ele>531.1</ele>
      </trkpt>
      <trkpt lat="45.6518" lon="14.90346">
        <ele>531.3</ele>
      </trkpt>
      <trkpt lat="45.6518" lon="14.90351">
        <ele>531.6</ele>
      </trkpt>
      <trkpt lat="45.6518" lon="14.90354">
        <ele>531.8</ele>
      </trkpt>
      <trkpt lat="45.6518" lon="14.90355">
        <ele>531.9</ele>
      </trkpt>
      <trkpt lat="45.65181" lon="14.90359">
        <ele>532.1</ele>
      </trkpt>
      <trkpt lat="45.651829" lon="14.90363">
        <ele>532.3</ele>
      </trkpt>
      <trkpt lat="45.65186" lon="14.90367">
        <ele>532.4</ele>
      </trkpt>
      <trkpt lat="45.651919" lon="14.90376">
        <ele>532.8</ele>
      </trkpt>
      <trkpt lat="45.65198" lon="14.90385">
        <ele>533.2</ele>
      </trkpt>
      <trkpt lat="45.65198" lon="14.90385">
        <ele>533.2</ele>
      </trkpt>
      <trkpt lat="45.65209" lon="14.9041">
        <ele>534.5</ele>
      </trkpt>
      <trkpt lat="45.65213" lon="14.90424">
        <ele>535.4</ele>
      </trkpt>
      <trkpt lat="45.65215" lon="14.9043">
        <ele>535.8</ele>
      </trkpt>
      <trkpt lat="45.65217" lon="14.90436">
        <ele>536.2</ele>
      </trkpt>
      <trkpt lat="45.65218" lon="14.9044">
        <ele>536.4</ele>
      </trkpt>
      <trkpt lat="45.65219" lon="14.90445">
        <ele>536.8</ele>
      </trkpt>
      <trkpt lat="45.65219" lon="14.90449">
        <ele>537.1</ele>
      </trkpt>
      <trkpt lat="45.6522" lon="14.90453">
        <ele>537.3</ele>
      </trkpt>
      <trkpt lat="45.652209" lon="14.90459">
        <ele>537.7</ele>
      </trkpt>
      <trkpt lat="45.65222" lon="14.90464">
        <ele>538.1</ele>
      </trkpt>
      <trkpt lat="45.65223" lon="14.90467">
        <ele>538.3</ele>
      </trkpt>
      <trkpt lat="45.65224" lon="14.90471">
        <ele>538.5</ele>
      </trkpt>
      <trkpt lat="45.65228" lon="14.90479">
        <ele>539.0</ele>
      </trkpt>
      <trkpt lat="45.65232" lon="14.90493">
        <ele>539.9</ele>
      </trkpt>
      <trkpt lat="45.65263" lon="14.90567">
        <ele>544.9</ele>
      </trkpt>
      <trkpt lat="45.65267" lon="14.90575">
        <ele>545.5</ele>
      </trkpt>
      <trkpt lat="45.65285" lon="14.90607">
        <ele>548.9</ele>
      </trkpt>
      <trkpt lat="45.65314" lon="14.90655">
        <ele>553.8</ele>
      </trkpt>
      <trkpt lat="45.65326" lon="14.90674">
        <ele>555.6</ele>
      </trkpt>
      <trkpt lat="45.653419" lon="14.90699">
        <ele>557.7</ele>
      </trkpt>
      <trkpt lat="45.653619" lon="14.90736">
        <ele>561.1</ele>
      </trkpt>
      <trkpt lat="45.65373" lon="14.90751">
        <ele>562.6</ele>
      </trkpt>
      <trkpt lat="45.65387" lon="14.90771">
        <ele>564.9</ele>
      </trkpt>
      <trkpt lat="45.65404" lon="14.90798">
        <ele>567.7</ele>
      </trkpt>
      <trkpt lat="45.65407" lon="14.90807">
        <ele>568.6</ele>
      </trkpt>
      <trkpt lat="45.6541" lon="14.90825">
        <ele>570.3</ele>
      </trkpt>
      <trkpt lat="45.65411" lon="14.9084">
        <ele>572.0</ele>
      </trkpt>
      <trkpt lat="45.65411" lon="14.90843">
        <ele>572.4</ele>
      </trkpt>
      <trkpt lat="45.65411" lon="14.90843">
        <ele>572.4</ele>
      </trkpt>
      <trkpt lat="45.6541" lon="14.90855">
        <ele>574.0</ele>
      </trkpt>
      <trkpt lat="45.65408" lon="14.90861">
        <ele>574.8</ele>
      </trkpt>
      <trkpt lat="45.65395" lon="14.9089">
        <ele>578.8</ele>
      </trkpt>
      <trkpt lat="45.65375" lon="14.9092">
        <ele>582.8</ele>
      </trkpt>
      <trkpt lat="45.65372" lon="14.90926">
        <ele>583.4</ele>
      </trkpt>
      <trkpt lat="45.65356" lon="14.9095">
        <ele>585.7</ele>
      </trkpt>
      <trkpt lat="45.65336" lon="14.90985">
        <ele>588.8</ele>
      </trkpt>
      <trkpt lat="45.6532" lon="14.91021">
        <ele>593.6</ele>
      </trkpt>
      <trkpt lat="45.65318" lon="14.91024">
        <ele>594.1</ele>
      </trkpt>
      <trkpt lat="45.65296" lon="14.91086">
        <ele>602.5</ele>
      </trkpt>
      <trkpt lat="45.65296" lon="14.91086">
        <ele>602.5</ele>
      </trkpt>
      <trkpt lat="45.65267" lon="14.91083">
        <ele>603.9</ele>
      </trkpt>
      <trkpt lat="45.65223" lon="14.91081">
        <ele>608.4</ele>
      </trkpt>
      <trkpt lat="45.65195" lon="14.91081">
        <ele>612.1</ele>
      </trkpt>
      <trkpt lat="45.65166" lon="14.91075">
        <ele>615.4</ele>
      </trkpt>
      <trkpt lat="45.65148" lon="14.91072">
        <ele>616.5</ele>
      </trkpt>
      <trkpt lat="45.65139" lon="14.9107">
        <ele>616.9</ele>
      </trkpt>
      <trkpt lat="45.65134" lon="14.91071">
        <ele>617.4</ele>
      </trkpt>
      <trkpt lat="45.6513" lon="14.91071">
        <ele>617.7</ele>
      </trkpt>
      <trkpt lat="45.65123" lon="14.91073">
        <ele>618.5</ele>
      </trkpt>
      <trkpt lat="45.65117" lon="14.91075">
        <ele>619.2</ele>
      </trkpt>
      <trkpt lat="45.65112" lon="14.91079">
        <ele>620.1</ele>
      </trkpt>
      <trkpt lat="45.65102" lon="14.91089">
        <ele>622.1</ele>
      </trkpt>
      <trkpt lat="45.6509" lon="14.911">
        <ele>624.6</ele>
      </trkpt>
      <trkpt lat="45.6507" lon="14.91114">
        <ele>627.0</ele>
      </trkpt>
      <trkpt lat="45.6506" lon="14.91122">
        <ele>628.0</ele>
      </trkpt>
      <trkpt lat="45.65037" lon="14.91134">
        <ele>629.2</ele>
      </trkpt>
      <trkpt lat="45.65029" lon="14.91138">
        <ele>629.6</ele>
      </trkpt>
      <trkpt lat="45.650149" lon="14.91143">
        <ele>629.9</ele>
      </trkpt>
      <trkpt lat="45.65003" lon="14.91149">
        <ele>630.4</ele>
      </trkpt>
      <trkpt lat="45.64999" lon="14.91151">
        <ele>630.5</ele>
      </trkpt>
      <trkpt lat="45.649985" lon="14.911475">
        <ele>630.2</ele>
      </trkpt>
      <trkpt lat="45.649702" lon="14.911661">
        <ele>631.6</ele>
      </trkpt>
      <trkpt lat="45.649816" lon="14.912256">
        <ele>632.9</ele>
      </trkpt>
      <trkpt lat="45.649738" lon="14.912594">
        <ele>633.1</ele>
      </trkpt>
      <trkpt lat="45.649399" lon="14.912531">
        <ele>631.8</ele>
      </trkpt>
      <trkpt lat="45.649037" lon="14.912332">
        <ele>631.4</ele>
      </trkpt>
      <trkpt lat="45.64903" lon="14.91232">
        <ele>631.5</ele>
      </trkpt>
      <trkpt lat="45.64891" lon="14.91254">
        <ele>631.8</ele>
      </trkpt>
      <trkpt lat="45.64886" lon="14.9126">
        <ele>631.9</ele>
      </trkpt>
      <trkpt lat="45.64882" lon="14.91265">
        <ele>631.9</ele>
      </trkpt>
      <trkpt lat="45.64869" lon="14.91274">
        <ele>632.1</ele>
      </trkpt>
      <trkpt lat="45.64865" lon="14.91277">
        <ele>632.1</ele>
      </trkpt>
      <trkpt lat="45.64852" lon="14.91282">
        <ele>632.3</ele>
      </trkpt>
      <trkpt lat="45.64846" lon="14.91285">
        <ele>632.4</ele>
      </trkpt>
      <trkpt lat="45.64842" lon="14.91288">
        <ele>632.4</ele>
      </trkpt>
      <trkpt lat="45.64838" lon="14.91291">
        <ele>632.4</ele>
      </trkpt>
      <trkpt lat="45.64825" lon="14.91307">
        <ele>632.4</ele>
      </trkpt>
      <trkpt lat="45.64823" lon="14.91311">
        <ele>632.4</ele>
      </trkpt>
      <trkpt lat="45.6482" lon="14.91317">
        <ele>632.5</ele>
      </trkpt>
      <trkpt lat="45.64816" lon="14.9132">
        <ele>632.7</ele>
      </trkpt>
      <trkpt lat="45.64812" lon="14.91323">
        <ele>632.9</ele>
      </trkpt>
      <trkpt lat="45.64808" lon="14.91325">
        <ele>633.2</ele>
      </trkpt>
      <trkpt lat="45.64805" lon="14.91326">
        <ele>633.4</ele>
      </trkpt>
      <trkpt lat="45.64799" lon="14.91325">
        <ele>633.9</ele>
      </trkpt>
      <trkpt lat="45.64791" lon="14.91323">
        <ele>634.5</ele>
      </trkpt>
      <trkpt lat="45.64779" lon="14.91321">
        <ele>635.3</ele>
      </trkpt>
      <trkpt lat="45.6477" lon="14.91319">
        <ele>635.9</ele>
      </trkpt>
      <trkpt lat="45.64753" lon="14.91319">
        <ele>637.1</ele>
      </trkpt>
      <trkpt lat="45.64737" lon="14.91318">
        <ele>636.9</ele>
      </trkpt>
      <trkpt lat="45.64727" lon="14.91318">
        <ele>636.7</ele>
      </trkpt>
      <trkpt lat="45.64719" lon="14.91318">
        <ele>636.5</ele>
      </trkpt>
      <trkpt lat="45.64712" lon="14.91319">
        <ele>636.3</ele>
      </trkpt>
      <trkpt lat="45.64701" lon="14.9132">
        <ele>636.1</ele>
      </trkpt>
      <trkpt lat="45.647" lon="14.9132">
        <ele>636.0</ele>
      </trkpt>
      <trkpt lat="45.646859" lon="14.91326">
        <ele>635.7</ele>
      </trkpt>
      <trkpt lat="45.64684" lon="14.91328">
        <ele>635.6</ele>
      </trkpt>
      <trkpt lat="45.64679" lon="14.91331">
        <ele>635.5</ele>
      </trkpt>
      <trkpt lat="45.64674" lon="14.91337">
        <ele>635.5</ele>
      </trkpt>
      <trkpt lat="45.64672" lon="14.9134">
        <ele>635.6</ele>
      </trkpt>
      <trkpt lat="45.64668" lon="14.91345">
        <ele>635.7</ele>
      </trkpt>
      <trkpt lat="45.64665" lon="14.91352">
        <ele>636.0</ele>
      </trkpt>
      <trkpt lat="45.64663" lon="14.91356">
        <ele>636.2</ele>
      </trkpt>
      <trkpt lat="45.64661" lon="14.91361">
        <ele>636.4</ele>
      </trkpt>
      <trkpt lat="45.64659" lon="14.91364">
        <ele>636.5</ele>
      </trkpt>
      <trkpt lat="45.64659" lon="14.91365">
        <ele>636.6</ele>
      </trkpt>
      <trkpt lat="45.64654" lon="14.9137">
        <ele>636.7</ele>
      </trkpt>
      <trkpt lat="45.64638" lon="14.91389">
        <ele>637.2</ele>
      </trkpt>
      <trkpt lat="45.64629" lon="14.91398">
        <ele>637.4</ele>
      </trkpt>
      <trkpt lat="45.64624" lon="14.91405">
        <ele>637.7</ele>
      </trkpt>
      <trkpt lat="45.64619" lon="14.91411">
        <ele>637.9</ele>
      </trkpt>
      <trkpt lat="45.64616" lon="14.91419">
        <ele>638.5</ele>
      </trkpt>
      <trkpt lat="45.64614" lon="14.91424">
        <ele>639.0</ele>
      </trkpt>
      <trkpt lat="45.64606" lon="14.91449">
        <ele>642.1</ele>
      </trkpt>
      <trkpt lat="45.64606" lon="14.91449">
        <ele>642.1</ele>
      </trkpt>
      <trkpt lat="45.6459" lon="14.91445">
        <ele>641.5</ele>
      </trkpt>
      <trkpt lat="45.64571" lon="14.91442">
        <ele>641.7</ele>
      </trkpt>
      <trkpt lat="45.64558" lon="14.91441">
        <ele>642.4</ele>
      </trkpt>
      <trkpt lat="45.64529" lon="14.91436">
        <ele>643.4</ele>
      </trkpt>
      <trkpt lat="45.64517" lon="14.91436">
        <ele>644.2</ele>
      </trkpt>
      <trkpt lat="45.64499" lon="14.91435">
        <ele>645.1</ele>
      </trkpt>
      <trkpt lat="45.64481" lon="14.91435">
        <ele>644.5</ele>
      </trkpt>
      <trkpt lat="45.64479" lon="14.91435">
        <ele>644.5</ele>
      </trkpt>
      <trkpt lat="45.64467" lon="14.91434">
        <ele>643.9</ele>
      </trkpt>
      <trkpt lat="45.6445" lon="14.91433">
        <ele>643.2</ele>
      </trkpt>
      <trkpt lat="45.64445" lon="14.91433">
        <ele>643.0</ele>
      </trkpt>
      <trkpt lat="45.64441" lon="14.91433">
        <ele>642.9</ele>
      </trkpt>
      <trkpt lat="45.64436" lon="14.91432">
        <ele>642.5</ele>
      </trkpt>
      <trkpt lat="45.64432" lon="14.91431">
        <ele>642.1</ele>
      </trkpt>
      <trkpt lat="45.64428" lon="14.9143">
        <ele>641.8</ele>
      </trkpt>
      <trkpt lat="45.64427" lon="14.9143">
        <ele>641.7</ele>
      </trkpt>
      <trkpt lat="45.64425" lon="14.91427">
        <ele>640.9</ele>
      </trkpt>
      <trkpt lat="45.64422" lon="14.91425">
        <ele>640.3</ele>
      </trkpt>
      <trkpt lat="45.6442" lon="14.91422">
        <ele>639.5</ele>
      </trkpt>
      <trkpt lat="45.64415" lon="14.91412">
        <ele>638.0</ele>
      </trkpt>
      <trkpt lat="45.64414" lon="14.91412">
        <ele>638.2</ele>
      </trkpt>
      <trkpt lat="45.64407" lon="14.91396">
        <ele>638.3</ele>
      </trkpt>
      <trkpt lat="45.644039" lon="14.9139">
        <ele>638.3</ele>
      </trkpt>
      <trkpt lat="45.64401" lon="14.91383">
        <ele>638.2</ele>
      </trkpt>
      <trkpt lat="45.64397" lon="14.9137">
        <ele>637.9</ele>
      </trkpt>
      <trkpt lat="45.64396" lon="14.91368">
        <ele>637.8</ele>
      </trkpt>
      <trkpt lat="45.64381" lon="14.91321">
        <ele>635.9</ele>
      </trkpt>
      <trkpt lat="45.64372" lon="14.91293">
        <ele>635.0</ele>
      </trkpt>
      <trkpt lat="45.64363" lon="14.9127">
        <ele>633.6</ele>
      </trkpt>
      <trkpt lat="45.64358" lon="14.91259">
        <ele>632.6</ele>
      </trkpt>
      <trkpt lat="45.64354" lon="14.91253">
        <ele>631.9</ele>
      </trkpt>
      <trkpt lat="45.6435" lon="14.91248">
        <ele>631.3</ele>
      </trkpt>
      <trkpt lat="45.64338" lon="14.9124">
        <ele>630.0</ele>
      </trkpt>
      <trkpt lat="45.64334" lon="14.91237">
        <ele>629.6</ele>
      </trkpt>
      <trkpt lat="45.6433" lon="14.91235">
        <ele>629.6</ele>
      </trkpt>
      <trkpt lat="45.64326" lon="14.91231">
        <ele>629.6</ele>
      </trkpt>
      <trkpt lat="45.64322" lon="14.91227">
        <ele>629.6</ele>
      </trkpt>
      <trkpt lat="45.64318" lon="14.91221">
        <ele>629.4</ele>
      </trkpt>
      <trkpt lat="45.64314" lon="14.91215">
        <ele>629.2</ele>
      </trkpt>
      <trkpt lat="45.64312" lon="14.91212">
        <ele>629.0</ele>
      </trkpt>
      <trkpt lat="45.643118" lon="14.912114">
        <ele>629.0</ele>
      </trkpt>
      <trkpt lat="45.643264" lon="14.911635">
        <ele>626.3</ele>
      </trkpt>
      <trkpt lat="45.643264" lon="14.911635">
        <ele>626.3</ele>
      </trkpt>
      <trkpt lat="45.643849" lon="14.910488">
        <ele>615.1</ele>
      </trkpt>
      <trkpt lat="45.64385" lon="14.91049">
        <ele>615.1</ele>
      </trkpt>
      <trkpt lat="45.64397" lon="14.91012">
        <ele>610.8</ele>
      </trkpt>
      <trkpt lat="45.64409" lon="14.90971">
        <ele>606.2</ele>
      </trkpt>
      <trkpt lat="45.64421" lon="14.90925">
        <ele>601.3</ele>
      </trkpt>
      <trkpt lat="45.64423" lon="14.90914">
        <ele>600.1</ele>
      </trkpt>
      <trkpt lat="45.64429" lon="14.9089">
        <ele>597.7</ele>
      </trkpt>
      <trkpt lat="45.64434" lon="14.90873">
        <ele>596.0</ele>
      </trkpt>
      <trkpt lat="45.64439" lon="14.90834">
        <ele>591.7</ele>
      </trkpt>
      <trkpt lat="45.64441" lon="14.90808">
        <ele>589.1</ele>
      </trkpt>
      <trkpt lat="45.644419" lon="14.90798">
        <ele>588.0</ele>
      </trkpt>
      <trkpt lat="45.64444" lon="14.9079">
        <ele>587.3</ele>
      </trkpt>
      <trkpt lat="45.64444" lon="14.9079">
        <ele>587.3</ele>
      </trkpt>
      <trkpt lat="45.64447" lon="14.90778">
        <ele>586.1</ele>
      </trkpt>
      <trkpt lat="45.64453" lon="14.90767">
        <ele>585.2</ele>
      </trkpt>
      <trkpt lat="45.64461" lon="14.90756">
        <ele>584.3</ele>
      </trkpt>
      <trkpt lat="45.644799" lon="14.90734">
        <ele>581.1</ele>
      </trkpt>
      <trkpt lat="45.64481" lon="14.90734">
        <ele>581.1</ele>
      </trkpt>
      <trkpt lat="45.64488" lon="14.90723">
        <ele>579.2</ele>
      </trkpt>
      <trkpt lat="45.644979" lon="14.90703">
        <ele>575.9</ele>
      </trkpt>
      <trkpt lat="45.645" lon="14.90697">
        <ele>574.8</ele>
      </trkpt>
      <trkpt lat="45.64501" lon="14.90693">
        <ele>574.1</ele>
      </trkpt>
      <trkpt lat="45.64502" lon="14.90688">
        <ele>573.3</ele>
      </trkpt>
      <trkpt lat="45.64502" lon="14.90683">
        <ele>572.3</ele>
      </trkpt>
      <trkpt lat="45.64501" lon="14.90679">
        <ele>571.5</ele>
      </trkpt>
      <trkpt lat="45.64499" lon="14.90674">
        <ele>570.3</ele>
      </trkpt>
      <trkpt lat="45.64496" lon="14.9067">
        <ele>569.4</ele>
      </trkpt>
      <trkpt lat="45.64496" lon="14.90669">
        <ele>569.2</ele>
      </trkpt>
      <trkpt lat="45.64493" lon="14.90666">
        <ele>568.3</ele>
      </trkpt>
      <trkpt lat="45.6449" lon="14.90661">
        <ele>567.0</ele>
      </trkpt>
      <trkpt lat="45.644732" lon="14.906368">
        <ele>559.7</ele>
      </trkpt>
      <trkpt lat="45.644795" lon="14.906199">
        <ele>556.2</ele>
      </trkpt>
      <trkpt lat="45.644585" lon="14.905929">
        <ele>547.0</ele>
      </trkpt>
      <trkpt lat="45.644409" lon="14.905772">
        <ele>541.1</ele>
      </trkpt>
      <trkpt lat="45.644233" lon="14.905649">
        <ele>536.5</ele>
      </trkpt>
      <trkpt lat="45.643987" lon="14.905402">
        <ele>530.9</ele>
      </trkpt>
      <trkpt lat="45.643974" lon="14.905065">
        <ele>524.9</ele>
      </trkpt>
      <trkpt lat="45.644078" lon="14.904757">
        <ele>519.7</ele>
      </trkpt>
      <trkpt lat="45.643962" lon="14.904461">
        <ele>513.9</ele>
      </trkpt>
      <trkpt lat="45.643761" lon="14.90393">
        <ele>503.9</ele>
      </trkpt>
      <trkpt lat="45.643614" lon="14.903752">
        <ele>500.9</ele>
      </trkpt>
      <trkpt lat="45.643437" lon="14.903637">
        <ele>498.7</ele>
      </trkpt>
      <trkpt lat="45.643216" lon="14.903482">
        <ele>496.4</ele>
      </trkpt>
      <trkpt lat="45.642939" lon="14.903377">
        <ele>495.0</ele>
      </trkpt>
      <trkpt lat="45.642722" lon="14.903449">
        <ele>495.3</ele>
      </trkpt>
      <trkpt lat="45.642666" lon="14.90328">
        <ele>493.8</ele>
      </trkpt>
      <trkpt lat="45.642576" lon="14.902874">
        <ele>490.7</ele>
      </trkpt>
      <trkpt lat="45.64261" lon="14.90288">
        <ele>490.7</ele>
      </trkpt>
      <trkpt lat="45.64261" lon="14.90284">
        <ele>490.4</ele>
      </trkpt>
      <trkpt lat="45.64261" lon="14.90278">
        <ele>490.0</ele>
      </trkpt>
      <trkpt lat="45.64261" lon="14.90273">
        <ele>489.6</ele>
      </trkpt>
      <trkpt lat="45.64261" lon="14.90267">
        <ele>489.1</ele>
      </trkpt>
      <trkpt lat="45.64261" lon="14.90259">
        <ele>488.5</ele>
      </trkpt>
      <trkpt lat="45.6426" lon="14.90246">
        <ele>487.9</ele>
      </trkpt>
      <trkpt lat="45.64258" lon="14.90231">
        <ele>487.9</ele>
      </trkpt>
      <trkpt lat="45.64258" lon="14.90223">
        <ele>487.9</ele>
      </trkpt>
      <trkpt lat="45.64257" lon="14.90214">
        <ele>487.9</ele>
      </trkpt>
      <trkpt lat="45.64256" lon="14.90205">
        <ele>487.9</ele>
      </trkpt>
      <trkpt lat="45.64256" lon="14.90198">
        <ele>487.9</ele>
      </trkpt>
      <trkpt lat="45.64257" lon="14.90191">
        <ele>487.9</ele>
      </trkpt>
      <trkpt lat="45.64257" lon="14.90187">
        <ele>487.9</ele>
      </trkpt>
      <trkpt lat="45.64258" lon="14.90185">
        <ele>487.9</ele>
      </trkpt>
      <trkpt lat="45.6426" lon="14.9018">
        <ele>487.9</ele>
      </trkpt>
      <trkpt lat="45.64266" lon="14.90169">
        <ele>487.8</ele>
      </trkpt>
      <trkpt lat="45.64277" lon="14.90157">
        <ele>488.2</ele>
      </trkpt>
      <trkpt lat="45.64282" lon="14.90152">
        <ele>488.4</ele>
      </trkpt>
      <trkpt lat="45.64286" lon="14.90149">
        <ele>488.6</ele>
      </trkpt>
      <trkpt lat="45.64293" lon="14.90145">
        <ele>488.8</ele>
      </trkpt>
      <trkpt lat="45.64304" lon="14.90139">
        <ele>489.2</ele>
      </trkpt>
      <trkpt lat="45.6432" lon="14.90133">
        <ele>489.7</ele>
      </trkpt>
      <trkpt lat="45.6434" lon="14.9012">
        <ele>490.6</ele>
      </trkpt>
      <trkpt lat="45.64345" lon="14.90115">
        <ele>490.7</ele>
      </trkpt>
      <trkpt lat="45.64349" lon="14.9011">
        <ele>490.9</ele>
      </trkpt>
      <trkpt lat="45.64353" lon="14.90103">
        <ele>491.1</ele>
      </trkpt>
      <trkpt lat="45.64362" lon="14.90087">
        <ele>491.4</ele>
      </trkpt>
      <trkpt lat="45.6437" lon="14.9007">
        <ele>491.5</ele>
      </trkpt>
      <trkpt lat="45.643743" lon="14.900623">
        <ele>491.6</ele>
      </trkpt>
      <trkpt lat="45.643668" lon="14.900603">
        <ele>492.1</ele>
      </trkpt>
      <trkpt lat="45.643676" lon="14.900485">
        <ele>492.6</ele>
      </trkpt>
      <trkpt lat="45.643738" lon="14.900202">
        <ele>493.6</ele>
      </trkpt>
      <trkpt lat="45.643898" lon="14.899731">
        <ele>495.6</ele>
      </trkpt>
      <trkpt lat="45.644118" lon="14.899226">
        <ele>500.8</ele>
      </trkpt>
      <trkpt lat="45.644156" lon="14.898735">
        <ele>501.4</ele>
      </trkpt>
      <trkpt lat="45.643895" lon="14.898098">
        <ele>497.4</ele>
      </trkpt>
      <trkpt lat="45.643827" lon="14.897429">
        <ele>493.8</ele>
      </trkpt>
      <trkpt lat="45.643877" lon="14.897107">
        <ele>492.5</ele>
      </trkpt>
      <trkpt lat="45.643755" lon="14.896074">
        <ele>487.7</ele>
      </trkpt>
      <trkpt lat="45.643675" lon="14.895975">
        <ele>487.2</ele>
      </trkpt>
      <trkpt lat="45.64368" lon="14.89597">
        <ele>487.2</ele>
      </trkpt>
      <trkpt lat="45.64367" lon="14.89596">
        <ele>487.1</ele>
      </trkpt>
      <trkpt lat="45.64364" lon="14.89591">
        <ele>486.9</ele>
      </trkpt>
      <trkpt lat="45.64362" lon="14.89586">
        <ele>486.8</ele>
      </trkpt>
      <trkpt lat="45.64361" lon="14.89578">
        <ele>486.6</ele>
      </trkpt>
      <trkpt lat="45.64361" lon="14.89571">
        <ele>486.6</ele>
      </trkpt>
      <trkpt lat="45.6436" lon="14.89561">
        <ele>486.5</ele>
      </trkpt>
      <trkpt lat="45.6436" lon="14.8955">
        <ele>486.4</ele>
      </trkpt>
      <trkpt lat="45.6436" lon="14.89523">
        <ele>486.1</ele>
      </trkpt>
      <trkpt lat="45.64361" lon="14.89494">
        <ele>485.8</ele>
      </trkpt>
      <trkpt lat="45.64365" lon="14.89462">
        <ele>484.8</ele>
      </trkpt>
      <trkpt lat="45.64365" lon="14.89461">
        <ele>484.7</ele>
      </trkpt>
      <trkpt lat="45.64367" lon="14.89441">
        <ele>484.1</ele>
      </trkpt>
      <trkpt lat="45.64369" lon="14.89433">
        <ele>483.9</ele>
      </trkpt>
      <trkpt lat="45.64369" lon="14.89426">
        <ele>483.6</ele>
      </trkpt>
      <trkpt lat="45.64369" lon="14.89426">
        <ele>483.6</ele>
      </trkpt>
      <trkpt lat="45.64368" lon="14.89417">
        <ele>483.3</ele>
      </trkpt>
      <trkpt lat="45.64368" lon="14.89409">
        <ele>482.9</ele>
      </trkpt>
      <trkpt lat="45.643659" lon="14.894">
        <ele>482.4</ele>
      </trkpt>
      <trkpt lat="45.64363" lon="14.89392">
        <ele>481.9</ele>
      </trkpt>
      <trkpt lat="45.64361" lon="14.8938">
        <ele>481.2</ele>
      </trkpt>
      <trkpt lat="45.64359" lon="14.89346">
        <ele>479.5</ele>
      </trkpt>
      <trkpt lat="45.6436" lon="14.89334">
        <ele>479.0</ele>
      </trkpt>
      <trkpt lat="45.64362" lon="14.89324">
        <ele>478.8</ele>
      </trkpt>
      <trkpt lat="45.64364" lon="14.89316">
        <ele>478.7</ele>
      </trkpt>
      <trkpt lat="45.64364" lon="14.89316">
        <ele>478.7</ele>
      </trkpt>
      <trkpt lat="45.64365" lon="14.89312">
        <ele>478.7</ele>
      </trkpt>
      <trkpt lat="45.64367" lon="14.89308">
        <ele>478.7</ele>
      </trkpt>
      <trkpt lat="45.64371" lon="14.89302">
        <ele>478.6</ele>
      </trkpt>
      <trkpt lat="45.64375" lon="14.89297">
        <ele>478.6</ele>
      </trkpt>
      <trkpt lat="45.64378" lon="14.89293">
        <ele>478.6</ele>
      </trkpt>
      <trkpt lat="45.6438" lon="14.8929">
        <ele>478.6</ele>
      </trkpt>
      <trkpt lat="45.64389" lon="14.89282">
        <ele>478.6</ele>
      </trkpt>
      <trkpt lat="45.64414" lon="14.89266">
        <ele>478.5</ele>
      </trkpt>
      <trkpt lat="45.64439" lon="14.89252">
        <ele>478.3</ele>
      </trkpt>
      <trkpt lat="45.64471" lon="14.89238">
        <ele>478.6</ele>
      </trkpt>
      <trkpt lat="45.64471" lon="14.89238">
        <ele>478.6</ele>
      </trkpt>
      <trkpt lat="45.64484" lon="14.89187">
        <ele>478.2</ele>
      </trkpt>
      <trkpt lat="45.64484" lon="14.89187">
        <ele>478.2</ele>
      </trkpt>
      <trkpt lat="45.64462" lon="14.89176">
        <ele>478.1</ele>
      </trkpt>
      <trkpt lat="45.64449" lon="14.89169">
        <ele>478.0</ele>
      </trkpt>
      <trkpt lat="45.64437" lon="14.89161">
        <ele>478.0</ele>
      </trkpt>
      <trkpt lat="45.64427" lon="14.89154">
        <ele>477.9</ele>
      </trkpt>
      <trkpt lat="45.64424" lon="14.8915">
        <ele>477.9</ele>
      </trkpt>
      <trkpt lat="45.64421" lon="14.89142">
        <ele>478.0</ele>
      </trkpt>
      <trkpt lat="45.64418" lon="14.89134">
        <ele>478.0</ele>
      </trkpt>
      <trkpt lat="45.64416" lon="14.89125">
        <ele>478.0</ele>
      </trkpt>
      <trkpt lat="45.64415" lon="14.8912">
        <ele>478.0</ele>
      </trkpt>
      <trkpt lat="45.64415" lon="14.89115">
        <ele>478.0</ele>
      </trkpt>
      <trkpt lat="45.64416" lon="14.89113">
        <ele>478.0</ele>
      </trkpt>
      <trkpt lat="45.64416" lon="14.8911">
        <ele>478.0</ele>
      </trkpt>
      <trkpt lat="45.64416" lon="14.89107">
        <ele>478.0</ele>
      </trkpt>
      <trkpt lat="45.64417" lon="14.89103">
        <ele>478.0</ele>
      </trkpt>
      <trkpt lat="45.64418" lon="14.89099">
        <ele>478.0</ele>
      </trkpt>
      <trkpt lat="45.6442" lon="14.89091">
        <ele>477.9</ele>
      </trkpt>
      <trkpt lat="45.6442" lon="14.89089">
        <ele>477.9</ele>
      </trkpt>
      <trkpt lat="45.6442" lon="14.89086">
        <ele>477.9</ele>
      </trkpt>
      <trkpt lat="45.6442" lon="14.89081">
        <ele>477.9</ele>
      </trkpt>
      <trkpt lat="45.6442" lon="14.89073">
        <ele>477.9</ele>
      </trkpt>
      <trkpt lat="45.64421" lon="14.89065">
        <ele>477.8</ele>
      </trkpt>
      <trkpt lat="45.64423" lon="14.89032">
        <ele>477.7</ele>
      </trkpt>
      <trkpt lat="45.64425" lon="14.89004">
        <ele>477.5</ele>
      </trkpt>
      <trkpt lat="45.64425" lon="14.8898">
        <ele>476.8</ele>
      </trkpt>
      <trkpt lat="45.64425" lon="14.88972">
        <ele>476.6</ele>
      </trkpt>
      <trkpt lat="45.64425" lon="14.88948">
        <ele>475.8</ele>
      </trkpt>
      <trkpt lat="45.64424" lon="14.88921">
        <ele>474.9</ele>
      </trkpt>
      <trkpt lat="45.64422" lon="14.88894">
        <ele>474.3</ele>
      </trkpt>
      <trkpt lat="45.64419" lon="14.8886">
        <ele>473.6</ele>
      </trkpt>
      <trkpt lat="45.64419" lon="14.88854">
        <ele>473.5</ele>
      </trkpt>
      <trkpt lat="45.6442" lon="14.88846">
        <ele>473.3</ele>
      </trkpt>
      <trkpt lat="45.64422" lon="14.88835">
        <ele>473.0</ele>
      </trkpt>
      <trkpt lat="45.64426" lon="14.88812">
        <ele>472.8</ele>
      </trkpt>
      <trkpt lat="45.64431" lon="14.88779">
        <ele>472.6</ele>
      </trkpt>
      <trkpt lat="45.64434" lon="14.88769">
        <ele>472.5</ele>
      </trkpt>
      <trkpt lat="45.64437" lon="14.88761">
        <ele>472.6</ele>
      </trkpt>
      <trkpt lat="45.64441" lon="14.88745">
        <ele>472.7</ele>
      </trkpt>
      <trkpt lat="45.644509" lon="14.8872">
        <ele>473.5</ele>
      </trkpt>
      <trkpt lat="45.64462" lon="14.88691">
        <ele>474.1</ele>
      </trkpt>
      <trkpt lat="45.64466" lon="14.88677">
        <ele>474.3</ele>
      </trkpt>
      <trkpt lat="45.6447" lon="14.88663">
        <ele>474.4</ele>
      </trkpt>
      <trkpt lat="45.64476" lon="14.88639">
        <ele>474.4</ele>
      </trkpt>
      <trkpt lat="45.64494" lon="14.88565">
        <ele>475.6</ele>
      </trkpt>
      <trkpt lat="45.64509" lon="14.88481">
        <ele>477.9</ele>
      </trkpt>
      <trkpt lat="45.64514" lon="14.8846">
        <ele>477.8</ele>
      </trkpt>
      <trkpt lat="45.64514" lon="14.8846">
        <ele>477.8</ele>
      </trkpt>
      <trkpt lat="45.64514" lon="14.8846">
        <ele>477.8</ele>
      </trkpt>
      <trkpt lat="45.64518" lon="14.88445">
        <ele>477.7</ele>
      </trkpt>
      <trkpt lat="45.64526" lon="14.88405">
        <ele>477.7</ele>
      </trkpt>
      <trkpt lat="45.64534" lon="14.88378">
        <ele>477.7</ele>
      </trkpt>
      <trkpt lat="45.64541" lon="14.88349">
        <ele>477.8</ele>
      </trkpt>
      <trkpt lat="45.6454" lon="14.88338">
        <ele>478.0</ele>
      </trkpt>
      <trkpt lat="45.64537" lon="14.88327">
        <ele>478.4</ele>
      </trkpt>
      <trkpt lat="45.64534" lon="14.88324">
        <ele>478.6</ele>
      </trkpt>
      <trkpt lat="45.64522" lon="14.88305">
        <ele>479.6</ele>
      </trkpt>
      <trkpt lat="45.64517" lon="14.88297">
        <ele>480.0</ele>
      </trkpt>
      <trkpt lat="45.64508" lon="14.88277">
        <ele>480.6</ele>
      </trkpt>
      <trkpt lat="45.645069" lon="14.88253">
        <ele>480.7</ele>
      </trkpt>
      <trkpt lat="45.64513" lon="14.88209">
        <ele>481.8</ele>
      </trkpt>
      <trkpt lat="45.64513" lon="14.88209">
        <ele>481.8</ele>
      </trkpt>
      <trkpt lat="45.64526" lon="14.88122">
        <ele>483.8</ele>
      </trkpt>
      <trkpt lat="45.64529" lon="14.88095">
        <ele>484.6</ele>
      </trkpt>
      <trkpt lat="45.6453" lon="14.88082">
        <ele>485.0</ele>
      </trkpt>
      <trkpt lat="45.64531" lon="14.88072">
        <ele>485.4</ele>
      </trkpt>
      <trkpt lat="45.64531" lon="14.88063">
        <ele>485.9</ele>
      </trkpt>
      <trkpt lat="45.64531" lon="14.88051">
        <ele>486.5</ele>
      </trkpt>
      <trkpt lat="45.64531" lon="14.88026">
        <ele>487.7</ele>
      </trkpt>
      <trkpt lat="45.64531" lon="14.88012">
        <ele>488.4</ele>
      </trkpt>
      <trkpt lat="45.64532" lon="14.88003">
        <ele>488.8</ele>
      </trkpt>
      <trkpt lat="45.64537" lon="14.87991">
        <ele>489.4</ele>
      </trkpt>
      <trkpt lat="45.64541" lon="14.87987">
        <ele>489.5</ele>
      </trkpt>
      <trkpt lat="45.64548" lon="14.87977">
        <ele>490.0</ele>
      </trkpt>
      <trkpt lat="45.64549" lon="14.87976">
        <ele>490.0</ele>
      </trkpt>
      <trkpt lat="45.64553" lon="14.8797">
        <ele>490.3</ele>
      </trkpt>
      <trkpt lat="45.64556" lon="14.87965">
        <ele>490.5</ele>
      </trkpt>
      <trkpt lat="45.64558" lon="14.87959">
        <ele>490.8</ele>
      </trkpt>
      <trkpt lat="45.64559" lon="14.87952">
        <ele>491.1</ele>
      </trkpt>
      <trkpt lat="45.64562" lon="14.87946">
        <ele>491.4</ele>
      </trkpt>
      <trkpt lat="45.64565" lon="14.87939">
        <ele>491.8</ele>
      </trkpt>
      <trkpt lat="45.64565" lon="14.87939">
        <ele>491.8</ele>
      </trkpt>
      <trkpt lat="45.6456" lon="14.87932">
        <ele>492.0</ele>
      </trkpt>
      <trkpt lat="45.64548" lon="14.87913">
        <ele>492.6</ele>
      </trkpt>
      <trkpt lat="45.64535" lon="14.87887">
        <ele>492.6</ele>
      </trkpt>
      <trkpt lat="45.64534" lon="14.87884">
        <ele>492.6</ele>
      </trkpt>
      <trkpt lat="45.64525" lon="14.87861">
        <ele>492.5</ele>
      </trkpt>
      <trkpt lat="45.64521" lon="14.87852">
        <ele>492.4</ele>
      </trkpt>
      <trkpt lat="45.64515" lon="14.87812">
        <ele>492.5</ele>
      </trkpt>
      <trkpt lat="45.64515" lon="14.87807">
        <ele>492.6</ele>
      </trkpt>
      <trkpt lat="45.64515" lon="14.87807">
        <ele>492.6</ele>
      </trkpt>
      <trkpt lat="45.64521" lon="14.87807">
        <ele>492.7</ele>
      </trkpt>
      <trkpt lat="45.64524" lon="14.87805">
        <ele>492.7</ele>
      </trkpt>
      <trkpt lat="45.645269" lon="14.87804">
        <ele>492.8</ele>
      </trkpt>
      <trkpt lat="45.64529" lon="14.87802">
        <ele>492.8</ele>
      </trkpt>
      <trkpt lat="45.64537" lon="14.87797">
        <ele>492.9</ele>
      </trkpt>
      <trkpt lat="45.64547" lon="14.8779">
        <ele>493.1</ele>
      </trkpt>
      <trkpt lat="45.64559" lon="14.87775">
        <ele>493.1</ele>
      </trkpt>
      <trkpt lat="45.645829" lon="14.87744">
        <ele>492.7</ele>
      </trkpt>
      <trkpt lat="45.64606" lon="14.87707">
        <ele>489.9</ele>
      </trkpt>
      <trkpt lat="45.646335" lon="14.877482">
        <ele>489.4</ele>
      </trkpt>
      <trkpt lat="45.646439" lon="14.877577">
        <ele>488.6</ele>
      </trkpt>
      <trkpt lat="45.646814" lon="14.87774">
        <ele>486.2</ele>
      </trkpt>
      <trkpt lat="45.646978" lon="14.877737">
        <ele>485.5</ele>
      </trkpt>
      <trkpt lat="45.647009" lon="14.876503">
        <ele>485.8</ele>
      </trkpt>
      <trkpt lat="45.647231" lon="14.875736">
        <ele>485.5</ele>
      </trkpt>
      <trkpt lat="45.647231" lon="14.875736">
        <ele>485.5</ele>
      </trkpt>
      <trkpt lat="45.646276" lon="14.875157">
        <ele>482.5</ele>
      </trkpt>
      <trkpt lat="45.646112" lon="14.874767">
        <ele>480.9</ele>
      </trkpt>
      <trkpt lat="45.64613" lon="14.87477">
        <ele>480.9</ele>
      </trkpt>
      <trkpt lat="45.64612" lon="14.87473">
        <ele>480.8</ele>
      </trkpt>
      <trkpt lat="45.64613" lon="14.87467">
        <ele>480.6</ele>
      </trkpt>
      <trkpt lat="45.64615" lon="14.8745">
        <ele>480.0</ele>
      </trkpt>
      <trkpt lat="45.64621" lon="14.87422">
        <ele>478.8</ele>
      </trkpt>
      <trkpt lat="45.64621" lon="14.87422">
        <ele>478.8</ele>
      </trkpt>
      <trkpt lat="45.64589" lon="14.87356">
        <ele>477.8</ele>
      </trkpt>
      <trkpt lat="45.64581" lon="14.87336">
        <ele>477.3</ele>
      </trkpt>
      <trkpt lat="45.64556" lon="14.8727">
        <ele>479.5</ele>
      </trkpt>
      <trkpt lat="45.645359" lon="14.87199">
        <ele>479.6</ele>
      </trkpt>
      <trkpt lat="45.645359" lon="14.87199">
        <ele>479.6</ele>
      </trkpt>
      <trkpt lat="45.645359" lon="14.87194">
        <ele>479.4</ele>
      </trkpt>
    </trkseg>
  </trk>
</gpx>
