<?xml version="1.0" encoding="UTF-8"?>
<gpx xmlns:gpxdata="http://www.cluetrust.com/XML/GPXDATA/1/0" xmlns:xsi="http://www.w3.org/2001/XMLSchema-instance" xmlns="http://www.topografix.com/GPX/1/1" version="1.1" creator="http://ridewithgps.com/" xsi:schemaLocation="http://www.topografix.com/GPX/1/1 http://www.topografix.com/GPX/1/1/gpx.xsd http://www.cluetrust.com/XML/GPXDATA/1/0 http://www.cluetrust.com/Schemas/gpxdata10.xsd">
  <metadata>
    <name>KOF 5 km</name>
    <link href="https://ridewithgps.com/routes/50782749">
      <text>KOF 5 km</text>
    </link>
    <time>2025-05-16T09:42:37Z</time>
  </metadata>
  <trk>
    <name>KOF 5 km</name>
    <trkseg>
      <trkpt lat="45.64538" lon="14.87207">
        <ele>479.7</ele>
      </trkpt>
      <trkpt lat="45.64556" lon="14.8727">
        <ele>479.5</ele>
      </trkpt>
      <trkpt lat="45.64581" lon="14.87336">
        <ele>477.3</ele>
      </trkpt>
      <trkpt lat="45.64589" lon="14.87356">
        <ele>477.8</ele>
      </trkpt>
      <trkpt lat="45.64621" lon="14.87422">
        <ele>478.8</ele>
      </trkpt>
      <trkpt lat="45.64622" lon="14.87424">
        <ele>478.9</ele>
      </trkpt>
      <trkpt lat="45.64615" lon="14.8745">
        <ele>480.0</ele>
      </trkpt>
      <trkpt lat="45.64613" lon="14.87467">
        <ele>480.6</ele>
      </trkpt>
      <trkpt lat="45.64612" lon="14.87473">
        <ele>480.8</ele>
      </trkpt>
      <trkpt lat="45.64613" lon="14.87483">
        <ele>481.1</ele>
      </trkpt>
      <trkpt lat="45.64619" lon="14.87501">
        <ele>481.6</ele>
      </trkpt>
      <trkpt lat="45.64629" lon="14.87516">
        <ele>482.5</ele>
      </trkpt>
      <trkpt lat="45.64651" lon="14.8753">
        <ele>483.1</ele>
      </trkpt>
      <trkpt lat="45.64684" lon="14.87548">
        <ele>484.0</ele>
      </trkpt>
      <trkpt lat="45.64695" lon="14.87555">
        <ele>484.4</ele>
      </trkpt>
      <trkpt lat="45.64711" lon="14.87565">
        <ele>485.0</ele>
      </trkpt>
      <trkpt lat="45.64717" lon="14.87569">
        <ele>485.2</ele>
      </trkpt>
      <trkpt lat="45.647033" lon="14.877778">
        <ele>485.3</ele>
      </trkpt>
      <trkpt lat="45.64696" lon="14.87779">
        <ele>485.6</ele>
      </trkpt>
      <trkpt lat="45.64689" lon="14.8778">
        <ele>485.9</ele>
      </trkpt>
      <trkpt lat="45.64684" lon="14.87778">
        <ele>486.0</ele>
      </trkpt>
      <trkpt lat="45.64679" lon="14.87777">
        <ele>486.2</ele>
      </trkpt>
      <trkpt lat="45.64672" lon="14.87775">
        <ele>486.5</ele>
      </trkpt>
      <trkpt lat="45.64665" lon="14.87771">
        <ele>486.9</ele>
      </trkpt>
      <trkpt lat="45.64661" lon="14.87769">
        <ele>487.2</ele>
      </trkpt>
      <trkpt lat="45.64655" lon="14.87766">
        <ele>487.7</ele>
      </trkpt>
      <trkpt lat="45.64649" lon="14.87763">
        <ele>488.2</ele>
      </trkpt>
      <trkpt lat="45.64645" lon="14.8776">
        <ele>488.5</ele>
      </trkpt>
      <trkpt lat="45.64639" lon="14.87753">
        <ele>489.0</ele>
      </trkpt>
      <trkpt lat="45.64631" lon="14.87744">
        <ele>489.4</ele>
      </trkpt>
      <trkpt lat="45.64606" lon="14.87707">
        <ele>489.9</ele>
      </trkpt>
      <trkpt lat="45.64606" lon="14.87707">
        <ele>489.9</ele>
      </trkpt>
      <trkpt lat="45.64583" lon="14.87744">
        <ele>492.7</ele>
      </trkpt>
      <trkpt lat="45.64559" lon="14.87775">
        <ele>493.1</ele>
      </trkpt>
      <trkpt lat="45.64547" lon="14.8779">
        <ele>493.1</ele>
      </trkpt>
      <trkpt lat="45.64537" lon="14.87797">
        <ele>492.9</ele>
      </trkpt>
      <trkpt lat="45.64529" lon="14.87802">
        <ele>492.8</ele>
      </trkpt>
      <trkpt lat="45.64527" lon="14.87804">
        <ele>492.8</ele>
      </trkpt>
      <trkpt lat="45.64524" lon="14.87805">
        <ele>492.7</ele>
      </trkpt>
      <trkpt lat="45.64521" lon="14.87807">
        <ele>492.7</ele>
      </trkpt>
      <trkpt lat="45.64515" lon="14.87807">
        <ele>492.6</ele>
      </trkpt>
      <trkpt lat="45.64515" lon="14.87807">
        <ele>492.6</ele>
      </trkpt>
      <trkpt lat="45.64515" lon="14.87812">
        <ele>492.5</ele>
      </trkpt>
      <trkpt lat="45.64521" lon="14.87852">
        <ele>492.4</ele>
      </trkpt>
      <trkpt lat="45.64525" lon="14.87861">
        <ele>492.5</ele>
      </trkpt>
      <trkpt lat="45.64534" lon="14.87884">
        <ele>492.6</ele>
      </trkpt>
      <trkpt lat="45.64535" lon="14.87887">
        <ele>492.6</ele>
      </trkpt>
      <trkpt lat="45.64548" lon="14.87913">
        <ele>492.6</ele>
      </trkpt>
      <trkpt lat="45.6456" lon="14.87932">
        <ele>492.0</ele>
      </trkpt>
      <trkpt lat="45.64565" lon="14.87939">
        <ele>491.8</ele>
      </trkpt>
      <trkpt lat="45.64565" lon="14.87939">
        <ele>491.8</ele>
      </trkpt>
      <trkpt lat="45.64562" lon="14.87946">
        <ele>491.4</ele>
      </trkpt>
      <trkpt lat="45.64559" lon="14.87952">
        <ele>491.1</ele>
      </trkpt>
      <trkpt lat="45.64558" lon="14.87959">
        <ele>490.8</ele>
      </trkpt>
      <trkpt lat="45.64556" lon="14.87965">
        <ele>490.5</ele>
      </trkpt>
      <trkpt lat="45.64553" lon="14.8797">
        <ele>490.3</ele>
      </trkpt>
      <trkpt lat="45.64549" lon="14.87976">
        <ele>490.0</ele>
      </trkpt>
      <trkpt lat="45.64548" lon="14.87977">
        <ele>490.0</ele>
      </trkpt>
      <trkpt lat="45.64541" lon="14.87987">
        <ele>489.5</ele>
      </trkpt>
      <trkpt lat="45.64537" lon="14.87991">
        <ele>489.4</ele>
      </trkpt>
      <trkpt lat="45.64537" lon="14.87991">
        <ele>489.4</ele>
      </trkpt>
      <trkpt lat="45.64532" lon="14.88003">
        <ele>488.8</ele>
      </trkpt>
      <trkpt lat="45.64531" lon="14.88012">
        <ele>488.4</ele>
      </trkpt>
      <trkpt lat="45.64531" lon="14.88026">
        <ele>487.7</ele>
      </trkpt>
      <trkpt lat="45.64531" lon="14.88051">
        <ele>486.5</ele>
      </trkpt>
      <trkpt lat="45.64531" lon="14.88063">
        <ele>485.9</ele>
      </trkpt>
      <trkpt lat="45.64531" lon="14.88072">
        <ele>485.4</ele>
      </trkpt>
      <trkpt lat="45.6453" lon="14.88082">
        <ele>485.0</ele>
      </trkpt>
      <trkpt lat="45.64529" lon="14.88095">
        <ele>484.6</ele>
      </trkpt>
      <trkpt lat="45.64526" lon="14.88122">
        <ele>483.8</ele>
      </trkpt>
      <trkpt lat="45.64513" lon="14.88209">
        <ele>481.8</ele>
      </trkpt>
      <trkpt lat="45.64558" lon="14.88228">
        <ele>478.8</ele>
      </trkpt>
      <trkpt lat="45.64587" lon="14.88241">
        <ele>477.2</ele>
      </trkpt>
      <trkpt lat="45.64604" lon="14.88248">
        <ele>477.1</ele>
      </trkpt>
      <trkpt lat="45.64613" lon="14.88252">
        <ele>476.9</ele>
      </trkpt>
      <trkpt lat="45.64621" lon="14.88256">
        <ele>476.8</ele>
      </trkpt>
      <trkpt lat="45.64638" lon="14.88264">
        <ele>476.4</ele>
      </trkpt>
      <trkpt lat="45.64655" lon="14.88272">
        <ele>476.0</ele>
      </trkpt>
      <trkpt lat="45.64658" lon="14.88273">
        <ele>476.0</ele>
      </trkpt>
      <trkpt lat="45.64695" lon="14.88293">
        <ele>475.5</ele>
      </trkpt>
      <trkpt lat="45.6473" lon="14.88305">
        <ele>475.6</ele>
      </trkpt>
      <trkpt lat="45.64739" lon="14.88308">
        <ele>475.7</ele>
      </trkpt>
      <trkpt lat="45.64741" lon="14.88309">
        <ele>475.7</ele>
      </trkpt>
      <trkpt lat="45.64751" lon="14.88314">
        <ele>475.7</ele>
      </trkpt>
      <trkpt lat="45.6476" lon="14.88319">
        <ele>475.5</ele>
      </trkpt>
      <trkpt lat="45.64775" lon="14.88325">
        <ele>475.3</ele>
      </trkpt>
      <trkpt lat="45.64786" lon="14.88327">
        <ele>475.2</ele>
      </trkpt>
      <trkpt lat="45.64792" lon="14.88324">
        <ele>475.3</ele>
      </trkpt>
      <trkpt lat="45.64798" lon="14.8832">
        <ele>475.5</ele>
      </trkpt>
      <trkpt lat="45.64807" lon="14.88314">
        <ele>475.7</ele>
      </trkpt>
      <trkpt lat="45.64824" lon="14.88306">
        <ele>476.0</ele>
      </trkpt>
      <trkpt lat="45.64835" lon="14.88305">
        <ele>475.9</ele>
      </trkpt>
      <trkpt lat="45.64844" lon="14.88301">
        <ele>475.7</ele>
      </trkpt>
      <trkpt lat="45.64844" lon="14.88301">
        <ele>475.7</ele>
      </trkpt>
      <trkpt lat="45.6485" lon="14.88323">
        <ele>474.7</ele>
      </trkpt>
      <trkpt lat="45.64863" lon="14.8837">
        <ele>473.1</ele>
      </trkpt>
      <trkpt lat="45.6487" lon="14.88397">
        <ele>472.4</ele>
      </trkpt>
      <trkpt lat="45.64874" lon="14.88411">
        <ele>472.1</ele>
      </trkpt>
      <trkpt lat="45.64878" lon="14.88417">
        <ele>472.0</ele>
      </trkpt>
      <trkpt lat="45.64879" lon="14.88419">
        <ele>472.0</ele>
      </trkpt>
      <trkpt lat="45.64882" lon="14.88422">
        <ele>472.0</ele>
      </trkpt>
      <trkpt lat="45.64884" lon="14.88424">
        <ele>472.0</ele>
      </trkpt>
      <trkpt lat="45.64887" lon="14.88425">
        <ele>472.0</ele>
      </trkpt>
      <trkpt lat="45.6489" lon="14.88425">
        <ele>472.0</ele>
      </trkpt>
      <trkpt lat="45.64895" lon="14.88425">
        <ele>472.0</ele>
      </trkpt>
      <trkpt lat="45.64896" lon="14.88425">
        <ele>472.0</ele>
      </trkpt>
      <trkpt lat="45.649" lon="14.88425">
        <ele>472.0</ele>
      </trkpt>
      <trkpt lat="45.64904" lon="14.88427">
        <ele>472.0</ele>
      </trkpt>
      <trkpt lat="45.64909" lon="14.88432">
        <ele>472.0</ele>
      </trkpt>
      <trkpt lat="45.64911" lon="14.88435">
        <ele>472.0</ele>
      </trkpt>
      <trkpt lat="45.64923" lon="14.88455">
        <ele>472.0</ele>
      </trkpt>
      <trkpt lat="45.64937" lon="14.88471">
        <ele>471.9</ele>
      </trkpt>
      <trkpt lat="45.6496" lon="14.88498">
        <ele>472.0</ele>
      </trkpt>
      <trkpt lat="45.64972" lon="14.88515">
        <ele>472.4</ele>
      </trkpt>
      <trkpt lat="45.64989" lon="14.88534">
        <ele>472.9</ele>
      </trkpt>
      <trkpt lat="45.64998" lon="14.88548">
        <ele>473.2</ele>
      </trkpt>
      <trkpt lat="45.65007" lon="14.88572">
        <ele>473.9</ele>
      </trkpt>
      <trkpt lat="45.65009" lon="14.88574">
        <ele>473.9</ele>
      </trkpt>
      <trkpt lat="45.65015" lon="14.88584">
        <ele>474.2</ele>
      </trkpt>
      <trkpt lat="45.65017" lon="14.8859">
        <ele>474.2</ele>
      </trkpt>
      <trkpt lat="45.65017" lon="14.88598">
        <ele>474.1</ele>
      </trkpt>
      <trkpt lat="45.65014" lon="14.88634">
        <ele>473.9</ele>
      </trkpt>
      <trkpt lat="45.65013" lon="14.88671">
        <ele>473.6</ele>
      </trkpt>
      <trkpt lat="45.65013" lon="14.88687">
        <ele>473.5</ele>
      </trkpt>
      <trkpt lat="45.65013" lon="14.88707">
        <ele>473.3</ele>
      </trkpt>
      <trkpt lat="45.65018" lon="14.88752">
        <ele>472.5</ele>
      </trkpt>
      <trkpt lat="45.65021" lon="14.88763">
        <ele>472.4</ele>
      </trkpt>
      <trkpt lat="45.65027" lon="14.88784">
        <ele>472.3</ele>
      </trkpt>
      <trkpt lat="45.65037" lon="14.88816">
        <ele>472.0</ele>
      </trkpt>
      <trkpt lat="45.65042" lon="14.88833">
        <ele>472.0</ele>
      </trkpt>
      <trkpt lat="45.65058" lon="14.88879">
        <ele>473.7</ele>
      </trkpt>
      <trkpt lat="45.65068" lon="14.88909">
        <ele>475.5</ele>
      </trkpt>
      <trkpt lat="45.65082" lon="14.88952">
        <ele>477.7</ele>
      </trkpt>
      <trkpt lat="45.65092" lon="14.88966">
        <ele>478.6</ele>
      </trkpt>
      <trkpt lat="45.65099" lon="14.88979">
        <ele>479.5</ele>
      </trkpt>
      <trkpt lat="45.65109" lon="14.88998">
        <ele>480.8</ele>
      </trkpt>
      <trkpt lat="45.65112" lon="14.89007">
        <ele>481.3</ele>
      </trkpt>
      <trkpt lat="45.65113" lon="14.89014">
        <ele>481.7</ele>
      </trkpt>
      <trkpt lat="45.65113" lon="14.8902">
        <ele>481.9</ele>
      </trkpt>
      <trkpt lat="45.65112" lon="14.89025">
        <ele>482.1</ele>
      </trkpt>
      <trkpt lat="45.65112" lon="14.89025">
        <ele>482.1</ele>
      </trkpt>
      <trkpt lat="45.65111" lon="14.8903">
        <ele>482.3</ele>
      </trkpt>
      <trkpt lat="45.65109" lon="14.89039">
        <ele>482.7</ele>
      </trkpt>
      <trkpt lat="45.65108" lon="14.89042">
        <ele>482.8</ele>
      </trkpt>
      <trkpt lat="45.65099" lon="14.89065">
        <ele>483.5</ele>
      </trkpt>
      <trkpt lat="45.65093" lon="14.8908">
        <ele>484.1</ele>
      </trkpt>
      <trkpt lat="45.6509" lon="14.89089">
        <ele>484.3</ele>
      </trkpt>
      <trkpt lat="45.65087" lon="14.89097">
        <ele>484.4</ele>
      </trkpt>
      <trkpt lat="45.65086" lon="14.89103">
        <ele>484.6</ele>
      </trkpt>
      <trkpt lat="45.65085" lon="14.89107">
        <ele>484.6</ele>
      </trkpt>
      <trkpt lat="45.65085" lon="14.89112">
        <ele>484.7</ele>
      </trkpt>
      <trkpt lat="45.65085" lon="14.89117">
        <ele>484.9</ele>
      </trkpt>
      <trkpt lat="45.65085" lon="14.8912">
        <ele>484.9</ele>
      </trkpt>
      <trkpt lat="45.65086" lon="14.89123">
        <ele>485.0</ele>
      </trkpt>
      <trkpt lat="45.65087" lon="14.89124">
        <ele>485.1</ele>
      </trkpt>
      <trkpt lat="45.65088" lon="14.89126">
        <ele>485.2</ele>
      </trkpt>
      <trkpt lat="45.65089" lon="14.89127">
        <ele>485.3</ele>
      </trkpt>
      <trkpt lat="45.65091" lon="14.89128">
        <ele>485.4</ele>
      </trkpt>
      <trkpt lat="45.65095" lon="14.89129">
        <ele>485.5</ele>
      </trkpt>
      <trkpt lat="45.65098" lon="14.8913">
        <ele>485.7</ele>
      </trkpt>
      <trkpt lat="45.65102" lon="14.89132">
        <ele>485.9</ele>
      </trkpt>
      <trkpt lat="45.65105" lon="14.89133">
        <ele>486.0</ele>
      </trkpt>
      <trkpt lat="45.65107" lon="14.89134">
        <ele>486.1</ele>
      </trkpt>
      <trkpt lat="45.65109" lon="14.89136">
        <ele>486.3</ele>
      </trkpt>
      <trkpt lat="45.65111" lon="14.89138">
        <ele>486.4</ele>
      </trkpt>
      <trkpt lat="45.65112" lon="14.89139">
        <ele>486.5</ele>
      </trkpt>
      <trkpt lat="45.6512" lon="14.89145">
        <ele>487.0</ele>
      </trkpt>
      <trkpt lat="45.65127" lon="14.89151">
        <ele>487.5</ele>
      </trkpt>
      <trkpt lat="45.65133" lon="14.89157">
        <ele>488.0</ele>
      </trkpt>
      <trkpt lat="45.65137" lon="14.89161">
        <ele>488.4</ele>
      </trkpt>
      <trkpt lat="45.65141" lon="14.89166">
        <ele>488.7</ele>
      </trkpt>
      <trkpt lat="45.65143" lon="14.89169">
        <ele>488.9</ele>
      </trkpt>
      <trkpt lat="45.65146" lon="14.89173">
        <ele>489.2</ele>
      </trkpt>
      <trkpt lat="45.65147" lon="14.89177">
        <ele>489.4</ele>
      </trkpt>
      <trkpt lat="45.65148" lon="14.89181">
        <ele>489.5</ele>
      </trkpt>
      <trkpt lat="45.65148" lon="14.89185">
        <ele>489.7</ele>
      </trkpt>
      <trkpt lat="45.65148" lon="14.89189">
        <ele>489.8</ele>
      </trkpt>
      <trkpt lat="45.65148" lon="14.8919">
        <ele>489.8</ele>
      </trkpt>
      <trkpt lat="45.65148" lon="14.89194">
        <ele>489.9</ele>
      </trkpt>
      <trkpt lat="45.65148" lon="14.89197">
        <ele>490.0</ele>
      </trkpt>
      <trkpt lat="45.65148" lon="14.89201">
        <ele>490.2</ele>
      </trkpt>
      <trkpt lat="45.65149" lon="14.89204">
        <ele>490.3</ele>
      </trkpt>
      <trkpt lat="45.6515" lon="14.8921">
        <ele>490.6</ele>
      </trkpt>
      <trkpt lat="45.65152" lon="14.89222">
        <ele>491.1</ele>
      </trkpt>
      <trkpt lat="45.65153" lon="14.89229">
        <ele>491.3</ele>
      </trkpt>
      <trkpt lat="45.65154" lon="14.89234">
        <ele>491.6</ele>
      </trkpt>
      <trkpt lat="45.65157" lon="14.8924">
        <ele>492.0</ele>
      </trkpt>
      <trkpt lat="45.6516" lon="14.89246">
        <ele>492.4</ele>
      </trkpt>
      <trkpt lat="45.65162" lon="14.89251">
        <ele>492.7</ele>
      </trkpt>
      <trkpt lat="45.65165" lon="14.89257">
        <ele>493.5</ele>
      </trkpt>
      <trkpt lat="45.65165" lon="14.8926">
        <ele>493.7</ele>
      </trkpt>
      <trkpt lat="45.65166" lon="14.89265">
        <ele>494.2</ele>
      </trkpt>
      <trkpt lat="45.65167" lon="14.89271">
        <ele>494.8</ele>
      </trkpt>
      <trkpt lat="45.65166" lon="14.89282">
        <ele>495.6</ele>
      </trkpt>
      <trkpt lat="45.65166" lon="14.89286">
        <ele>496.0</ele>
      </trkpt>
      <trkpt lat="45.65166" lon="14.8929">
        <ele>496.3</ele>
      </trkpt>
      <trkpt lat="45.65166" lon="14.89294">
        <ele>496.6</ele>
      </trkpt>
      <trkpt lat="45.65166" lon="14.893">
        <ele>497.1</ele>
      </trkpt>
      <trkpt lat="45.65167" lon="14.89306">
        <ele>497.7</ele>
      </trkpt>
      <trkpt lat="45.65167" lon="14.8931">
        <ele>498.0</ele>
      </trkpt>
      <trkpt lat="45.65172" lon="14.89326">
        <ele>499.5</ele>
      </trkpt>
      <trkpt lat="45.65175" lon="14.89336">
        <ele>500.2</ele>
      </trkpt>
      <trkpt lat="45.65181" lon="14.89352">
        <ele>500.2</ele>
      </trkpt>
      <trkpt lat="45.65183" lon="14.89357">
        <ele>500.2</ele>
      </trkpt>
      <trkpt lat="45.65188" lon="14.89368">
        <ele>500.3</ele>
      </trkpt>
      <trkpt lat="45.65191" lon="14.89375">
        <ele>500.4</ele>
      </trkpt>
      <trkpt lat="45.65193" lon="14.89379">
        <ele>500.4</ele>
      </trkpt>
      <trkpt lat="45.65195" lon="14.89382">
        <ele>500.5</ele>
      </trkpt>
      <trkpt lat="45.652" lon="14.89392">
        <ele>500.7</ele>
      </trkpt>
      <trkpt lat="45.65204" lon="14.894">
        <ele>500.8</ele>
      </trkpt>
      <trkpt lat="45.65209" lon="14.8941">
        <ele>501.0</ele>
      </trkpt>
      <trkpt lat="45.652094" lon="14.8941">
        <ele>501.0</ele>
      </trkpt>
      <trkpt lat="45.651337" lon="14.894725">
        <ele>498.9</ele>
      </trkpt>
      <trkpt lat="45.650806" lon="14.895053">
        <ele>502.2</ele>
      </trkpt>
      <trkpt lat="45.650502" lon="14.894929">
        <ele>501.2</ele>
      </trkpt>
      <trkpt lat="45.649803" lon="14.894232">
        <ele>497.1</ele>
      </trkpt>
      <trkpt lat="45.649418" lon="14.894111">
        <ele>497.7</ele>
      </trkpt>
      <trkpt lat="45.649156" lon="14.894383">
        <ele>500.0</ele>
      </trkpt>
      <trkpt lat="45.649156" lon="14.894383">
        <ele>500.0</ele>
      </trkpt>
      <trkpt lat="45.648458" lon="14.895329">
        <ele>497.3</ele>
      </trkpt>
      <trkpt lat="45.648142" lon="14.895429">
        <ele>495.3</ele>
      </trkpt>
      <trkpt lat="45.647934" lon="14.895588">
        <ele>494.2</ele>
      </trkpt>
      <trkpt lat="45.647852" lon="14.895937">
        <ele>494.7</ele>
      </trkpt>
      <trkpt lat="45.647805" lon="14.89631">
        <ele>496.5</ele>
      </trkpt>
      <trkpt lat="45.647477" lon="14.896574">
        <ele>496.3</ele>
      </trkpt>
      <trkpt lat="45.647101" lon="14.896664">
        <ele>495.1</ele>
      </trkpt>
      <trkpt lat="45.647051" lon="14.896733">
        <ele>495.2</ele>
      </trkpt>
      <trkpt lat="45.647045" lon="14.897144">
        <ele>497.4</ele>
      </trkpt>
      <trkpt lat="45.646944" lon="14.897562">
        <ele>498.6</ele>
      </trkpt>
      <trkpt lat="45.64695" lon="14.89756">
        <ele>498.7</ele>
      </trkpt>
      <trkpt lat="45.64694" lon="14.89755">
        <ele>498.6</ele>
      </trkpt>
      <trkpt lat="45.64683" lon="14.89748">
        <ele>497.9</ele>
      </trkpt>
      <trkpt lat="45.64677" lon="14.89745">
        <ele>497.4</ele>
      </trkpt>
      <trkpt lat="45.64671" lon="14.89741">
        <ele>496.8</ele>
      </trkpt>
      <trkpt lat="45.64665" lon="14.89737">
        <ele>496.4</ele>
      </trkpt>
      <trkpt lat="45.64659" lon="14.89732">
        <ele>496.2</ele>
      </trkpt>
      <trkpt lat="45.64654" lon="14.89728">
        <ele>496.1</ele>
      </trkpt>
      <trkpt lat="45.6465" lon="14.89724">
        <ele>495.9</ele>
      </trkpt>
      <trkpt lat="45.64646" lon="14.89718">
        <ele>495.6</ele>
      </trkpt>
      <trkpt lat="45.64643" lon="14.89711">
        <ele>495.3</ele>
      </trkpt>
      <trkpt lat="45.64637" lon="14.89699">
        <ele>494.7</ele>
      </trkpt>
      <trkpt lat="45.64631" lon="14.89681">
        <ele>493.8</ele>
      </trkpt>
      <trkpt lat="45.6463" lon="14.89632">
        <ele>491.1</ele>
      </trkpt>
      <trkpt lat="45.64635" lon="14.89605">
        <ele>489.6</ele>
      </trkpt>
      <trkpt lat="45.6464" lon="14.89597">
        <ele>489.1</ele>
      </trkpt>
      <trkpt lat="45.64645" lon="14.89589">
        <ele>488.6</ele>
      </trkpt>
      <trkpt lat="45.64647" lon="14.89586">
        <ele>488.4</ele>
      </trkpt>
      <trkpt lat="45.64649" lon="14.89583">
        <ele>488.2</ele>
      </trkpt>
      <trkpt lat="45.64652" lon="14.8958">
        <ele>488.1</ele>
      </trkpt>
      <trkpt lat="45.64654" lon="14.89575">
        <ele>487.9</ele>
      </trkpt>
      <trkpt lat="45.64656" lon="14.89568">
        <ele>487.7</ele>
      </trkpt>
      <trkpt lat="45.64658" lon="14.89558">
        <ele>487.4</ele>
      </trkpt>
      <trkpt lat="45.64659" lon="14.89554">
        <ele>487.3</ele>
      </trkpt>
      <trkpt lat="45.64659" lon="14.89551">
        <ele>487.2</ele>
      </trkpt>
      <trkpt lat="45.64659" lon="14.89544">
        <ele>487.1</ele>
      </trkpt>
      <trkpt lat="45.64657" lon="14.89501">
        <ele>485.9</ele>
      </trkpt>
      <trkpt lat="45.64656" lon="14.89478">
        <ele>485.6</ele>
      </trkpt>
      <trkpt lat="45.64656" lon="14.89463">
        <ele>485.4</ele>
      </trkpt>
      <trkpt lat="45.64655" lon="14.89457">
        <ele>485.3</ele>
      </trkpt>
      <trkpt lat="45.64653" lon="14.89453">
        <ele>485.2</ele>
      </trkpt>
      <trkpt lat="45.64652" lon="14.8945">
        <ele>485.1</ele>
      </trkpt>
      <trkpt lat="45.6465" lon="14.89444">
        <ele>485.0</ele>
      </trkpt>
      <trkpt lat="45.64648" lon="14.89441">
        <ele>484.9</ele>
      </trkpt>
      <trkpt lat="45.64645" lon="14.89434">
        <ele>484.7</ele>
      </trkpt>
      <trkpt lat="45.64643" lon="14.89429">
        <ele>484.6</ele>
      </trkpt>
      <trkpt lat="45.64641" lon="14.8942">
        <ele>484.4</ele>
      </trkpt>
      <trkpt lat="45.64639" lon="14.8941">
        <ele>484.3</ele>
      </trkpt>
      <trkpt lat="45.64638" lon="14.89406">
        <ele>484.2</ele>
      </trkpt>
      <trkpt lat="45.64637" lon="14.89401">
        <ele>484.2</ele>
      </trkpt>
      <trkpt lat="45.64636" lon="14.89392">
        <ele>484.1</ele>
      </trkpt>
      <trkpt lat="45.64636" lon="14.89392">
        <ele>484.1</ele>
      </trkpt>
      <trkpt lat="45.64636" lon="14.89384">
        <ele>484.0</ele>
      </trkpt>
      <trkpt lat="45.64635" lon="14.89379">
        <ele>484.0</ele>
      </trkpt>
      <trkpt lat="45.64633" lon="14.89375">
        <ele>483.9</ele>
      </trkpt>
      <trkpt lat="45.64631" lon="14.8937">
        <ele>483.8</ele>
      </trkpt>
      <trkpt lat="45.6463" lon="14.89368">
        <ele>483.8</ele>
      </trkpt>
      <trkpt lat="45.6463" lon="14.89367">
        <ele>483.8</ele>
      </trkpt>
      <trkpt lat="45.64627" lon="14.89363">
        <ele>483.7</ele>
      </trkpt>
      <trkpt lat="45.64623" lon="14.89357">
        <ele>483.6</ele>
      </trkpt>
      <trkpt lat="45.64617" lon="14.8935">
        <ele>483.5</ele>
      </trkpt>
      <trkpt lat="45.64612" lon="14.89344">
        <ele>483.4</ele>
      </trkpt>
      <trkpt lat="45.64602" lon="14.89336">
        <ele>483.2</ele>
      </trkpt>
      <trkpt lat="45.64579" lon="14.89324">
        <ele>482.7</ele>
      </trkpt>
      <trkpt lat="45.64567" lon="14.89317">
        <ele>482.1</ele>
      </trkpt>
      <trkpt lat="45.6456" lon="14.89314">
        <ele>481.7</ele>
      </trkpt>
      <trkpt lat="45.64555" lon="14.8931">
        <ele>481.5</ele>
      </trkpt>
      <trkpt lat="45.64549" lon="14.89305">
        <ele>481.2</ele>
      </trkpt>
      <trkpt lat="45.64544" lon="14.893">
        <ele>480.9</ele>
      </trkpt>
      <trkpt lat="45.64536" lon="14.89294">
        <ele>480.5</ele>
      </trkpt>
      <trkpt lat="45.64533" lon="14.89292">
        <ele>480.4</ele>
      </trkpt>
      <trkpt lat="45.6453" lon="14.8929">
        <ele>480.3</ele>
      </trkpt>
      <trkpt lat="45.64527" lon="14.89286">
        <ele>480.1</ele>
      </trkpt>
      <trkpt lat="45.64525" lon="14.89284">
        <ele>480.0</ele>
      </trkpt>
      <trkpt lat="45.64523" lon="14.8928">
        <ele>479.9</ele>
      </trkpt>
      <trkpt lat="45.6452" lon="14.89275">
        <ele>479.8</ele>
      </trkpt>
      <trkpt lat="45.64517" lon="14.89264">
        <ele>479.6</ele>
      </trkpt>
      <trkpt lat="45.64515" lon="14.89257">
        <ele>479.6</ele>
      </trkpt>
      <trkpt lat="45.64514" lon="14.89251">
        <ele>479.5</ele>
      </trkpt>
      <trkpt lat="45.64508" lon="14.89232">
        <ele>479.0</ele>
      </trkpt>
      <trkpt lat="45.64501" lon="14.89206">
        <ele>478.5</ele>
      </trkpt>
      <trkpt lat="45.64496" lon="14.89193">
        <ele>478.3</ele>
      </trkpt>
      <trkpt lat="45.64495" lon="14.89191">
        <ele>478.3</ele>
      </trkpt>
      <trkpt lat="45.64493" lon="14.8919">
        <ele>478.3</ele>
      </trkpt>
      <trkpt lat="45.64491" lon="14.89189">
        <ele>478.2</ele>
      </trkpt>
      <trkpt lat="45.6449" lon="14.89188">
        <ele>478.2</ele>
      </trkpt>
      <trkpt lat="45.64488" lon="14.89188">
        <ele>478.2</ele>
      </trkpt>
      <trkpt lat="45.64484" lon="14.89187">
        <ele>478.2</ele>
      </trkpt>
      <trkpt lat="45.64462" lon="14.89176">
        <ele>478.1</ele>
      </trkpt>
      <trkpt lat="45.64449" lon="14.89169">
        <ele>478.0</ele>
      </trkpt>
      <trkpt lat="45.64437" lon="14.89161">
        <ele>478.0</ele>
      </trkpt>
      <trkpt lat="45.64427" lon="14.89154">
        <ele>477.9</ele>
      </trkpt>
      <trkpt lat="45.64424" lon="14.8915">
        <ele>477.9</ele>
      </trkpt>
      <trkpt lat="45.64421" lon="14.89142">
        <ele>478.0</ele>
      </trkpt>
      <trkpt lat="45.64418" lon="14.89134">
        <ele>478.0</ele>
      </trkpt>
      <trkpt lat="45.64416" lon="14.89125">
        <ele>478.0</ele>
      </trkpt>
      <trkpt lat="45.64415" lon="14.8912">
        <ele>478.0</ele>
      </trkpt>
      <trkpt lat="45.64415" lon="14.89115">
        <ele>478.0</ele>
      </trkpt>
      <trkpt lat="45.64416" lon="14.89113">
        <ele>478.0</ele>
      </trkpt>
      <trkpt lat="45.64416" lon="14.8911">
        <ele>478.0</ele>
      </trkpt>
      <trkpt lat="45.64416" lon="14.89107">
        <ele>478.0</ele>
      </trkpt>
      <trkpt lat="45.64417" lon="14.89103">
        <ele>478.0</ele>
      </trkpt>
      <trkpt lat="45.64418" lon="14.89099">
        <ele>478.0</ele>
      </trkpt>
      <trkpt lat="45.6442" lon="14.89091">
        <ele>477.9</ele>
      </trkpt>
      <trkpt lat="45.6442" lon="14.89089">
        <ele>477.9</ele>
      </trkpt>
      <trkpt lat="45.6442" lon="14.89086">
        <ele>477.9</ele>
      </trkpt>
      <trkpt lat="45.6442" lon="14.89081">
        <ele>477.9</ele>
      </trkpt>
      <trkpt lat="45.6442" lon="14.89073">
        <ele>477.9</ele>
      </trkpt>
      <trkpt lat="45.64421" lon="14.89065">
        <ele>477.8</ele>
      </trkpt>
      <trkpt lat="45.64423" lon="14.89032">
        <ele>477.7</ele>
      </trkpt>
      <trkpt lat="45.64425" lon="14.89004">
        <ele>477.5</ele>
      </trkpt>
      <trkpt lat="45.64425" lon="14.8898">
        <ele>476.8</ele>
      </trkpt>
      <trkpt lat="45.64425" lon="14.88972">
        <ele>476.6</ele>
      </trkpt>
      <trkpt lat="45.64425" lon="14.88948">
        <ele>475.8</ele>
      </trkpt>
      <trkpt lat="45.64424" lon="14.88921">
        <ele>474.9</ele>
      </trkpt>
      <trkpt lat="45.64422" lon="14.88894">
        <ele>474.3</ele>
      </trkpt>
      <trkpt lat="45.64419" lon="14.8886">
        <ele>473.6</ele>
      </trkpt>
      <trkpt lat="45.64419" lon="14.88854">
        <ele>473.5</ele>
      </trkpt>
      <trkpt lat="45.6442" lon="14.88847">
        <ele>473.3</ele>
      </trkpt>
      <trkpt lat="45.644244" lon="14.888475">
        <ele>473.3</ele>
      </trkpt>
      <trkpt lat="45.6442" lon="14.88847">
        <ele>473.3</ele>
      </trkpt>
      <trkpt lat="45.6442" lon="14.88846">
        <ele>473.3</ele>
      </trkpt>
      <trkpt lat="45.64422" lon="14.88835">
        <ele>473.0</ele>
      </trkpt>
      <trkpt lat="45.64426" lon="14.88812">
        <ele>472.8</ele>
      </trkpt>
      <trkpt lat="45.64431" lon="14.88779">
        <ele>472.6</ele>
      </trkpt>
      <trkpt lat="45.64434" lon="14.88769">
        <ele>472.5</ele>
      </trkpt>
      <trkpt lat="45.64437" lon="14.88761">
        <ele>472.6</ele>
      </trkpt>
      <trkpt lat="45.64441" lon="14.88745">
        <ele>472.7</ele>
      </trkpt>
      <trkpt lat="45.64451" lon="14.8872">
        <ele>473.5</ele>
      </trkpt>
      <trkpt lat="45.64462" lon="14.88691">
        <ele>474.1</ele>
      </trkpt>
      <trkpt lat="45.64466" lon="14.88677">
        <ele>474.3</ele>
      </trkpt>
      <trkpt lat="45.6447" lon="14.88663">
        <ele>474.4</ele>
      </trkpt>
      <trkpt lat="45.64476" lon="14.88639">
        <ele>474.4</ele>
      </trkpt>
      <trkpt lat="45.64494" lon="14.88565">
        <ele>475.6</ele>
      </trkpt>
      <trkpt lat="45.64509" lon="14.88481">
        <ele>477.9</ele>
      </trkpt>
      <trkpt lat="45.64518" lon="14.88445">
        <ele>477.7</ele>
      </trkpt>
      <trkpt lat="45.64526" lon="14.88405">
        <ele>477.7</ele>
      </trkpt>
      <trkpt lat="45.64534" lon="14.88378">
        <ele>477.7</ele>
      </trkpt>
      <trkpt lat="45.64541" lon="14.88349">
        <ele>477.8</ele>
      </trkpt>
      <trkpt lat="45.6454" lon="14.88338">
        <ele>478.0</ele>
      </trkpt>
      <trkpt lat="45.64537" lon="14.88327">
        <ele>478.4</ele>
      </trkpt>
      <trkpt lat="45.64534" lon="14.88324">
        <ele>478.6</ele>
      </trkpt>
      <trkpt lat="45.64522" lon="14.88305">
        <ele>479.6</ele>
      </trkpt>
      <trkpt lat="45.64517" lon="14.88297">
        <ele>480.0</ele>
      </trkpt>
      <trkpt lat="45.64508" lon="14.88277">
        <ele>480.6</ele>
      </trkpt>
      <trkpt lat="45.64507" lon="14.88253">
        <ele>480.7</ele>
      </trkpt>
      <trkpt lat="45.64513" lon="14.88209">
        <ele>481.8</ele>
      </trkpt>
      <trkpt lat="45.64513" lon="14.88209">
        <ele>481.8</ele>
      </trkpt>
      <trkpt lat="45.64526" lon="14.88122">
        <ele>483.8</ele>
      </trkpt>
      <trkpt lat="45.64529" lon="14.88095">
        <ele>484.6</ele>
      </trkpt>
      <trkpt lat="45.6453" lon="14.88082">
        <ele>485.0</ele>
      </trkpt>
      <trkpt lat="45.64531" lon="14.88072">
        <ele>485.4</ele>
      </trkpt>
      <trkpt lat="45.64531" lon="14.88063">
        <ele>485.9</ele>
      </trkpt>
      <trkpt lat="45.64531" lon="14.88051">
        <ele>486.5</ele>
      </trkpt>
      <trkpt lat="45.64531" lon="14.88026">
        <ele>487.7</ele>
      </trkpt>
      <trkpt lat="45.64531" lon="14.88012">
        <ele>488.4</ele>
      </trkpt>
      <trkpt lat="45.64532" lon="14.88003">
        <ele>488.8</ele>
      </trkpt>
      <trkpt lat="45.64537" lon="14.87991">
        <ele>489.4</ele>
      </trkpt>
      <trkpt lat="45.64541" lon="14.87987">
        <ele>489.5</ele>
      </trkpt>
      <trkpt lat="45.64548" lon="14.87977">
        <ele>490.0</ele>
      </trkpt>
      <trkpt lat="45.64549" lon="14.87976">
        <ele>490.0</ele>
      </trkpt>
      <trkpt lat="45.64553" lon="14.8797">
        <ele>490.3</ele>
      </trkpt>
      <trkpt lat="45.64556" lon="14.87965">
        <ele>490.5</ele>
      </trkpt>
      <trkpt lat="45.64558" lon="14.87959">
        <ele>490.8</ele>
      </trkpt>
      <trkpt lat="45.64559" lon="14.87952">
        <ele>491.1</ele>
      </trkpt>
      <trkpt lat="45.64562" lon="14.87946">
        <ele>491.4</ele>
      </trkpt>
      <trkpt lat="45.64565" lon="14.87939">
        <ele>491.8</ele>
      </trkpt>
      <trkpt lat="45.64565" lon="14.87939">
        <ele>491.8</ele>
      </trkpt>
      <trkpt lat="45.6456" lon="14.87932">
        <ele>492.0</ele>
      </trkpt>
      <trkpt lat="45.64548" lon="14.87913">
        <ele>492.6</ele>
      </trkpt>
      <trkpt lat="45.64535" lon="14.87887">
        <ele>492.6</ele>
      </trkpt>
      <trkpt lat="45.64534" lon="14.87884">
        <ele>492.6</ele>
      </trkpt>
      <trkpt lat="45.64525" lon="14.87861">
        <ele>492.5</ele>
      </trkpt>
      <trkpt lat="45.64521" lon="14.87852">
        <ele>492.4</ele>
      </trkpt>
      <trkpt lat="45.64515" lon="14.87812">
        <ele>492.5</ele>
      </trkpt>
      <trkpt lat="45.64515" lon="14.87807">
        <ele>492.6</ele>
      </trkpt>
      <trkpt lat="45.64515" lon="14.87807">
        <ele>492.6</ele>
      </trkpt>
      <trkpt lat="45.64521" lon="14.87807">
        <ele>492.7</ele>
      </trkpt>
      <trkpt lat="45.64524" lon="14.87805">
        <ele>492.7</ele>
      </trkpt>
      <trkpt lat="45.64527" lon="14.87804">
        <ele>492.8</ele>
      </trkpt>
      <trkpt lat="45.64529" lon="14.87802">
        <ele>492.8</ele>
      </trkpt>
      <trkpt lat="45.64537" lon="14.87797">
        <ele>492.9</ele>
      </trkpt>
      <trkpt lat="45.64547" lon="14.8779">
        <ele>493.1</ele>
      </trkpt>
      <trkpt lat="45.64559" lon="14.87775">
        <ele>493.1</ele>
      </trkpt>
      <trkpt lat="45.64559" lon="14.87775">
        <ele>493.1</ele>
      </trkpt>
      <trkpt lat="45.64583" lon="14.87744">
        <ele>492.7</ele>
      </trkpt>
      <trkpt lat="45.64606" lon="14.87707">
        <ele>489.9</ele>
      </trkpt>
      <trkpt lat="45.64606" lon="14.87707">
        <ele>489.9</ele>
      </trkpt>
      <trkpt lat="45.64631" lon="14.87744">
        <ele>489.4</ele>
      </trkpt>
      <trkpt lat="45.64639" lon="14.87753">
        <ele>489.0</ele>
      </trkpt>
      <trkpt lat="45.64645" lon="14.8776">
        <ele>488.5</ele>
      </trkpt>
      <trkpt lat="45.64649" lon="14.87763">
        <ele>488.2</ele>
      </trkpt>
      <trkpt lat="45.64655" lon="14.87766">
        <ele>487.7</ele>
      </trkpt>
      <trkpt lat="45.64661" lon="14.87769">
        <ele>487.2</ele>
      </trkpt>
      <trkpt lat="45.64665" lon="14.87771">
        <ele>486.9</ele>
      </trkpt>
      <trkpt lat="45.64672" lon="14.87775">
        <ele>486.5</ele>
      </trkpt>
      <trkpt lat="45.64679" lon="14.87777">
        <ele>486.2</ele>
      </trkpt>
      <trkpt lat="45.64684" lon="14.87778">
        <ele>486.0</ele>
      </trkpt>
      <trkpt lat="45.64689" lon="14.8778">
        <ele>485.9</ele>
      </trkpt>
      <trkpt lat="45.64696" lon="14.87779">
        <ele>485.6</ele>
      </trkpt>
      <trkpt lat="45.64703" lon="14.87779">
        <ele>485.4</ele>
      </trkpt>
      <trkpt lat="45.647029" lon="14.877781">
        <ele>485.4</ele>
      </trkpt>
      <trkpt lat="45.647029" lon="14.877781">
        <ele>485.4</ele>
      </trkpt>
      <trkpt lat="45.647183" lon="14.875698">
        <ele>485.3</ele>
      </trkpt>
      <trkpt lat="45.64718" lon="14.8757">
        <ele>485.3</ele>
      </trkpt>
      <trkpt lat="45.64711" lon="14.87565">
        <ele>485.0</ele>
      </trkpt>
      <trkpt lat="45.64695" lon="14.87555">
        <ele>484.4</ele>
      </trkpt>
      <trkpt lat="45.64684" lon="14.87548">
        <ele>484.0</ele>
      </trkpt>
      <trkpt lat="45.64651" lon="14.8753">
        <ele>483.1</ele>
      </trkpt>
      <trkpt lat="45.64629" lon="14.87516">
        <ele>482.5</ele>
      </trkpt>
      <trkpt lat="45.64619" lon="14.87501">
        <ele>481.6</ele>
      </trkpt>
      <trkpt lat="45.64613" lon="14.87483">
        <ele>481.1</ele>
      </trkpt>
      <trkpt lat="45.64612" lon="14.87473">
        <ele>480.8</ele>
      </trkpt>
      <trkpt lat="45.64613" lon="14.87467">
        <ele>480.6</ele>
      </trkpt>
      <trkpt lat="45.64615" lon="14.8745">
        <ele>480.0</ele>
      </trkpt>
      <trkpt lat="45.64621" lon="14.87422">
        <ele>478.8</ele>
      </trkpt>
      <trkpt lat="45.64621" lon="14.87422">
        <ele>478.8</ele>
      </trkpt>
      <trkpt lat="45.64589" lon="14.87356">
        <ele>477.8</ele>
      </trkpt>
      <trkpt lat="45.64581" lon="14.87336">
        <ele>477.3</ele>
      </trkpt>
      <trkpt lat="45.64556" lon="14.8727">
        <ele>479.5</ele>
      </trkpt>
      <trkpt lat="45.64538" lon="14.87207">
        <ele>479.7</ele>
      </trkpt>
    </trkseg>
  </trk>
</gpx>
