<?xml version="1.0" encoding="UTF-8"?>
<gpx creator="Garmin Connect" version="1.1"
  xsi:schemaLocation="http://www.topografix.com/GPX/1/1 http://www.topografix.com/GPX/11.xsd"
  xmlns:ns3="http://www.garmin.com/xmlschemas/TrackPointExtension/v1"
  xmlns="http://www.topografix.com/GPX/1/1"
  xmlns:xsi="http://www.w3.org/2001/XMLSchema-instance" xmlns:ns2="http://www.garmin.com/xmlschemas/GpxExtensions/v3">
  <metadata>
    <name>Lahinja trail SHORT</name>
    <link href="connect.garmin.com">
      <text>Garmin Connect</text>
    </link>
    <time>2024-08-12T12:37:44.000Z</time>
  </metadata>
  <trk>
    <name>Lahinja trail SHORT</name>
    <trkseg>
      <trkpt lat="45.52207589149475" lon="15.179489850997925">
        <ele>162.21</ele>
        <time>2024-08-12T12:37:44.000Z</time>
      </trkpt>
      <trkpt lat="45.52207597531378" lon="15.179489850997925">
        <ele>163.25</ele>
        <time>2024-08-12T12:37:44.000Z</time>
      </trkpt>
      <trkpt lat="45.522204637527466" lon="15.179800987243652">
        <ele>161.93</ele>
        <time>2024-08-12T12:37:44.008Z</time>
      </trkpt>
      <trkpt lat="45.52227973937988" lon="15.180026292800903">
        <ele>160.54</ele>
        <time>2024-08-12T12:37:44.022Z</time>
      </trkpt>
      <trkpt lat="45.522440671920776" lon="15.180584192276001">
        <ele>158.81</ele>
        <time>2024-08-12T12:37:44.050Z</time>
      </trkpt>
      <trkpt lat="45.522537315264344" lon="15.180959701538086">
        <ele>157.1</ele>
        <time>2024-08-12T12:37:44.088Z</time>
      </trkpt>
      <trkpt lat="45.52259095944464" lon="15.181195735931396">
        <ele>155.76</ele>
        <time>2024-08-12T12:37:44.132Z</time>
      </trkpt>
      <trkpt lat="45.52281618118286" lon="15.182225704193115">
        <ele>154.41</ele>
        <time>2024-08-12T12:37:44.201Z</time>
      </trkpt>
      <trkpt lat="45.52286982536316" lon="15.182397365570068">
        <ele>153.47</ele>
        <time>2024-08-12T12:37:44.274Z</time>
      </trkpt>
      <trkpt lat="45.523009300231934" lon="15.182729959487915">
        <ele>152.66</ele>
        <time>2024-08-12T12:37:44.356Z</time>
      </trkpt>
      <trkpt lat="45.52290201187134" lon="15.182783603668213">
        <ele>152.22</ele>
        <time>2024-08-12T12:37:44.442Z</time>
      </trkpt>
      <trkpt lat="45.52265524864197" lon="15.182826519012451">
        <ele>152.13</ele>
        <time>2024-08-12T12:37:44.536Z</time>
      </trkpt>
      <trkpt lat="45.52254796028137" lon="15.182815790176392">
        <ele>152.41</ele>
        <time>2024-08-12T12:37:44.634Z</time>
      </trkpt>
      <trkpt lat="45.522451400756836" lon="15.182783603668213">
        <ele>152.89</ele>
        <time>2024-08-12T12:37:44.735Z</time>
      </trkpt>
      <trkpt lat="45.52204370498657" lon="15.18235445022583">
        <ele>153.68</ele>
        <time>2024-08-12T12:37:44.853Z</time>
      </trkpt>
      <trkpt lat="45.52181839942932" lon="15.182161331176758">
        <ele>154.55</ele>
        <time>2024-08-12T12:37:44.980Z</time>
      </trkpt>
      <trkpt lat="45.52162528038025" lon="15.182054042816162">
        <ele>155.41</ele>
        <time>2024-08-12T12:37:45.114Z</time>
      </trkpt>
      <trkpt lat="45.521003007888794" lon="15.18183946609497">
        <ele>156.34</ele>
        <time>2024-08-12T12:37:45.269Z</time>
      </trkpt>
      <trkpt lat="45.52087426185608" lon="15.181764364242554">
        <ele>157.21</ele>
        <time>2024-08-12T12:37:45.429Z</time>
      </trkpt>
      <trkpt lat="45.52079916000366" lon="15.181689262390137">
        <ele>158.04</ele>
        <time>2024-08-12T12:37:45.592Z</time>
      </trkpt>
      <trkpt lat="45.52059531211853" lon="15.181421041488647">
        <ele>158.99</ele>
        <time>2024-08-12T12:37:45.764Z</time>
      </trkpt>
      <trkpt lat="45.518683483824134" lon="15.184571463614702">
        <ele>160.27</ele>
        <time>2024-08-12T12:37:46.034Z</time>
      </trkpt>
      <trkpt lat="45.51812767982483" lon="15.185487270355225">
        <ele>166.8</ele>
        <time>2024-08-12T12:37:46.332Z</time>
      </trkpt>
      <trkpt lat="45.51747330464423" lon="15.186560153961182">
        <ele>168.46</ele>
        <time>2024-08-12T12:37:46.663Z</time>
      </trkpt>
      <trkpt lat="45.517473220825195" lon="15.186560153961182">
        <ele>169.33</ele>
        <time>2024-08-12T12:37:46.994Z</time>
      </trkpt>
      <trkpt lat="45.51754832267761" lon="15.186753273010254">
        <ele>169.72</ele>
        <time>2024-08-12T12:37:47.331Z</time>
      </trkpt>
      <trkpt lat="45.51758050918579" lon="15.186914205551147">
        <ele>169.75</ele>
        <time>2024-08-12T12:37:47.672Z</time>
      </trkpt>
      <trkpt lat="45.51758050918579" lon="15.186989307403564">
        <ele>169.63</ele>
        <time>2024-08-12T12:37:48.014Z</time>
      </trkpt>
      <trkpt lat="45.517516136169434" lon="15.187622308731079">
        <ele>169.13</ele>
        <time>2024-08-12T12:37:48.371Z</time>
      </trkpt>
      <trkpt lat="45.517505407333374" lon="15.187954902648926">
        <ele>168.61</ele>
        <time>2024-08-12T12:37:48.736Z</time>
      </trkpt>
      <trkpt lat="45.51753759384155" lon="15.188373327255249">
        <ele>168.26</ele>
        <time>2024-08-12T12:37:49.111Z</time>
      </trkpt>
      <trkpt lat="45.51760196685791" lon="15.188705921173096">
        <ele>167.99</ele>
        <time>2024-08-12T12:37:49.494Z</time>
      </trkpt>
      <trkpt lat="45.51761269569397" lon="15.188802480697632">
        <ele>167.68</ele>
        <time>2024-08-12T12:37:49.879Z</time>
      </trkpt>
      <trkpt lat="45.51761269569397" lon="15.188909769058228">
        <ele>167.35</ele>
        <time>2024-08-12T12:37:50.267Z</time>
      </trkpt>
      <trkpt lat="45.51759123802185" lon="15.188952684402466">
        <ele>167.02</ele>
        <time>2024-08-12T12:37:50.656Z</time>
      </trkpt>
      <trkpt lat="45.51752686500549" lon="15.189017057418823">
        <ele>166.67</ele>
        <time>2024-08-12T12:37:51.048Z</time>
      </trkpt>
      <trkpt lat="45.51738739013672" lon="15.189070701599121">
        <ele>166.25</ele>
        <time>2024-08-12T12:37:51.445Z</time>
      </trkpt>
      <trkpt lat="45.51677584648132" lon="15.189167261123657">
        <ele>165.89</ele>
        <time>2024-08-12T12:37:51.862Z</time>
      </trkpt>
      <trkpt lat="45.51631450653076" lon="15.189070701599121">
        <ele>164.92</ele>
        <time>2024-08-12T12:37:52.295Z</time>
      </trkpt>
      <trkpt lat="45.51607847213745" lon="15.1891028881073">
        <ele>163.66</ele>
        <time>2024-08-12T12:37:52.736Z</time>
      </trkpt>
      <trkpt lat="45.515981912612915" lon="15.189145803451538">
        <ele>162.43</ele>
        <time>2024-08-12T12:37:53.180Z</time>
      </trkpt>
      <trkpt lat="45.51464080810547" lon="15.19010066986084">
        <ele>160.13</ele>
        <time>2024-08-12T12:37:53.674Z</time>
      </trkpt>
      <trkpt lat="45.51443696022034" lon="15.190218687057495">
        <ele>158.76</ele>
        <time>2024-08-12T12:37:54.175Z</time>
      </trkpt>
      <trkpt lat="45.51443696022034" lon="15.190272331237793">
        <ele>157.37</ele>
        <time>2024-08-12T12:37:54.678Z</time>
      </trkpt>
      <trkpt lat="45.51432967185974" lon="15.190411806106567">
        <ele>156.0</ele>
        <time>2024-08-12T12:37:55.185Z</time>
      </trkpt>
      <trkpt lat="45.514233112335205" lon="15.190497636795044">
        <ele>154.64</ele>
        <time>2024-08-12T12:37:55.696Z</time>
      </trkpt>
      <trkpt lat="45.513235330581665" lon="15.191152095794678">
        <ele>153.06</ele>
        <time>2024-08-12T12:37:56.244Z</time>
      </trkpt>
      <trkpt lat="45.51240921020508" lon="15.191870927810669">
        <ele>151.58</ele>
        <time>2024-08-12T12:37:56.824Z</time>
      </trkpt>
      <trkpt lat="45.51195868290961" lon="15.192375183105469">
        <ele>150.35</ele>
        <time>2024-08-12T12:37:57.423Z</time>
      </trkpt>
      <trkpt lat="45.511958599090576" lon="15.192375183105469">
        <ele>149.31</ele>
        <time>2024-08-12T12:37:58.022Z</time>
      </trkpt>
      <trkpt lat="45.511475801467896" lon="15.193061828613281">
        <ele>148.36</ele>
        <time>2024-08-12T12:37:58.644Z</time>
      </trkpt>
      <trkpt lat="45.51113247871399" lon="15.19359827041626">
        <ele>147.19</ele>
        <time>2024-08-12T12:37:59.283Z</time>
      </trkpt>
      <trkpt lat="45.51107883453369" lon="15.193662643432617">
        <ele>146.58</ele>
        <time>2024-08-12T12:37:59.924Z</time>
      </trkpt>
      <trkpt lat="45.510993003845215" lon="15.193737745285034">
        <ele>146.13</ele>
        <time>2024-08-12T12:38:00.569Z</time>
      </trkpt>
      <trkpt lat="45.51091798581183" lon="15.193727016448975">
        <ele>145.84</ele>
        <time>2024-08-12T12:38:01.216Z</time>
      </trkpt>
      <trkpt lat="45.51044583320618" lon="15.193458795547485">
        <ele>145.78</ele>
        <time>2024-08-12T12:38:01.880Z</time>
      </trkpt>
      <trkpt lat="45.510027492418885" lon="15.193287134170532">
        <ele>145.82</ele>
        <time>2024-08-12T12:38:02.559Z</time>
      </trkpt>
      <trkpt lat="45.50992012023926" lon="15.193201303482056">
        <ele>145.91</ele>
        <time>2024-08-12T12:38:03.242Z</time>
      </trkpt>
      <trkpt lat="45.50978064537048" lon="15.193115472793579">
        <ele>146.05</ele>
        <time>2024-08-12T12:38:03.930Z</time>
      </trkpt>
      <trkpt lat="45.509480237960815" lon="15.193008184432983">
        <ele>146.16</ele>
        <time>2024-08-12T12:38:04.628Z</time>
      </trkpt>
      <trkpt lat="45.509222745895386" lon="15.192975997924805">
        <ele>146.12</ele>
        <time>2024-08-12T12:38:05.335Z</time>
      </trkpt>
      <trkpt lat="45.50906181335449" lon="15.192997455596924">
        <ele>146.17</ele>
        <time>2024-08-12T12:38:06.047Z</time>
      </trkpt>
      <trkpt lat="45.5089008808136" lon="15.193051099777222">
        <ele>146.26</ele>
        <time>2024-08-12T12:38:06.765Z</time>
      </trkpt>
      <trkpt lat="45.50880432128906" lon="15.193115472793579">
        <ele>146.43</ele>
        <time>2024-08-12T12:38:07.486Z</time>
      </trkpt>
      <trkpt lat="45.50862193107605" lon="15.193308591842651">
        <ele>146.65</ele>
        <time>2024-08-12T12:38:08.215Z</time>
      </trkpt>
      <trkpt lat="45.50842881202698" lon="15.193662643432617">
        <ele>147.09</ele>
        <time>2024-08-12T12:38:08.954Z</time>
      </trkpt>
      <trkpt lat="45.508404253050685" lon="15.193696254864335">
        <ele>147.28</ele>
        <time>2024-08-12T12:38:09.694Z</time>
      </trkpt>
      <trkpt lat="45.50840416923165" lon="15.193696422502398">
        <ele>147.41</ele>
        <time>2024-08-12T12:38:10.434Z</time>
      </trkpt>
      <trkpt lat="45.50813913345337" lon="15.194059610366821">
        <ele>146.94</ele>
        <time>2024-08-12T12:38:11.187Z</time>
      </trkpt>
      <trkpt lat="45.50806403160095" lon="15.194209814071655">
        <ele>146.79</ele>
        <time>2024-08-12T12:38:11.944Z</time>
      </trkpt>
      <trkpt lat="45.50804257392883" lon="15.194370746612549">
        <ele>146.74</ele>
        <time>2024-08-12T12:38:12.705Z</time>
      </trkpt>
      <trkpt lat="45.50804257392883" lon="15.194638967514038">
        <ele>146.81</ele>
        <time>2024-08-12T12:38:13.472Z</time>
      </trkpt>
      <trkpt lat="45.508278608322144" lon="15.196473598480225">
        <ele>146.38</ele>
        <time>2024-08-12T12:38:14.283Z</time>
      </trkpt>
      <trkpt lat="45.50836443901062" lon="15.19683837890625">
        <ele>146.33</ele>
        <time>2024-08-12T12:38:15.103Z</time>
      </trkpt>
      <trkpt lat="45.5083429813385" lon="15.19707441329956">
        <ele>146.34</ele>
        <time>2024-08-12T12:38:15.929Z</time>
      </trkpt>
      <trkpt lat="45.508235692977905" lon="15.197396278381348">
        <ele>146.44</ele>
        <time>2024-08-12T12:38:16.763Z</time>
      </trkpt>
      <trkpt lat="45.50820350646973" lon="15.197503566741943">
        <ele>146.76</ele>
        <time>2024-08-12T12:38:17.600Z</time>
      </trkpt>
      <trkpt lat="45.507709980010986" lon="15.198254585266113">
        <ele>147.21</ele>
        <time>2024-08-12T12:38:18.461Z</time>
      </trkpt>
      <trkpt lat="45.50753831863403" lon="15.198490619659424">
        <ele>147.96</ele>
        <time>2024-08-12T12:38:19.330Z</time>
      </trkpt>
      <trkpt lat="45.506486892700195" lon="15.199402570724487">
        <ele>149.9</ele>
        <time>2024-08-12T12:38:20.240Z</time>
      </trkpt>
      <trkpt lat="45.506218671798706" lon="15.19959568977356">
        <ele>151.33</ele>
        <time>2024-08-12T12:38:21.160Z</time>
      </trkpt>
      <trkpt lat="45.50588607788086" lon="15.199810266494751">
        <ele>152.68</ele>
        <time>2024-08-12T12:38:22.092Z</time>
      </trkpt>
      <trkpt lat="45.50588607788086" lon="15.200121402740479">
        <ele>153.83</ele>
        <time>2024-08-12T12:38:23.031Z</time>
      </trkpt>
      <trkpt lat="45.50591826438904" lon="15.200378894805908">
        <ele>155.09</ele>
        <time>2024-08-12T12:38:23.976Z</time>
      </trkpt>
      <trkpt lat="45.505510568618774" lon="15.200690031051636">
        <ele>156.75</ele>
        <time>2024-08-12T12:38:24.937Z</time>
      </trkpt>
      <trkpt lat="45.50544627942145" lon="15.200722217559814">
        <ele>157.97</ele>
        <time>2024-08-12T12:38:25.900Z</time>
      </trkpt>
      <trkpt lat="45.50479173660278" lon="15.201054811477661">
        <ele>159.59</ele>
        <time>2024-08-12T12:38:26.886Z</time>
      </trkpt>
      <trkpt lat="45.50442318432033" lon="15.20130299963057">
        <ele>162.16</ele>
        <time>2024-08-12T12:38:27.886Z</time>
      </trkpt>
      <trkpt lat="45.50442301668227" lon="15.201303167268634">
        <ele>162.17</ele>
        <time>2024-08-12T12:38:28.886Z</time>
      </trkpt>
      <trkpt lat="45.504266023635864" lon="15.201408863067627">
        <ele>162.09</ele>
        <time>2024-08-12T12:38:29.892Z</time>
      </trkpt>
      <trkpt lat="45.50423392094672" lon="15.201451778411865">
        <ele>162.07</ele>
        <time>2024-08-12T12:38:30.899Z</time>
      </trkpt>
      <trkpt lat="45.504233837127686" lon="15.201451778411865">
        <ele>161.99</ele>
        <time>2024-08-12T12:38:31.906Z</time>
      </trkpt>
      <trkpt lat="45.50368666648865" lon="15.201891660690308">
        <ele>162.19</ele>
        <time>2024-08-12T12:38:32.934Z</time>
      </trkpt>
      <trkpt lat="45.50269961357117" lon="15.20283579826355">
        <ele>162.08</ele>
        <time>2024-08-12T12:38:34.002Z</time>
      </trkpt>
      <trkpt lat="45.50259232521057" lon="15.202964544296265">
        <ele>161.87</ele>
        <time>2024-08-12T12:38:35.074Z</time>
      </trkpt>
      <trkpt lat="45.50237774848938" lon="15.203275680541992">
        <ele>161.51</ele>
        <time>2024-08-12T12:38:36.157Z</time>
      </trkpt>
      <trkpt lat="45.502216815948486" lon="15.203608274459839">
        <ele>161.08</ele>
        <time>2024-08-12T12:38:37.249Z</time>
      </trkpt>
      <trkpt lat="45.502034425735474" lon="15.203908681869507">
        <ele>160.53</ele>
        <time>2024-08-12T12:38:38.350Z</time>
      </trkpt>
      <trkpt lat="45.50188422203064" lon="15.204155445098877">
        <ele>160.06</ele>
        <time>2024-08-12T12:38:39.459Z</time>
      </trkpt>
      <trkpt lat="45.50168037414551" lon="15.204434394836426">
        <ele>159.94</ele>
        <time>2024-08-12T12:38:40.577Z</time>
      </trkpt>
      <trkpt lat="45.5014443397522" lon="15.204691886901855">
        <ele>160.12</ele>
        <time>2024-08-12T12:38:41.705Z</time>
      </trkpt>
      <trkpt lat="45.50119766034186" lon="15.204895734786987">
        <ele>160.21</ele>
        <time>2024-08-12T12:38:42.843Z</time>
      </trkpt>
      <trkpt lat="45.50119757652283" lon="15.204895734786987">
        <ele>160.49</ele>
        <time>2024-08-12T12:38:43.981Z</time>
      </trkpt>
      <trkpt lat="45.50069332122803" lon="15.205281972885132">
        <ele>160.75</ele>
        <time>2024-08-12T12:38:45.138Z</time>
      </trkpt>
      <trkpt lat="45.5003821849823" lon="15.205442905426025">
        <ele>161.83</ele>
        <time>2024-08-12T12:38:46.306Z</time>
      </trkpt>
      <trkpt lat="45.499556148424745" lon="15.20606517791748">
        <ele>163.01</ele>
        <time>2024-08-12T12:38:47.505Z</time>
      </trkpt>
      <trkpt lat="45.49955606460571" lon="15.20606517791748">
        <ele>164.32</ele>
        <time>2024-08-12T12:38:48.704Z</time>
      </trkpt>
      <trkpt lat="45.499480962753296" lon="15.206129550933838">
        <ele>166.01</ele>
        <time>2024-08-12T12:38:49.906Z</time>
      </trkpt>
      <trkpt lat="45.499277114868164" lon="15.206397771835327">
        <ele>168.25</ele>
        <time>2024-08-12T12:38:51.117Z</time>
      </trkpt>
      <trkpt lat="45.49879431724548" lon="15.206633806228638">
        <ele>171.63</ele>
        <time>2024-08-12T12:38:52.345Z</time>
      </trkpt>
      <trkpt lat="45.49864411354065" lon="15.206612348556519">
        <ele>174.13</ele>
        <time>2024-08-12T12:38:53.578Z</time>
      </trkpt>
      <trkpt lat="45.49844026565552" lon="15.206537246704102">
        <ele>176.75</ele>
        <time>2024-08-12T12:38:54.818Z</time>
      </trkpt>
      <trkpt lat="45.49816131591797" lon="15.206279754638672">
        <ele>179.17</ele>
        <time>2024-08-12T12:38:56.070Z</time>
      </trkpt>
      <trkpt lat="45.49810767173767" lon="15.206247568130493">
        <ele>181.05</ele>
        <time>2024-08-12T12:38:57.323Z</time>
      </trkpt>
      <trkpt lat="45.497978925704956" lon="15.206258296966553">
        <ele>182.88</ele>
        <time>2024-08-12T12:38:58.581Z</time>
      </trkpt>
      <trkpt lat="45.49791119992733" lon="15.206296350806952">
        <ele>187.55</ele>
        <time>2024-08-12T12:38:59.841Z</time>
      </trkpt>
      <trkpt lat="45.497910948470235" lon="15.206296518445015">
        <ele>187.57</ele>
        <time>2024-08-12T12:39:01.101Z</time>
      </trkpt>
      <trkpt lat="45.497807264328" lon="15.206354856491089">
        <ele>188.36</ele>
        <time>2024-08-12T12:39:02.365Z</time>
      </trkpt>
      <trkpt lat="45.49763560295105" lon="15.206376314163208">
        <ele>189.04</ele>
        <time>2024-08-12T12:39:03.635Z</time>
      </trkpt>
      <trkpt lat="45.49765706062317" lon="15.2065908908844">
        <ele>189.97</ele>
        <time>2024-08-12T12:39:04.910Z</time>
      </trkpt>
      <trkpt lat="45.49764641560614" lon="15.206784009933472">
        <ele>190.79</ele>
        <time>2024-08-12T12:39:06.189Z</time>
      </trkpt>
      <trkpt lat="45.49762495793402" lon="15.206987857818604">
        <ele>191.43</ele>
        <time>2024-08-12T12:39:07.473Z</time>
      </trkpt>
      <trkpt lat="45.49762487411499" lon="15.207417011260986">
        <ele>191.69</ele>
        <time>2024-08-12T12:39:08.767Z</time>
      </trkpt>
      <trkpt lat="45.497764348983765" lon="15.208543539047241">
        <ele>191.16</ele>
        <time>2024-08-12T12:39:10.088Z</time>
      </trkpt>
      <trkpt lat="45.49782872200012" lon="15.208854675292969">
        <ele>190.91</ele>
        <time>2024-08-12T12:39:11.417Z</time>
      </trkpt>
      <trkpt lat="45.4979145526886" lon="15.209026336669922">
        <ele>190.44</ele>
        <time>2024-08-12T12:39:12.751Z</time>
      </trkpt>
      <trkpt lat="45.49794682301581" lon="15.209133625030518">
        <ele>189.87</ele>
        <time>2024-08-12T12:39:14.087Z</time>
      </trkpt>
      <trkpt lat="45.4979681968689" lon="15.209466218948364">
        <ele>189.05</ele>
        <time>2024-08-12T12:39:15.431Z</time>
      </trkpt>
      <trkpt lat="45.498021841049194" lon="15.209637880325317">
        <ele>188.4</ele>
        <time>2024-08-12T12:39:16.780Z</time>
      </trkpt>
      <trkpt lat="45.49834370613098" lon="15.209498405456543">
        <ele>187.88</ele>
        <time>2024-08-12T12:39:18.140Z</time>
      </trkpt>
      <trkpt lat="45.49839735031128" lon="15.209487676620483">
        <ele>186.81</ele>
        <time>2024-08-12T12:39:19.502Z</time>
      </trkpt>
      <trkpt lat="45.49865484237671" lon="15.20957350730896">
        <ele>185.2</ele>
        <time>2024-08-12T12:39:20.872Z</time>
      </trkpt>
      <trkpt lat="45.49874075688422" lon="15.20957350730896">
        <ele>183.79</ele>
        <time>2024-08-12T12:39:22.245Z</time>
      </trkpt>
      <trkpt lat="45.49911618232727" lon="15.209680795669556">
        <ele>181.86</ele>
        <time>2024-08-12T12:39:23.631Z</time>
      </trkpt>
      <trkpt lat="45.49956335686147" lon="15.209900317713618">
        <ele>176.14</ele>
        <time>2024-08-12T12:39:25.033Z</time>
      </trkpt>
      <trkpt lat="45.49956385977566" lon="15.209900569170713">
        <ele>176.14</ele>
        <time>2024-08-12T12:39:26.435Z</time>
      </trkpt>
      <trkpt lat="45.49970626831055" lon="15.209970474243164">
        <ele>176.13</ele>
        <time>2024-08-12T12:39:27.842Z</time>
      </trkpt>
      <trkpt lat="45.499781453981996" lon="15.21008849143982">
        <ele>176.32</ele>
        <time>2024-08-12T12:39:29.253Z</time>
      </trkpt>
      <trkpt lat="45.499781370162964" lon="15.21008849143982">
        <ele>176.53</ele>
        <time>2024-08-12T12:39:30.664Z</time>
      </trkpt>
      <trkpt lat="45.49992084503174" lon="15.21033525466919">
        <ele>177.18</ele>
        <time>2024-08-12T12:39:32.082Z</time>
      </trkpt>
      <trkpt lat="45.500006675720215" lon="15.210431814193726">
        <ele>177.81</ele>
        <time>2024-08-12T12:39:33.504Z</time>
      </trkpt>
      <trkpt lat="45.50031781196594" lon="15.210689306259155">
        <ele>178.27</ele>
        <time>2024-08-12T12:39:34.938Z</time>
      </trkpt>
      <trkpt lat="45.500489473342896" lon="15.210860967636108">
        <ele>178.91</ele>
        <time>2024-08-12T12:39:36.379Z</time>
      </trkpt>
      <trkpt lat="45.50054311752319" lon="15.210925340652466">
        <ele>179.69</ele>
        <time>2024-08-12T12:39:37.822Z</time>
      </trkpt>
      <trkpt lat="45.50057530403137" lon="15.211032629013062">
        <ele>180.74</ele>
        <time>2024-08-12T12:39:39.268Z</time>
      </trkpt>
      <trkpt lat="45.50063967704773" lon="15.21131157875061">
        <ele>181.95</ele>
        <time>2024-08-12T12:39:40.721Z</time>
      </trkpt>
      <trkpt lat="45.50070405006409" lon="15.211730003356934">
        <ele>183.57</ele>
        <time>2024-08-12T12:39:42.184Z</time>
      </trkpt>
      <trkpt lat="45.500779151916504" lon="15.21205186843872">
        <ele>185.57</ele>
        <time>2024-08-12T12:39:43.655Z</time>
      </trkpt>
      <trkpt lat="45.50082206726074" lon="15.212180614471436">
        <ele>187.81</ele>
        <time>2024-08-12T12:39:45.129Z</time>
      </trkpt>
      <trkpt lat="45.500993728637695" lon="15.212502479553223">
        <ele>190.66</ele>
        <time>2024-08-12T12:39:46.612Z</time>
      </trkpt>
      <trkpt lat="45.50112247467041" lon="15.213038921356201">
        <ele>193.93</ele>
        <time>2024-08-12T12:39:48.109Z</time>
      </trkpt>
      <trkpt lat="45.50129413604736" lon="15.213446617126465">
        <ele>197.53</ele>
        <time>2024-08-12T12:39:49.617Z</time>
      </trkpt>
      <trkpt lat="45.50155162811279" lon="15.214154720306396">
        <ele>201.54</ele>
        <time>2024-08-12T12:39:51.144Z</time>
      </trkpt>
      <trkpt lat="45.5017876625061" lon="15.214036703109741">
        <ele>204.81</ele>
        <time>2024-08-12T12:39:52.679Z</time>
      </trkpt>
      <trkpt lat="45.50206661224365" lon="15.21381139755249">
        <ele>207.35</ele>
        <time>2024-08-12T12:39:54.225Z</time>
      </trkpt>
      <trkpt lat="45.502270460128784" lon="15.213747024536133">
        <ele>209.4</ele>
        <time>2024-08-12T12:39:55.778Z</time>
      </trkpt>
      <trkpt lat="45.502302730455995" lon="15.213704109191895">
        <ele>210.81</ele>
        <time>2024-08-12T12:39:57.332Z</time>
      </trkpt>
      <trkpt lat="45.50230264663696" lon="15.213704109191895">
        <ele>211.81</ele>
        <time>2024-08-12T12:39:58.886Z</time>
      </trkpt>
      <trkpt lat="45.50232410430908" lon="15.213650465011597">
        <ele>212.35</ele>
        <time>2024-08-12T12:40:00.441Z</time>
      </trkpt>
      <trkpt lat="45.50233483314514" lon="15.213457345962524">
        <ele>212.37</ele>
        <time>2024-08-12T12:40:02.001Z</time>
      </trkpt>
      <trkpt lat="45.5023455619812" lon="15.213382244110107">
        <ele>212.24</ele>
        <time>2024-08-12T12:40:03.563Z</time>
      </trkpt>
      <trkpt lat="45.502506494522095" lon="15.212953090667725">
        <ele>211.79</ele>
        <time>2024-08-12T12:40:05.136Z</time>
      </trkpt>
      <trkpt lat="45.50284001044929" lon="15.212257308885455">
        <ele>208.64</ele>
        <time>2024-08-12T12:40:06.729Z</time>
      </trkpt>
      <trkpt lat="45.50283984281123" lon="15.212257811799645">
        <ele>208.64</ele>
        <time>2024-08-12T12:40:08.322Z</time>
      </trkpt>
      <trkpt lat="45.50288200378418" lon="15.212169885635376">
        <ele>208.19</ele>
        <time>2024-08-12T12:40:09.917Z</time>
      </trkpt>
      <trkpt lat="45.502967834472656" lon="15.212019681930542">
        <ele>207.65</ele>
        <time>2024-08-12T12:40:11.517Z</time>
      </trkpt>
      <trkpt lat="45.50304293632507" lon="15.211923122406006">
        <ele>207.02</ele>
        <time>2024-08-12T12:40:13.120Z</time>
      </trkpt>
      <trkpt lat="45.503236055374146" lon="15.211730003356934">
        <ele>205.95</ele>
        <time>2024-08-12T12:40:14.731Z</time>
      </trkpt>
      <trkpt lat="45.50359010696411" lon="15.21133303642273">
        <ele>204.76</ele>
        <time>2024-08-12T12:40:16.357Z</time>
      </trkpt>
      <trkpt lat="45.503740310668945" lon="15.211215019226074">
        <ele>203.42</ele>
        <time>2024-08-12T12:40:17.989Z</time>
      </trkpt>
      <trkpt lat="45.50414800643921" lon="15.210978984832764">
        <ele>201.92</ele>
        <time>2024-08-12T12:40:19.636Z</time>
      </trkpt>
      <trkpt lat="45.504233837127686" lon="15.210882425308228">
        <ele>200.32</ele>
        <time>2024-08-12T12:40:21.286Z</time>
      </trkpt>
      <trkpt lat="45.50429821014404" lon="15.210785865783691">
        <ele>198.59</ele>
        <time>2024-08-12T12:40:22.939Z</time>
      </trkpt>
      <trkpt lat="45.50442695617676" lon="15.2105712890625">
        <ele>196.58</ele>
        <time>2024-08-12T12:40:24.599Z</time>
      </trkpt>
      <trkpt lat="45.504512786865234" lon="15.210378170013428">
        <ele>194.59</ele>
        <time>2024-08-12T12:40:26.264Z</time>
      </trkpt>
      <trkpt lat="45.50470590591431" lon="15.209798812866211">
        <ele>192.45</ele>
        <time>2024-08-12T12:40:27.944Z</time>
      </trkpt>
      <trkpt lat="45.50487756729126" lon="15.2090585231781">
        <ele>190.12</ele>
        <time>2024-08-12T12:40:29.643Z</time>
      </trkpt>
      <trkpt lat="45.50494194030762" lon="15.208897590637207">
        <ele>188.51</ele>
        <time>2024-08-12T12:40:31.346Z</time>
      </trkpt>
      <trkpt lat="45.50507068634033" lon="15.208683013916016">
        <ele>187.22</ele>
        <time>2024-08-12T12:40:33.056Z</time>
      </trkpt>
      <trkpt lat="45.50514578819275" lon="15.208597183227539">
        <ele>186.23</ele>
        <time>2024-08-12T12:40:34.769Z</time>
      </trkpt>
      <trkpt lat="45.505231618881226" lon="15.208543539047241">
        <ele>185.54</ele>
        <time>2024-08-12T12:40:36.485Z</time>
      </trkpt>
      <trkpt lat="45.50565004348755" lon="15.208425521850586">
        <ele>184.79</ele>
        <time>2024-08-12T12:40:38.215Z</time>
      </trkpt>
      <trkpt lat="45.50583243370056" lon="15.208350419998169">
        <ele>184.08</ele>
        <time>2024-08-12T12:40:39.952Z</time>
      </trkpt>
      <trkpt lat="45.50618648529053" lon="15.208286046981812">
        <ele>183.48</ele>
        <time>2024-08-12T12:40:41.700Z</time>
      </trkpt>
      <trkpt lat="45.50628304481506" lon="15.208168029785156">
        <ele>183.01</ele>
        <time>2024-08-12T12:40:43.453Z</time>
      </trkpt>
      <trkpt lat="45.50639033317566" lon="15.207974910736084">
        <ele>182.31</ele>
        <time>2024-08-12T12:40:45.211Z</time>
      </trkpt>
      <trkpt lat="45.50687313079834" lon="15.20706295967102">
        <ele>181.54</ele>
        <time>2024-08-12T12:40:46.996Z</time>
      </trkpt>
      <trkpt lat="45.50698050297797" lon="15.206923484802246">
        <ele>181.38</ele>
        <time>2024-08-12T12:40:48.786Z</time>
      </trkpt>
      <trkpt lat="45.506980419158936" lon="15.206923484802246">
        <ele>181.22</ele>
        <time>2024-08-12T12:40:50.576Z</time>
      </trkpt>
      <trkpt lat="45.50711997784674" lon="15.206859111785889">
        <ele>181.2</ele>
        <time>2024-08-12T12:40:52.371Z</time>
      </trkpt>
      <trkpt lat="45.50718426704407" lon="15.206859111785889">
        <ele>181.14</ele>
        <time>2024-08-12T12:40:54.168Z</time>
      </trkpt>
      <trkpt lat="45.50736674107611" lon="15.206944942474365">
        <ele>181.23</ele>
        <time>2024-08-12T12:40:55.972Z</time>
      </trkpt>
      <trkpt lat="45.50735592842102" lon="15.206751823425293">
        <ele>180.97</ele>
        <time>2024-08-12T12:40:57.780Z</time>
      </trkpt>
      <trkpt lat="45.50735592842102" lon="15.206172466278076">
        <ele>180.42</ele>
        <time>2024-08-12T12:40:59.602Z</time>
      </trkpt>
      <trkpt lat="45.50739884376526" lon="15.205732583999634">
        <ele>179.98</ele>
        <time>2024-08-12T12:41:01.434Z</time>
      </trkpt>
      <trkpt lat="45.50740957260132" lon="15.205539464950562">
        <ele>179.27</ele>
        <time>2024-08-12T12:41:03.271Z</time>
      </trkpt>
      <trkpt lat="45.5073881149292" lon="15.205442905426025">
        <ele>178.26</ele>
        <time>2024-08-12T12:41:05.110Z</time>
      </trkpt>
      <trkpt lat="45.507248640060425" lon="15.20508885383606">
        <ele>176.78</ele>
        <time>2024-08-12T12:41:06.959Z</time>
      </trkpt>
      <trkpt lat="45.507216453552246" lon="15.204960107803345">
        <ele>175.26</ele>
        <time>2024-08-12T12:41:08.811Z</time>
      </trkpt>
      <trkpt lat="45.50714135169983" lon="15.20459532737732">
        <ele>173.2</ele>
        <time>2024-08-12T12:41:10.672Z</time>
      </trkpt>
      <trkpt lat="45.50714135169983" lon="15.204412937164307">
        <ele>171.36</ele>
        <time>2024-08-12T12:41:12.537Z</time>
      </trkpt>
      <trkpt lat="45.507216453552246" lon="15.203608274459839">
        <ele>168.96</ele>
        <time>2024-08-12T12:41:14.421Z</time>
      </trkpt>
      <trkpt lat="45.507227182388306" lon="15.203533172607422">
        <ele>166.96</ele>
        <time>2024-08-12T12:41:16.307Z</time>
      </trkpt>
      <trkpt lat="45.5073344707489" lon="15.203307867050171">
        <ele>164.96</ele>
        <time>2024-08-12T12:41:18.199Z</time>
      </trkpt>
      <trkpt lat="45.50739884376526" lon="15.202975273132324">
        <ele>162.57</ele>
        <time>2024-08-12T12:41:20.099Z</time>
      </trkpt>
      <trkpt lat="45.50745248794556" lon="15.20256757736206">
        <ele>160.27</ele>
        <time>2024-08-12T12:41:22.009Z</time>
      </trkpt>
      <trkpt lat="45.50742030143738" lon="15.202460289001465">
        <ele>158.42</ele>
        <time>2024-08-12T12:41:23.922Z</time>
      </trkpt>
      <trkpt lat="45.507463216781616" lon="15.202267169952393">
        <ele>156.94</ele>
        <time>2024-08-12T12:41:25.839Z</time>
      </trkpt>
      <trkpt lat="45.507549131289124" lon="15.202041864395142">
        <ele>155.72</ele>
        <time>2024-08-12T12:41:27.762Z</time>
      </trkpt>
      <trkpt lat="45.50758123397827" lon="15.201956033706665">
        <ele>154.66</ele>
        <time>2024-08-12T12:41:29.688Z</time>
      </trkpt>
      <trkpt lat="45.5075813177973" lon="15.201956033706665">
        <ele>153.83</ele>
        <time>2024-08-12T12:41:31.614Z</time>
      </trkpt>
      <trkpt lat="45.50763487815857" lon="15.20183801651001">
        <ele>153.19</ele>
        <time>2024-08-12T12:41:33.543Z</time>
      </trkpt>
      <trkpt lat="45.50771006383002" lon="15.201741456985474">
        <ele>152.68</ele>
        <time>2024-08-12T12:41:35.475Z</time>
      </trkpt>
      <trkpt lat="45.50780461169779" lon="15.201599467545748">
        <ele>152.5</ele>
        <time>2024-08-12T12:41:37.412Z</time>
      </trkpt>
      <trkpt lat="45.50780486315489" lon="15.201599132269621">
        <ele>152.5</ele>
        <time>2024-08-12T12:41:39.349Z</time>
      </trkpt>
      <trkpt lat="45.50788164138794" lon="15.201483964920044">
        <ele>152.73</ele>
        <time>2024-08-12T12:41:41.290Z</time>
      </trkpt>
      <trkpt lat="45.507988929748535" lon="15.201269388198853">
        <ele>152.86</ele>
        <time>2024-08-12T12:41:43.237Z</time>
      </trkpt>
      <trkpt lat="45.50819277763367" lon="15.20108699798584">
        <ele>153.3</ele>
        <time>2024-08-12T12:41:45.192Z</time>
      </trkpt>
      <trkpt lat="45.50836443901062" lon="15.200668573379517">
        <ele>153.35</ele>
        <time>2024-08-12T12:41:47.158Z</time>
      </trkpt>
      <trkpt lat="45.508482456207275" lon="15.200496912002563">
        <ele>153.87</ele>
        <time>2024-08-12T12:41:49.130Z</time>
      </trkpt>
      <trkpt lat="45.50863274373114" lon="15.200443267822266">
        <ele>154.81</ele>
        <time>2024-08-12T12:41:51.107Z</time>
      </trkpt>
      <trkpt lat="45.508761405944824" lon="15.200271606445312">
        <ele>155.88</ele>
        <time>2024-08-12T12:41:53.090Z</time>
      </trkpt>
      <trkpt lat="45.5089545249939" lon="15.200057029724121">
        <ele>156.87</ele>
        <time>2024-08-12T12:41:55.081Z</time>
      </trkpt>
      <trkpt lat="45.509061897173524" lon="15.199981927871704">
        <ele>158.07</ele>
        <time>2024-08-12T12:41:57.076Z</time>
      </trkpt>
      <trkpt lat="45.50965189933777" lon="15.199552774429321">
        <ele>160.12</ele>
        <time>2024-08-12T12:41:59.093Z</time>
      </trkpt>
      <trkpt lat="45.51017761230469" lon="15.199381113052368">
        <ele>161.62</ele>
        <time>2024-08-12T12:42:01.128Z</time>
      </trkpt>
      <trkpt lat="45.51044583320618" lon="15.199402570724487">
        <ele>162.95</ele>
        <time>2024-08-12T12:42:03.172Z</time>
      </trkpt>
      <trkpt lat="45.51078915596008" lon="15.199381113052368">
        <ele>163.92</ele>
        <time>2024-08-12T12:42:05.228Z</time>
      </trkpt>
      <trkpt lat="45.510960817337036" lon="15.199413299560547">
        <ele>165.05</ele>
        <time>2024-08-12T12:42:07.289Z</time>
      </trkpt>
      <trkpt lat="45.51114320755005" lon="15.199424028396606">
        <ele>166.12</ele>
        <time>2024-08-12T12:42:09.356Z</time>
      </trkpt>
      <trkpt lat="45.511271953582764" lon="15.199391841888428">
        <ele>167.02</ele>
        <time>2024-08-12T12:42:11.428Z</time>
      </trkpt>
      <trkpt lat="45.5114221572876" lon="15.19957423210144">
        <ele>168.23</ele>
        <time>2024-08-12T12:42:13.506Z</time>
      </trkpt>
      <trkpt lat="45.51161527633667" lon="15.199702978134155">
        <ele>169.22</ele>
        <time>2024-08-12T12:42:15.591Z</time>
      </trkpt>
      <trkpt lat="45.511722564697266" lon="15.199874639511108">
        <ele>170.02</ele>
        <time>2024-08-12T12:42:17.682Z</time>
      </trkpt>
      <trkpt lat="45.5117226485163" lon="15.199874639511108">
        <ele>170.64</ele>
        <time>2024-08-12T12:42:19.773Z</time>
      </trkpt>
      <trkpt lat="45.51189422607422" lon="15.20007848739624">
        <ele>171.09</ele>
        <time>2024-08-12T12:42:21.871Z</time>
      </trkpt>
      <trkpt lat="45.51219463348389" lon="15.20060420036316">
        <ele>171.78</ele>
        <time>2024-08-12T12:42:23.985Z</time>
      </trkpt>
      <trkpt lat="45.5123770236969" lon="15.200872421264648">
        <ele>172.0</ele>
        <time>2024-08-12T12:42:26.108Z</time>
      </trkpt>
      <trkpt lat="45.51266670227051" lon="15.201044082641602">
        <ele>171.4</ele>
        <time>2024-08-12T12:42:28.241Z</time>
      </trkpt>
      <trkpt lat="45.512988567352295" lon="15.201129913330078">
        <ele>170.24</ele>
        <time>2024-08-12T12:42:30.385Z</time>
      </trkpt>
      <trkpt lat="45.51332116127014" lon="15.201290845870972">
        <ele>169.25</ele>
        <time>2024-08-12T12:42:32.541Z</time>
      </trkpt>
      <trkpt lat="45.51367521286011" lon="15.20159125328064">
        <ele>168.74</ele>
        <time>2024-08-12T12:42:34.711Z</time>
      </trkpt>
      <trkpt lat="45.51410436630249" lon="15.201891660690308">
        <ele>167.9</ele>
        <time>2024-08-12T12:42:36.897Z</time>
      </trkpt>
      <trkpt lat="45.51429748535156" lon="15.20184874534607">
        <ele>166.57</ele>
        <time>2024-08-12T12:42:39.089Z</time>
      </trkpt>
      <trkpt lat="45.51438298076391" lon="15.201812032610178">
        <ele>164.07</ele>
        <time>2024-08-12T12:42:41.284Z</time>
      </trkpt>
      <trkpt lat="45.514383567497134" lon="15.201811864972115">
        <ele>164.06</ele>
        <time>2024-08-12T12:42:43.479Z</time>
      </trkpt>
      <trkpt lat="45.5144476890564" lon="15.201784372329712">
        <ele>164.12</ele>
        <time>2024-08-12T12:42:45.677Z</time>
      </trkpt>
      <trkpt lat="45.51459789276123" lon="15.201677083969116">
        <ele>164.19</ele>
        <time>2024-08-12T12:42:47.880Z</time>
      </trkpt>
      <trkpt lat="45.51481246948242" lon="15.20158052444458">
        <ele>164.68</ele>
        <time>2024-08-12T12:42:50.091Z</time>
      </trkpt>
      <trkpt lat="45.51493048667908" lon="15.201408863067627">
        <ele>165.02</ele>
        <time>2024-08-12T12:42:52.307Z</time>
      </trkpt>
      <trkpt lat="45.51509141921997" lon="15.201237201690674">
        <ele>165.35</ele>
        <time>2024-08-12T12:42:54.530Z</time>
      </trkpt>
      <trkpt lat="45.515252351760864" lon="15.201140642166138">
        <ele>165.67</ele>
        <time>2024-08-12T12:42:56.759Z</time>
      </trkpt>
      <trkpt lat="45.51554203033447" lon="15.200915336608887">
        <ele>165.89</ele>
        <time>2024-08-12T12:42:58.999Z</time>
      </trkpt>
      <trkpt lat="45.51564931869507" lon="15.200765132904053">
        <ele>165.85</ele>
        <time>2024-08-12T12:43:01.244Z</time>
      </trkpt>
      <trkpt lat="45.515992641448975" lon="15.200690031051636">
        <ele>166.06</ele>
        <time>2024-08-12T12:43:03.500Z</time>
      </trkpt>
      <trkpt lat="45.516260862350464" lon="15.200679302215576">
        <ele>165.65</ele>
        <time>2024-08-12T12:43:05.765Z</time>
      </trkpt>
      <trkpt lat="45.51634669303894" lon="15.200625658035278">
        <ele>164.83</ele>
        <time>2024-08-12T12:43:08.033Z</time>
      </trkpt>
      <trkpt lat="45.51637887954712" lon="15.200550556182861">
        <ele>163.74</ele>
        <time>2024-08-12T12:43:10.304Z</time>
      </trkpt>
      <trkpt lat="45.51653981208801" lon="15.200443267822266">
        <ele>162.22</ele>
        <time>2024-08-12T12:43:12.580Z</time>
      </trkpt>
      <trkpt lat="45.51693686284125" lon="15.200250148773193">
        <ele>159.91</ele>
        <time>2024-08-12T12:43:14.870Z</time>
      </trkpt>
      <trkpt lat="45.517022693529725" lon="15.200217962265015">
        <ele>158.15</ele>
        <time>2024-08-12T12:43:17.163Z</time>
      </trkpt>
      <trkpt lat="45.51711916923523" lon="15.200164318084717">
        <ele>156.32</ele>
        <time>2024-08-12T12:43:19.460Z</time>
      </trkpt>
      <trkpt lat="45.5173659324646" lon="15.200035572052002">
        <ele>154.2</ele>
        <time>2024-08-12T12:43:21.766Z</time>
      </trkpt>
      <trkpt lat="45.51739811897278" lon="15.199939012527466">
        <ele>152.54</ele>
        <time>2024-08-12T12:43:24.074Z</time>
      </trkpt>
      <trkpt lat="45.51779508590698" lon="15.199284553527832">
        <ele>151.08</ele>
        <time>2024-08-12T12:43:26.402Z</time>
      </trkpt>
      <trkpt lat="45.51778435707092" lon="15.199209451675415">
        <ele>149.95</ele>
        <time>2024-08-12T12:43:28.732Z</time>
      </trkpt>
      <trkpt lat="45.517762899398804" lon="15.199048519134521">
        <ele>149.04</ele>
        <time>2024-08-12T12:43:31.066Z</time>
      </trkpt>
      <trkpt lat="45.51782727241516" lon="15.198715925216675">
        <ele>148.37</ele>
        <time>2024-08-12T12:43:33.408Z</time>
      </trkpt>
      <trkpt lat="45.51780581474304" lon="15.19858717918396">
        <ele>148.11</ele>
        <time>2024-08-12T12:43:35.753Z</time>
      </trkpt>
      <trkpt lat="45.517762899398804" lon="15.198522806167603">
        <ele>148.17</ele>
        <time>2024-08-12T12:43:38.100Z</time>
      </trkpt>
      <trkpt lat="45.517730712890625" lon="15.198383331298828">
        <ele>148.58</ele>
        <time>2024-08-12T12:43:40.451Z</time>
      </trkpt>
      <trkpt lat="45.51756978034973" lon="15.197610855102539">
        <ele>149.66</ele>
        <time>2024-08-12T12:43:42.821Z</time>
      </trkpt>
      <trkpt lat="45.51753759384155" lon="15.19735336303711">
        <ele>150.04</ele>
        <time>2024-08-12T12:43:45.197Z</time>
      </trkpt>
      <trkpt lat="45.517505407333374" lon="15.197246074676514">
        <ele>150.59</ele>
        <time>2024-08-12T12:43:47.575Z</time>
      </trkpt>
      <trkpt lat="45.517437513917685" lon="15.197093775495887">
        <ele>156.85</ele>
        <time>2024-08-12T12:43:49.958Z</time>
      </trkpt>
      <trkpt lat="45.51715135574341" lon="15.196452140808105">
        <ele>157.57</ele>
        <time>2024-08-12T12:43:52.359Z</time>
      </trkpt>
      <trkpt lat="45.51703333854675" lon="15.196022987365723">
        <ele>158.39</ele>
        <time>2024-08-12T12:43:54.770Z</time>
      </trkpt>
      <trkpt lat="45.51681876182556" lon="15.195432901382446">
        <ele>158.82</ele>
        <time>2024-08-12T12:43:57.197Z</time>
      </trkpt>
      <trkpt lat="45.516754388809204" lon="15.195196866989136">
        <ele>159.04</ele>
        <time>2024-08-12T12:43:59.630Z</time>
      </trkpt>
      <trkpt lat="45.516754472628236" lon="15.195196866989136">
        <ele>158.97</ele>
        <time>2024-08-12T12:44:02.063Z</time>
      </trkpt>
      <trkpt lat="45.516743659973145" lon="15.195143222808838">
        <ele>158.74</ele>
        <time>2024-08-12T12:44:04.497Z</time>
      </trkpt>
      <trkpt lat="45.51684030331671" lon="15.19485354423523">
        <ele>158.11</ele>
        <time>2024-08-12T12:44:06.939Z</time>
      </trkpt>
      <trkpt lat="45.51687240600586" lon="15.194714069366455">
        <ele>157.72</ele>
        <time>2024-08-12T12:44:09.384Z</time>
      </trkpt>
      <trkpt lat="45.517001235857606" lon="15.194295644760132">
        <ele>157.21</ele>
        <time>2024-08-12T12:44:11.840Z</time>
      </trkpt>
      <trkpt lat="45.51708698272705" lon="15.19411325454712">
        <ele>157.44</ele>
        <time>2024-08-12T12:44:14.301Z</time>
      </trkpt>
      <trkpt lat="45.51718362607062" lon="15.193769931793213">
        <ele>158.19</ele>
        <time>2024-08-12T12:44:16.771Z</time>
      </trkpt>
      <trkpt lat="45.517204999923706" lon="15.193512439727783">
        <ele>159.3</ele>
        <time>2024-08-12T12:44:19.247Z</time>
      </trkpt>
      <trkpt lat="45.5173122882843" lon="15.192407369613647">
        <ele>161.04</ele>
        <time>2024-08-12T12:44:21.749Z</time>
      </trkpt>
      <trkpt lat="45.51730155944824" lon="15.19182801246643">
        <ele>163.14</ele>
        <time>2024-08-12T12:44:24.264Z</time>
      </trkpt>
      <trkpt lat="45.51735520362854" lon="15.191624164581299">
        <ele>164.64</ele>
        <time>2024-08-12T12:44:26.785Z</time>
      </trkpt>
      <trkpt lat="45.51745184697211" lon="15.19133448600769">
        <ele>166.17</ele>
        <time>2024-08-12T12:44:29.313Z</time>
      </trkpt>
      <trkpt lat="45.51755905151367" lon="15.190916061401367">
        <ele>167.4</ele>
        <time>2024-08-12T12:44:31.851Z</time>
      </trkpt>
      <trkpt lat="45.51756978034973" lon="15.190755128860474">
        <ele>168.26</ele>
        <time>2024-08-12T12:44:34.393Z</time>
      </trkpt>
      <trkpt lat="45.51756978034973" lon="15.190551280975342">
        <ele>168.96</ele>
        <time>2024-08-12T12:44:36.940Z</time>
      </trkpt>
      <trkpt lat="45.517553854733706" lon="15.19042362459004">
        <ele>169.46</ele>
        <time>2024-08-12T12:44:39.490Z</time>
      </trkpt>
      <trkpt lat="45.517505407333374" lon="15.190036296844482">
        <ele>167.64</ele>
        <time>2024-08-12T12:44:42.049Z</time>
      </trkpt>
      <trkpt lat="45.517483949661255" lon="15.189682245254517">
        <ele>166.96</ele>
        <time>2024-08-12T12:44:44.617Z</time>
      </trkpt>
      <trkpt lat="45.517494678497314" lon="15.189242362976074">
        <ele>166.41</ele>
        <time>2024-08-12T12:44:47.195Z</time>
      </trkpt>
      <trkpt lat="45.51752686500549" lon="15.189017057418823">
        <ele>166.13</ele>
        <time>2024-08-12T12:44:49.778Z</time>
      </trkpt>
      <trkpt lat="45.51759123802185" lon="15.188952684402466">
        <ele>165.86</ele>
        <time>2024-08-12T12:44:52.364Z</time>
      </trkpt>
      <trkpt lat="45.51761269569397" lon="15.188909769058228">
        <ele>165.75</ele>
        <time>2024-08-12T12:44:54.951Z</time>
      </trkpt>
      <trkpt lat="45.51761269569397" lon="15.188802480697632">
        <ele>165.83</ele>
        <time>2024-08-12T12:44:57.541Z</time>
      </trkpt>
      <trkpt lat="45.51760196685791" lon="15.188705921173096">
        <ele>166.04</ele>
        <time>2024-08-12T12:45:00.133Z</time>
      </trkpt>
      <trkpt lat="45.51753759384155" lon="15.188373327255249">
        <ele>166.31</ele>
        <time>2024-08-12T12:45:02.733Z</time>
      </trkpt>
      <trkpt lat="45.517505407333374" lon="15.187954902648926">
        <ele>166.73</ele>
        <time>2024-08-12T12:45:05.343Z</time>
      </trkpt>
      <trkpt lat="45.517516136169434" lon="15.187622308731079">
        <ele>167.46</ele>
        <time>2024-08-12T12:45:07.961Z</time>
      </trkpt>
      <trkpt lat="45.51758050918579" lon="15.186989307403564">
        <ele>168.26</ele>
        <time>2024-08-12T12:45:10.594Z</time>
      </trkpt>
      <trkpt lat="45.51758050918579" lon="15.186914205551147">
        <ele>168.67</ele>
        <time>2024-08-12T12:45:13.229Z</time>
      </trkpt>
      <trkpt lat="45.51754832267761" lon="15.186753273010254">
        <ele>168.87</ele>
        <time>2024-08-12T12:45:15.867Z</time>
      </trkpt>
      <trkpt lat="45.517473220825195" lon="15.186560153961182">
        <ele>168.58</ele>
        <time>2024-08-12T12:45:18.511Z</time>
      </trkpt>
      <trkpt lat="45.51812767982483" lon="15.185487270355225">
        <ele>165.3</ele>
        <time>2024-08-12T12:45:21.188Z</time>
      </trkpt>
      <trkpt lat="45.52012919448316" lon="15.182189159095287">
        <ele>161.92</ele>
        <time>2024-08-12T12:45:23.967Z</time>
      </trkpt>
      <trkpt lat="45.52059539593756" lon="15.181421041488647">
        <ele>157.86</ele>
        <time>2024-08-12T12:45:26.770Z</time>
      </trkpt>
      <trkpt lat="45.52079916000366" lon="15.181689262390137">
        <ele>157.56</ele>
        <time>2024-08-12T12:45:29.582Z</time>
      </trkpt>
      <trkpt lat="45.52087426185608" lon="15.181764364242554">
        <ele>157.09</ele>
        <time>2024-08-12T12:45:32.397Z</time>
      </trkpt>
      <trkpt lat="45.521003007888794" lon="15.18183946609497">
        <ele>156.41</ele>
        <time>2024-08-12T12:45:35.217Z</time>
      </trkpt>
      <trkpt lat="45.52162528038025" lon="15.182054042816162">
        <ele>155.58</ele>
        <time>2024-08-12T12:45:38.058Z</time>
      </trkpt>
      <trkpt lat="45.52181839942932" lon="15.182161331176758">
        <ele>154.76</ele>
        <time>2024-08-12T12:45:40.906Z</time>
      </trkpt>
      <trkpt lat="45.52204370498657" lon="15.18235445022583">
        <ele>153.89</ele>
        <time>2024-08-12T12:45:43.763Z</time>
      </trkpt>
      <trkpt lat="45.522451400756836" lon="15.182783603668213">
        <ele>153.09</ele>
        <time>2024-08-12T12:45:46.637Z</time>
      </trkpt>
      <trkpt lat="45.52254796028137" lon="15.182815790176392">
        <ele>152.6</ele>
        <time>2024-08-12T12:45:49.514Z</time>
      </trkpt>
      <trkpt lat="45.52265524864197" lon="15.182826519012451">
        <ele>152.29</ele>
        <time>2024-08-12T12:45:52.395Z</time>
      </trkpt>
      <trkpt lat="45.52290201187134" lon="15.182783603668213">
        <ele>152.36</ele>
        <time>2024-08-12T12:45:55.284Z</time>
      </trkpt>
      <trkpt lat="45.523009384050965" lon="15.182729959487915">
        <ele>152.77</ele>
        <time>2024-08-12T12:45:58.177Z</time>
      </trkpt>
      <trkpt lat="45.52286982536316" lon="15.182397365570068">
        <ele>153.55</ele>
        <time>2024-08-12T12:46:01.079Z</time>
      </trkpt>
      <trkpt lat="45.52281618118286" lon="15.182225704193115">
        <ele>154.47</ele>
        <time>2024-08-12T12:46:03.985Z</time>
      </trkpt>
      <trkpt lat="45.52259095944464" lon="15.181195735931396">
        <ele>155.79</ele>
        <time>2024-08-12T12:46:06.916Z</time>
      </trkpt>
      <trkpt lat="45.522537315264344" lon="15.180959701538086">
        <ele>157.11</ele>
        <time>2024-08-12T12:46:09.853Z</time>
      </trkpt>
      <trkpt lat="45.522440671920776" lon="15.180584192276001">
        <ele>158.78</ele>
        <time>2024-08-12T12:46:12.800Z</time>
      </trkpt>
      <trkpt lat="45.52227973937988" lon="15.180026292800903">
        <ele>160.47</ele>
        <time>2024-08-12T12:46:15.761Z</time>
      </trkpt>
      <trkpt lat="45.522204637527466" lon="15.179800987243652">
        <ele>161.82</ele>
        <time>2024-08-12T12:46:18.728Z</time>
      </trkpt>
      <trkpt lat="45.52207589149475" lon="15.179489850997925">
        <ele>163.11</ele>
        <time>2024-08-12T12:46:21.703Z</time>
      </trkpt>
    </trkseg>
  </trk>
</gpx>
