<?xml version="1.0" encoding="UTF-8"?>
<gpx creator="https://gpx.studio" version="1.1" xmlns="http://www.topografix.com/GPX/1/1" xmlns:xsi="http://www.w3.org/2001/XMLSchema-instance" xsi:schemaLocation="http://www.topografix.com/GPX/1/1 http://www.topografix.com/GPX/1/1/gpx.xsd http://www.garmin.com/xmlschemas/GpxExtensions/v3 http://www.garmin.com/xmlschemas/GpxExtensionsv3.xsd http://www.garmin.com/xmlschemas/TrackPointExtension/v1 http://www.garmin.com/xmlschemas/TrackPointExtensionv1.xsd http://www.garmin.com/xmlschemas/PowerExtension/v1 http://www.garmin.com/xmlschemas/PowerExtensionv1.xsd http://www.topografix.com/GPX/gpx_style/0/2 http://www.topografix.com/GPX/gpx_style/0/2/gpx_style.xsd" xmlns:gpxtpx="http://www.garmin.com/xmlschemas/TrackPointExtension/v1" xmlns:gpxx="http://www.garmin.com/xmlschemas/GpxExtensions/v3" xmlns:gpxpx="http://www.garmin.com/xmlschemas/PowerExtension/v1" xmlns:gpx_style="http://www.topografix.com/GPX/gpx_style/0/2">
  <metadata>
    <name>New file 1</name>
    <author>
      <name>gpx.studio</name>
      <link href="https://gpx.studio"/>
    </author>
  </metadata>
  <trk>
    <name>New file 1</name>
    <trkseg>
      <trkpt lat="46.464331" lon="14.050074">
        <ele>943.91</ele>
      </trkpt>
      <trkpt lat="46.46434" lon="14.05008">
        <ele>943.9</ele>
      </trkpt>
      <trkpt lat="46.46427" lon="14.050275">
        <ele>944.4</ele>
      </trkpt>
      <trkpt lat="46.464262" lon="14.050315">
        <ele>945.05</ele>
      </trkpt>
      <trkpt lat="46.464235" lon="14.050603">
        <ele>950.86</ele>
      </trkpt>
      <trkpt lat="46.464244" lon="14.050899">
        <ele>956.1</ele>
      </trkpt>
      <trkpt lat="46.464217" lon="14.050975">
        <ele>958.19</ele>
      </trkpt>
      <trkpt lat="46.464221" lon="14.050979">
        <ele>958.11</ele>
      </trkpt>
      <trkpt lat="46.464221" lon="14.050979">
        <ele>958.11</ele>
      </trkpt>
      <trkpt lat="46.464193" lon="14.05096">
        <ele>958.81</ele>
      </trkpt>
      <trkpt lat="46.464009" lon="14.050718">
        <ele>965.06</ele>
      </trkpt>
      <trkpt lat="46.463946" lon="14.050594">
        <ele>965.7</ele>
      </trkpt>
      <trkpt lat="46.463809" lon="14.050501">
        <ele>967.96</ele>
      </trkpt>
      <trkpt lat="46.463736" lon="14.050473">
        <ele>968.47</ele>
      </trkpt>
      <trkpt lat="46.463676" lon="14.050485">
        <ele>969.44</ele>
      </trkpt>
      <trkpt lat="46.463633" lon="14.050544">
        <ele>970.7</ele>
      </trkpt>
      <trkpt lat="46.463571" lon="14.050801">
        <ele>976.92</ele>
      </trkpt>
      <trkpt lat="46.463522" lon="14.050895">
        <ele>979.12</ele>
      </trkpt>
      <trkpt lat="46.463457" lon="14.050946">
        <ele>980.29</ele>
      </trkpt>
      <trkpt lat="46.463208" lon="14.051016">
        <ele>984.08</ele>
      </trkpt>
      <trkpt lat="46.462841" lon="14.051008">
        <ele>992.44</ele>
      </trkpt>
      <trkpt lat="46.462618" lon="14.051019">
        <ele>998.31</ele>
      </trkpt>
      <trkpt lat="46.462493" lon="14.051095">
        <ele>1001.28</ele>
      </trkpt>
      <trkpt lat="46.462446" lon="14.051188">
        <ele>1003.42</ele>
      </trkpt>
      <trkpt lat="46.462426" lon="14.05127">
        <ele>1005.15</ele>
      </trkpt>
      <trkpt lat="46.462432" lon="14.051347">
        <ele>1006.81</ele>
      </trkpt>
      <trkpt lat="46.46246" lon="14.051461">
        <ele>1009.25</ele>
      </trkpt>
      <trkpt lat="46.46251" lon="14.051513">
        <ele>1011.27</ele>
      </trkpt>
      <trkpt lat="46.462585" lon="14.051554">
        <ele>1012.39</ele>
      </trkpt>
      <trkpt lat="46.462659" lon="14.051638">
        <ele>1013.27</ele>
      </trkpt>
      <trkpt lat="46.462692" lon="14.05173">
        <ele>1014.94</ele>
      </trkpt>
      <trkpt lat="46.462698" lon="14.051828">
        <ele>1017.19</ele>
      </trkpt>
      <trkpt lat="46.462724" lon="14.052404">
        <ele>1030.26</ele>
      </trkpt>
      <trkpt lat="46.462758" lon="14.052731">
        <ele>1037.39</ele>
      </trkpt>
      <trkpt lat="46.46285" lon="14.052867">
        <ele>1040.7</ele>
      </trkpt>
      <trkpt lat="46.462975" lon="14.053172">
        <ele>1046.27</ele>
      </trkpt>
      <trkpt lat="46.462982" lon="14.053367">
        <ele>1048.78</ele>
      </trkpt>
      <trkpt lat="46.462926" lon="14.053491">
        <ele>1051.32</ele>
      </trkpt>
      <trkpt lat="46.462869" lon="14.05355">
        <ele>1052.82</ele>
      </trkpt>
      <trkpt lat="46.46263" lon="14.053912">
        <ele>1063.27</ele>
      </trkpt>
      <trkpt lat="46.462468" lon="14.05467">
        <ele>1077.03</ele>
      </trkpt>
      <trkpt lat="46.462478" lon="14.054874">
        <ele>1082.45</ele>
      </trkpt>
      <trkpt lat="46.462505" lon="14.055029">
        <ele>1084.95</ele>
      </trkpt>
      <trkpt lat="46.462462" lon="14.055233">
        <ele>1085.33</ele>
      </trkpt>
      <trkpt lat="46.462288" lon="14.05557">
        <ele>1092.3</ele>
      </trkpt>
      <trkpt lat="46.462114" lon="14.055907">
        <ele>1095.51</ele>
      </trkpt>
      <trkpt lat="46.461962" lon="14.05691">
        <ele>1113.62</ele>
      </trkpt>
      <trkpt lat="46.4619" lon="14.057141">
        <ele>1117.66</ele>
      </trkpt>
      <trkpt lat="46.461814" lon="14.057377">
        <ele>1122.64</ele>
      </trkpt>
      <trkpt lat="46.461675" lon="14.057624">
        <ele>1126.3</ele>
      </trkpt>
      <trkpt lat="46.461504" lon="14.057858">
        <ele>1131.03</ele>
      </trkpt>
      <trkpt lat="46.461387" lon="14.057971">
        <ele>1133.01</ele>
      </trkpt>
      <trkpt lat="46.461258" lon="14.05807">
        <ele>1135.79</ele>
      </trkpt>
      <trkpt lat="46.46086" lon="14.058148">
        <ele>1147.41</ele>
      </trkpt>
      <trkpt lat="46.460722" lon="14.058252">
        <ele>1150.5</ele>
      </trkpt>
      <trkpt lat="46.460705" lon="14.058356">
        <ele>1151.41</ele>
      </trkpt>
      <trkpt lat="46.460726" lon="14.058637">
        <ele>1155.05</ele>
      </trkpt>
      <trkpt lat="46.460793" lon="14.058932">
        <ele>1159.72</ele>
      </trkpt>
      <trkpt lat="46.460937" lon="14.05939">
        <ele>1162.72</ele>
      </trkpt>
      <trkpt lat="46.460956" lon="14.059715">
        <ele>1162.9</ele>
      </trkpt>
      <trkpt lat="46.460954" lon="14.060011">
        <ele>1162.75</ele>
      </trkpt>
      <trkpt lat="46.460944" lon="14.060251">
        <ele>1161.7</ele>
      </trkpt>
      <trkpt lat="46.460885" lon="14.060603">
        <ele>1160.62</ele>
      </trkpt>
      <trkpt lat="46.460833" lon="14.060779">
        <ele>1159.77</ele>
      </trkpt>
      <trkpt lat="46.460796" lon="14.060851">
        <ele>1159.95</ele>
      </trkpt>
      <trkpt lat="46.460734" lon="14.061015">
        <ele>1160.82</ele>
      </trkpt>
      <trkpt lat="46.4607" lon="14.061282">
        <ele>1163.14</ele>
      </trkpt>
      <trkpt lat="46.460667" lon="14.061374">
        <ele>1163.14</ele>
      </trkpt>
      <trkpt lat="46.460634" lon="14.061513">
        <ele>1163.41</ele>
      </trkpt>
      <trkpt lat="46.4606" lon="14.062017">
        <ele>1165.95</ele>
      </trkpt>
      <trkpt lat="46.460531" lon="14.062384">
        <ele>1166.87</ele>
      </trkpt>
      <trkpt lat="46.460389" lon="14.062748">
        <ele>1172.35</ele>
      </trkpt>
      <trkpt lat="46.460274" lon="14.06301">
        <ele>1172.94</ele>
      </trkpt>
      <trkpt lat="46.460218" lon="14.063094">
        <ele>1173.04</ele>
      </trkpt>
      <trkpt lat="46.460095" lon="14.063142">
        <ele>1175.98</ele>
      </trkpt>
      <trkpt lat="46.460013" lon="14.063154">
        <ele>1177.71</ele>
      </trkpt>
      <trkpt lat="46.459883" lon="14.063129">
        <ele>1180.25</ele>
      </trkpt>
      <trkpt lat="46.459781" lon="14.063197">
        <ele>1183.16</ele>
      </trkpt>
      <trkpt lat="46.459745" lon="14.063312">
        <ele>1185.47</ele>
      </trkpt>
      <trkpt lat="46.459703" lon="14.063397">
        <ele>1187.08</ele>
      </trkpt>
      <trkpt lat="46.459623" lon="14.063474">
        <ele>1188.87</ele>
      </trkpt>
      <trkpt lat="46.459696" lon="14.063492">
        <ele>1188.25</ele>
      </trkpt>
      <trkpt lat="46.45972" lon="14.063575">
        <ele>1189.26</ele>
      </trkpt>
      <trkpt lat="46.459868" lon="14.063765">
        <ele>1190.86</ele>
      </trkpt>
      <trkpt lat="46.459962" lon="14.064068">
        <ele>1196.93</ele>
      </trkpt>
      <trkpt lat="46.46005" lon="14.064248">
        <ele>1199.93</ele>
      </trkpt>
      <trkpt lat="46.460112" lon="14.06441">
        <ele>1201.65</ele>
      </trkpt>
      <trkpt lat="46.460137" lon="14.064604">
        <ele>1203.67</ele>
      </trkpt>
      <trkpt lat="46.460168" lon="14.065059">
        <ele>1210.35</ele>
      </trkpt>
      <trkpt lat="46.460198" lon="14.065426">
        <ele>1214.97</ele>
      </trkpt>
      <trkpt lat="46.460206" lon="14.065805">
        <ele>1221.302941331506</ele>
      </trkpt>
      <trkpt lat="46.46005658840042" lon="14.066188306122285">
        <ele>1230.8702487787045</ele>
      </trkpt>
      <trkpt lat="46.459954" lon="14.066124">
        <ele>1230.45</ele>
      </trkpt>
      <trkpt lat="46.459847" lon="14.065982">
        <ele>1233.98</ele>
      </trkpt>
      <trkpt lat="46.459636" lon="14.065741">
        <ele>1239.69</ele>
      </trkpt>
      <trkpt lat="46.459554" lon="14.065628">
        <ele>1241.86</ele>
      </trkpt>
      <trkpt lat="46.4595" lon="14.06558">
        <ele>1243.59</ele>
      </trkpt>
      <trkpt lat="46.45944" lon="14.065569">
        <ele>1246.04</ele>
      </trkpt>
      <trkpt lat="46.459407" lon="14.065617">
        <ele>1248.28</ele>
      </trkpt>
      <trkpt lat="46.45941" lon="14.066122">
        <ele>1254.98</ele>
      </trkpt>
      <trkpt lat="46.459394" lon="14.06645">
        <ele>1258.27</ele>
      </trkpt>
      <trkpt lat="46.459328" lon="14.066685">
        <ele>1263.75</ele>
      </trkpt>
      <trkpt lat="46.459319" lon="14.066885">
        <ele>1266.42</ele>
      </trkpt>
      <trkpt lat="46.459303" lon="14.067037">
        <ele>1268.86</ele>
      </trkpt>
      <trkpt lat="46.459217" lon="14.067338">
        <ele>1273.94</ele>
      </trkpt>
      <trkpt lat="46.459158" lon="14.067485">
        <ele>1276.95</ele>
      </trkpt>
      <trkpt lat="46.459089" lon="14.067591">
        <ele>1278.29</ele>
      </trkpt>
      <trkpt lat="46.459048" lon="14.067681">
        <ele>1279.62</ele>
      </trkpt>
      <trkpt lat="46.459054" lon="14.067886">
        <ele>1284.4</ele>
      </trkpt>
      <trkpt lat="46.459072" lon="14.068004">
        <ele>1288.03</ele>
      </trkpt>
      <trkpt lat="46.459098" lon="14.068075">
        <ele>1289.98</ele>
      </trkpt>
      <trkpt lat="46.459093" lon="14.068156">
        <ele>1291.9</ele>
      </trkpt>
      <trkpt lat="46.459101" lon="14.068263">
        <ele>1293.81</ele>
      </trkpt>
      <trkpt lat="46.459136" lon="14.068311">
        <ele>1295.56</ele>
      </trkpt>
      <trkpt lat="46.459171" lon="14.068314">
        <ele>1296.68</ele>
      </trkpt>
      <trkpt lat="46.459207" lon="14.068351">
        <ele>1298.55</ele>
      </trkpt>
      <trkpt lat="46.459209" lon="14.068405">
        <ele>1299.86</ele>
      </trkpt>
      <trkpt lat="46.459199" lon="14.068464">
        <ele>1300.98</ele>
      </trkpt>
      <trkpt lat="46.45925" lon="14.068609">
        <ele>1305.12</ele>
      </trkpt>
      <trkpt lat="46.459348" lon="14.068703">
        <ele>1309.38</ele>
      </trkpt>
      <trkpt lat="46.459387" lon="14.068821">
        <ele>1313.79</ele>
      </trkpt>
      <trkpt lat="46.459386" lon="14.068921">
        <ele>1316.44</ele>
      </trkpt>
      <trkpt lat="46.459435" lon="14.069073">
        <ele>1321.8</ele>
      </trkpt>
      <trkpt lat="46.459464" lon="14.069108">
        <ele>1322.91</ele>
      </trkpt>
      <trkpt lat="46.459485" lon="14.069167">
        <ele>1324.29</ele>
      </trkpt>
      <trkpt lat="46.459564" lon="14.069252">
        <ele>1326.73</ele>
      </trkpt>
      <trkpt lat="46.459592" lon="14.06935">
        <ele>1328.43</ele>
      </trkpt>
    </trkseg>
  </trk>
</gpx>
