<?xml version="1.0" encoding="UTF-8"?>
<gpx creator="https://gpx.studio" version="1.1" xmlns="http://www.topografix.com/GPX/1/1" xmlns:xsi="http://www.w3.org/2001/XMLSchema-instance" xsi:schemaLocation="http://www.topografix.com/GPX/1/1 http://www.topografix.com/GPX/1/1/gpx.xsd http://www.garmin.com/xmlschemas/GpxExtensions/v3 http://www.garmin.com/xmlschemas/GpxExtensionsv3.xsd http://www.garmin.com/xmlschemas/TrackPointExtension/v1 http://www.garmin.com/xmlschemas/TrackPointExtensionv1.xsd http://www.garmin.com/xmlschemas/PowerExtension/v1 http://www.garmin.com/xmlschemas/PowerExtensionv1.xsd http://www.topografix.com/GPX/gpx_style/0/2 http://www.topografix.com/GPX/gpx_style/0/2/gpx_style.xsd" xmlns:gpxtpx="http://www.garmin.com/xmlschemas/TrackPointExtension/v1" xmlns:gpxx="http://www.garmin.com/xmlschemas/GpxExtensions/v3" xmlns:gpxpx="http://www.garmin.com/xmlschemas/PowerExtension/v1" xmlns:gpx_style="http://www.topografix.com/GPX/gpx_style/0/2">
  <metadata>
    <name>New file 1</name>
    <author>
      <name>gpx.studio</name>
      <link href="https://gpx.studio"/>
    </author>
  </metadata>
  <trk>
    <name>New file 1</name>
    <trkseg>
      <trkpt lat="46.247424" lon="14.953507">
        <ele>339</ele>
      </trkpt>
      <trkpt lat="46.247478" lon="14.953665">
        <ele>338.9</ele>
      </trkpt>
      <trkpt lat="46.247493" lon="14.953662">
        <ele>338.97</ele>
      </trkpt>
      <trkpt lat="46.247836" lon="14.953594">
        <ele>340.65</ele>
      </trkpt>
      <trkpt lat="46.248152" lon="14.95364">
        <ele>344.56</ele>
      </trkpt>
      <trkpt lat="46.24824" lon="14.953641">
        <ele>345.98</ele>
      </trkpt>
      <trkpt lat="46.248269" lon="14.953676">
        <ele>346.51</ele>
      </trkpt>
      <trkpt lat="46.248313" lon="14.9537">
        <ele>347.5</ele>
      </trkpt>
      <trkpt lat="46.248366" lon="14.953786">
        <ele>348.22</ele>
      </trkpt>
      <trkpt lat="46.248521" lon="14.953897">
        <ele>351.22</ele>
      </trkpt>
      <trkpt lat="46.248547" lon="14.953942">
        <ele>351.88</ele>
      </trkpt>
      <trkpt lat="46.248557" lon="14.954036">
        <ele>352.43</ele>
      </trkpt>
      <trkpt lat="46.248576" lon="14.954088">
        <ele>353.22</ele>
      </trkpt>
      <trkpt lat="46.248627" lon="14.954065">
        <ele>354.9</ele>
      </trkpt>
      <trkpt lat="46.248625" lon="14.953976">
        <ele>354.44</ele>
      </trkpt>
      <trkpt lat="46.248658" lon="14.953832">
        <ele>356.97</ele>
      </trkpt>
      <trkpt lat="46.248789" lon="14.95355">
        <ele>364.36</ele>
      </trkpt>
      <trkpt lat="46.248835" lon="14.953425">
        <ele>366.55</ele>
      </trkpt>
      <trkpt lat="46.248937" lon="14.953315">
        <ele>371.97</ele>
      </trkpt>
      <trkpt lat="46.249029" lon="14.953099">
        <ele>375.72</ele>
      </trkpt>
      <trkpt lat="46.249056" lon="14.953085">
        <ele>376.64</ele>
      </trkpt>
      <trkpt lat="46.24908" lon="14.953093">
        <ele>377.31</ele>
      </trkpt>
      <trkpt lat="46.249112" lon="14.953145">
        <ele>378.37</ele>
      </trkpt>
      <trkpt lat="46.249161" lon="14.953172">
        <ele>379.77</ele>
      </trkpt>
      <trkpt lat="46.249247" lon="14.953186">
        <ele>382.27</ele>
      </trkpt>
      <trkpt lat="46.249408" lon="14.953085">
        <ele>386.35</ele>
      </trkpt>
      <trkpt lat="46.249645" lon="14.953086">
        <ele>391.54</ele>
      </trkpt>
      <trkpt lat="46.249691" lon="14.953152">
        <ele>392.42</ele>
      </trkpt>
      <trkpt lat="46.249708" lon="14.953156">
        <ele>392.85</ele>
      </trkpt>
      <trkpt lat="46.249717" lon="14.95308">
        <ele>393.44</ele>
      </trkpt>
      <trkpt lat="46.249749" lon="14.953071">
        <ele>394.31</ele>
      </trkpt>
      <trkpt lat="46.24977" lon="14.953021">
        <ele>395.15</ele>
      </trkpt>
      <trkpt lat="46.249816" lon="14.952948">
        <ele>396.48</ele>
      </trkpt>
      <trkpt lat="46.249898" lon="14.952905">
        <ele>397.96</ele>
      </trkpt>
      <trkpt lat="46.250014" lon="14.952887">
        <ele>399.67</ele>
      </trkpt>
      <trkpt lat="46.250127" lon="14.952894">
        <ele>401.6</ele>
      </trkpt>
      <trkpt lat="46.25072" lon="14.953032">
        <ele>411.12</ele>
      </trkpt>
      <trkpt lat="46.250891" lon="14.953054">
        <ele>413.42</ele>
      </trkpt>
      <trkpt lat="46.251073" lon="14.953059">
        <ele>415.27</ele>
      </trkpt>
      <trkpt lat="46.251248" lon="14.95304">
        <ele>418.02</ele>
      </trkpt>
      <trkpt lat="46.251335" lon="14.953005">
        <ele>419.69</ele>
      </trkpt>
      <trkpt lat="46.251438" lon="14.952946">
        <ele>421.77</ele>
      </trkpt>
      <trkpt lat="46.251636" lon="14.95277">
        <ele>425.69</ele>
      </trkpt>
      <trkpt lat="46.251731" lon="14.952719">
        <ele>427.49</ele>
      </trkpt>
      <trkpt lat="46.251832" lon="14.952807">
        <ele>427.95</ele>
      </trkpt>
      <trkpt lat="46.251956" lon="14.952852">
        <ele>429.03</ele>
      </trkpt>
      <trkpt lat="46.252127" lon="14.952953">
        <ele>430.36</ele>
      </trkpt>
      <trkpt lat="46.252229" lon="14.952997">
        <ele>429.83</ele>
      </trkpt>
      <trkpt lat="46.252285" lon="14.953047">
        <ele>428.99</ele>
      </trkpt>
      <trkpt lat="46.252451" lon="14.953227">
        <ele>428.32</ele>
      </trkpt>
      <trkpt lat="46.25258" lon="14.953392">
        <ele>429.38</ele>
      </trkpt>
      <trkpt lat="46.252644" lon="14.953441">
        <ele>430.03</ele>
      </trkpt>
      <trkpt lat="46.252694" lon="14.953452">
        <ele>429.96</ele>
      </trkpt>
      <trkpt lat="46.252904" lon="14.953461">
        <ele>429.85</ele>
      </trkpt>
      <trkpt lat="46.252969" lon="14.953491">
        <ele>429.69</ele>
      </trkpt>
      <trkpt lat="46.253055" lon="14.953599">
        <ele>429.17</ele>
      </trkpt>
      <trkpt lat="46.253097" lon="14.953692">
        <ele>428.52</ele>
      </trkpt>
      <trkpt lat="46.253221" lon="14.954112">
        <ele>427.97</ele>
      </trkpt>
      <trkpt lat="46.253431" lon="14.953775">
        <ele>434.08</ele>
      </trkpt>
      <trkpt lat="46.253496" lon="14.953696">
        <ele>435.47</ele>
      </trkpt>
      <trkpt lat="46.25355" lon="14.9538">
        <ele>436.31</ele>
      </trkpt>
      <trkpt lat="46.253637" lon="14.953853">
        <ele>437.05</ele>
      </trkpt>
      <trkpt lat="46.253771" lon="14.953908">
        <ele>437.65</ele>
      </trkpt>
      <trkpt lat="46.254088" lon="14.953795">
        <ele>438.48</ele>
      </trkpt>
      <trkpt lat="46.254207" lon="14.953697">
        <ele>438.2</ele>
      </trkpt>
      <trkpt lat="46.254455" lon="14.953587">
        <ele>436.3</ele>
      </trkpt>
      <trkpt lat="46.254698" lon="14.95355">
        <ele>435.85</ele>
      </trkpt>
      <trkpt lat="46.254775" lon="14.953514">
        <ele>435.82</ele>
      </trkpt>
      <trkpt lat="46.254912" lon="14.953411">
        <ele>434.49</ele>
      </trkpt>
      <trkpt lat="46.255011" lon="14.953283">
        <ele>436.6</ele>
      </trkpt>
      <trkpt lat="46.255067" lon="14.953252">
        <ele>435.61</ele>
      </trkpt>
      <trkpt lat="46.25512" lon="14.953236">
        <ele>434.12</ele>
      </trkpt>
      <trkpt lat="46.255169" lon="14.953235">
        <ele>433.77</ele>
      </trkpt>
      <trkpt lat="46.255185" lon="14.953259">
        <ele>433.24</ele>
      </trkpt>
      <trkpt lat="46.255191" lon="14.953338">
        <ele>431.07</ele>
      </trkpt>
      <trkpt lat="46.25526" lon="14.953518">
        <ele>431.46</ele>
      </trkpt>
      <trkpt lat="46.255338" lon="14.953639">
        <ele>432.64</ele>
      </trkpt>
      <trkpt lat="46.255489" lon="14.953782">
        <ele>435.2</ele>
      </trkpt>
      <trkpt lat="46.255626" lon="14.953837">
        <ele>440.53</ele>
      </trkpt>
      <trkpt lat="46.255716" lon="14.953997">
        <ele>441.05</ele>
      </trkpt>
      <trkpt lat="46.255854" lon="14.954051">
        <ele>454.35</ele>
      </trkpt>
      <trkpt lat="46.256076" lon="14.954288">
        <ele>460.97</ele>
      </trkpt>
      <trkpt lat="46.256194" lon="14.954463">
        <ele>461.99</ele>
      </trkpt>
      <trkpt lat="46.256395" lon="14.954676">
        <ele>465.45</ele>
      </trkpt>
      <trkpt lat="46.256612" lon="14.954944">
        <ele>470.8</ele>
      </trkpt>
      <trkpt lat="46.257033" lon="14.955393">
        <ele>481.91</ele>
      </trkpt>
      <trkpt lat="46.257323" lon="14.955627">
        <ele>491.29</ele>
      </trkpt>
      <trkpt lat="46.25751" lon="14.955908">
        <ele>494.32</ele>
      </trkpt>
      <trkpt lat="46.257722" lon="14.956117">
        <ele>497.93</ele>
      </trkpt>
      <trkpt lat="46.257988" lon="14.95641">
        <ele>503.64</ele>
      </trkpt>
      <trkpt lat="46.258456" lon="14.956878">
        <ele>510.88</ele>
      </trkpt>
      <trkpt lat="46.258923" lon="14.957346">
        <ele>521.32</ele>
      </trkpt>
      <trkpt lat="46.259179" lon="14.957579">
        <ele>525.88</ele>
      </trkpt>
      <trkpt lat="46.259395" lon="14.957753">
        <ele>532.4</ele>
      </trkpt>
      <trkpt lat="46.259595" lon="14.957922">
        <ele>536.52</ele>
      </trkpt>
      <trkpt lat="46.259831" lon="14.958091">
        <ele>541.46</ele>
      </trkpt>
      <trkpt lat="46.260112" lon="14.95844">
        <ele>540.83</ele>
      </trkpt>
      <trkpt lat="46.260332" lon="14.958729">
        <ele>543.39</ele>
      </trkpt>
      <trkpt lat="46.260466" lon="14.958955">
        <ele>542.6</ele>
      </trkpt>
      <trkpt lat="46.260601" lon="14.959181">
        <ele>544.75</ele>
      </trkpt>
      <trkpt lat="46.260796" lon="14.959507">
        <ele>550.61</ele>
      </trkpt>
      <trkpt lat="46.261018" lon="14.960061">
        <ele>555.74</ele>
      </trkpt>
      <trkpt lat="46.261141" lon="14.9603">
        <ele>558.26</ele>
      </trkpt>
      <trkpt lat="46.261265" lon="14.960538">
        <ele>558.63</ele>
      </trkpt>
      <trkpt lat="46.261467" lon="14.960861">
        <ele>560.79</ele>
      </trkpt>
      <trkpt lat="46.261643" lon="14.961077">
        <ele>558.7</ele>
      </trkpt>
      <trkpt lat="46.261753" lon="14.961139">
        <ele>557.99</ele>
      </trkpt>
      <trkpt lat="46.261931" lon="14.961182">
        <ele>563.77</ele>
      </trkpt>
      <trkpt lat="46.261978" lon="14.961223">
        <ele>564.62</ele>
      </trkpt>
      <trkpt lat="46.262107" lon="14.961263">
        <ele>567.23</ele>
      </trkpt>
      <trkpt lat="46.262172" lon="14.961334">
        <ele>565.82</ele>
      </trkpt>
      <trkpt lat="46.262307" lon="14.961318">
        <ele>566.63</ele>
      </trkpt>
      <trkpt lat="46.262436" lon="14.961366">
        <ele>564.91</ele>
      </trkpt>
      <trkpt lat="46.262528" lon="14.961352">
        <ele>563.03</ele>
      </trkpt>
      <trkpt lat="46.262583" lon="14.961302">
        <ele>561.85</ele>
      </trkpt>
      <trkpt lat="46.262711" lon="14.961217">
        <ele>562.78</ele>
      </trkpt>
      <trkpt lat="46.262817" lon="14.961239">
        <ele>563.7</ele>
      </trkpt>
      <trkpt lat="46.262915" lon="14.961329">
        <ele>561.17</ele>
      </trkpt>
      <trkpt lat="46.263015" lon="14.961349">
        <ele>560.11</ele>
      </trkpt>
      <trkpt lat="46.263312" lon="14.96135">
        <ele>559.09</ele>
      </trkpt>
      <trkpt lat="46.263388" lon="14.961427">
        <ele>556.78</ele>
      </trkpt>
      <trkpt lat="46.263491" lon="14.961466">
        <ele>556.87</ele>
      </trkpt>
      <trkpt lat="46.263649" lon="14.961471">
        <ele>560.2</ele>
      </trkpt>
      <trkpt lat="46.263757" lon="14.961528">
        <ele>561.6</ele>
      </trkpt>
      <trkpt lat="46.263858" lon="14.961542">
        <ele>562.74</ele>
      </trkpt>
      <trkpt lat="46.264083" lon="14.961565">
        <ele>562.79</ele>
      </trkpt>
      <trkpt lat="46.264123" lon="14.961496">
        <ele>564.19</ele>
      </trkpt>
      <trkpt lat="46.264188" lon="14.961434">
        <ele>565.68</ele>
      </trkpt>
      <trkpt lat="46.264269" lon="14.961395">
        <ele>566.36</ele>
      </trkpt>
      <trkpt lat="46.26438" lon="14.961393">
        <ele>566.23</ele>
      </trkpt>
      <trkpt lat="46.26444" lon="14.961324">
        <ele>568.77</ele>
      </trkpt>
      <trkpt lat="46.264565" lon="14.961372">
        <ele>570.09</ele>
      </trkpt>
      <trkpt lat="46.264684" lon="14.961429">
        <ele>573.11</ele>
      </trkpt>
      <trkpt lat="46.264788" lon="14.96153">
        <ele>573.78</ele>
      </trkpt>
      <trkpt lat="46.264927" lon="14.961576">
        <ele>574.77</ele>
      </trkpt>
      <trkpt lat="46.264965" lon="14.961412">
        <ele>576.81</ele>
      </trkpt>
      <trkpt lat="46.264937" lon="14.961308">
        <ele>580.49</ele>
      </trkpt>
      <trkpt lat="46.26499" lon="14.961274">
        <ele>580.22</ele>
      </trkpt>
      <trkpt lat="46.265038" lon="14.961112">
        <ele>584.49</ele>
      </trkpt>
      <trkpt lat="46.265295" lon="14.960983">
        <ele>584.26</ele>
      </trkpt>
      <trkpt lat="46.265449" lon="14.960901">
        <ele>586.91</ele>
      </trkpt>
      <trkpt lat="46.265586" lon="14.96093">
        <ele>587.22</ele>
      </trkpt>
      <trkpt lat="46.265729" lon="14.960935">
        <ele>586.32</ele>
      </trkpt>
      <trkpt lat="46.265832" lon="14.960875">
        <ele>586.4</ele>
      </trkpt>
      <trkpt lat="46.265952" lon="14.96077">
        <ele>588.99</ele>
      </trkpt>
      <trkpt lat="46.266265" lon="14.96077">
        <ele>592.17</ele>
      </trkpt>
      <trkpt lat="46.26653" lon="14.960912">
        <ele>589.29</ele>
      </trkpt>
      <trkpt lat="46.266761" lon="14.960805">
        <ele>593.49</ele>
      </trkpt>
      <trkpt lat="46.266931" lon="14.960876">
        <ele>595.42</ele>
      </trkpt>
      <trkpt lat="46.267066" lon="14.960951">
        <ele>591.98</ele>
      </trkpt>
      <trkpt lat="46.267452" lon="14.960816">
        <ele>592.79</ele>
      </trkpt>
      <trkpt lat="46.267635" lon="14.960701">
        <ele>593.62</ele>
      </trkpt>
      <trkpt lat="46.267729" lon="14.960503">
        <ele>596.27</ele>
      </trkpt>
      <trkpt lat="46.267812" lon="14.960273">
        <ele>600.81</ele>
      </trkpt>
      <trkpt lat="46.267937" lon="14.960159">
        <ele>602.14</ele>
      </trkpt>
      <trkpt lat="46.267969" lon="14.960148">
        <ele>602.32</ele>
      </trkpt>
      <trkpt lat="46.26804" lon="14.960155">
        <ele>602.49</ele>
      </trkpt>
      <trkpt lat="46.268143" lon="14.96018">
        <ele>601.18</ele>
      </trkpt>
      <trkpt lat="46.268239" lon="14.960084">
        <ele>602.98</ele>
      </trkpt>
      <trkpt lat="46.268364" lon="14.95992">
        <ele>605.72</ele>
      </trkpt>
      <trkpt lat="46.268524" lon="14.959516">
        <ele>612.68</ele>
      </trkpt>
      <trkpt lat="46.2686" lon="14.959356">
        <ele>615.53</ele>
      </trkpt>
      <trkpt lat="46.268647" lon="14.95931">
        <ele>617.23</ele>
      </trkpt>
      <trkpt lat="46.268725" lon="14.959314">
        <ele>619.69</ele>
      </trkpt>
      <trkpt lat="46.268958" lon="14.959701">
        <ele>627.2</ele>
      </trkpt>
      <trkpt lat="46.268998" lon="14.959775">
        <ele>625.56</ele>
      </trkpt>
      <trkpt lat="46.269066" lon="14.959775">
        <ele>626.37</ele>
      </trkpt>
      <trkpt lat="46.269111" lon="14.959751">
        <ele>627.24</ele>
      </trkpt>
      <trkpt lat="46.26943" lon="14.959484">
        <ele>638.56</ele>
      </trkpt>
      <trkpt lat="46.269907" lon="14.959149">
        <ele>654.52</ele>
      </trkpt>
      <trkpt lat="46.270013" lon="14.95898">
        <ele>660.18</ele>
      </trkpt>
      <trkpt lat="46.270082" lon="14.95893">
        <ele>661.82</ele>
      </trkpt>
      <trkpt lat="46.270247" lon="14.95885">
        <ele>665.68</ele>
      </trkpt>
      <trkpt lat="46.270374" lon="14.958678">
        <ele>672.22</ele>
      </trkpt>
      <trkpt lat="46.270552" lon="14.958497">
        <ele>676.96</ele>
      </trkpt>
      <trkpt lat="46.270833" lon="14.958044">
        <ele>689.63</ele>
      </trkpt>
      <trkpt lat="46.270855" lon="14.957954">
        <ele>692.97</ele>
      </trkpt>
      <trkpt lat="46.270972" lon="14.957968">
        <ele>693.6</ele>
      </trkpt>
      <trkpt lat="46.271059" lon="14.95792">
        <ele>696.79</ele>
      </trkpt>
      <trkpt lat="46.271136" lon="14.957824">
        <ele>700.89</ele>
      </trkpt>
      <trkpt lat="46.271185" lon="14.957822">
        <ele>701.77</ele>
      </trkpt>
      <trkpt lat="46.271238" lon="14.957779">
        <ele>704.5</ele>
      </trkpt>
      <trkpt lat="46.271299" lon="14.957767">
        <ele>706.48</ele>
      </trkpt>
      <trkpt lat="46.271395" lon="14.957929">
        <ele>708.52</ele>
      </trkpt>
      <trkpt lat="46.271492" lon="14.957964">
        <ele>713.43</ele>
      </trkpt>
      <trkpt lat="46.271539" lon="14.958001">
        <ele>715.79</ele>
      </trkpt>
      <trkpt lat="46.271561" lon="14.958056">
        <ele>717.08</ele>
      </trkpt>
      <trkpt lat="46.271512" lon="14.958151">
        <ele>717.5</ele>
      </trkpt>
      <trkpt lat="46.271381" lon="14.958334">
        <ele>717.49</ele>
      </trkpt>
      <trkpt lat="46.271348" lon="14.95847">
        <ele>718.83</ele>
      </trkpt>
      <trkpt lat="46.271351" lon="14.958641">
        <ele>720.8</ele>
      </trkpt>
      <trkpt lat="46.271383" lon="14.958763">
        <ele>721.72</ele>
      </trkpt>
      <trkpt lat="46.271481" lon="14.958845">
        <ele>723.37</ele>
      </trkpt>
      <trkpt lat="46.271736" lon="14.958971">
        <ele>729.86</ele>
      </trkpt>
      <trkpt lat="46.271909" lon="14.959058">
        <ele>736.51</ele>
      </trkpt>
      <trkpt lat="46.271971" lon="14.959083">
        <ele>740.12</ele>
      </trkpt>
      <trkpt lat="46.27199" lon="14.959317">
        <ele>742.85</ele>
      </trkpt>
      <trkpt lat="46.271962" lon="14.959388">
        <ele>743.47</ele>
      </trkpt>
      <trkpt lat="46.27185" lon="14.959568">
        <ele>743.41</ele>
      </trkpt>
      <trkpt lat="46.271798" lon="14.959731">
        <ele>744.3</ele>
      </trkpt>
      <trkpt lat="46.27178" lon="14.959834">
        <ele>744.84</ele>
      </trkpt>
      <trkpt lat="46.271829" lon="14.95999">
        <ele>747.14</ele>
      </trkpt>
      <trkpt lat="46.271931" lon="14.960194">
        <ele>752.41</ele>
      </trkpt>
      <trkpt lat="46.271972" lon="14.960321">
        <ele>755.48</ele>
      </trkpt>
      <trkpt lat="46.271955" lon="14.960448">
        <ele>755.98</ele>
      </trkpt>
      <trkpt lat="46.271947" lon="14.96058">
        <ele>756.89</ele>
      </trkpt>
      <trkpt lat="46.271971" lon="14.960676">
        <ele>759.4</ele>
      </trkpt>
      <trkpt lat="46.27199" lon="14.960814">
        <ele>761.07</ele>
      </trkpt>
      <trkpt lat="46.271983" lon="14.960967">
        <ele>763.23</ele>
      </trkpt>
      <trkpt lat="46.271965" lon="14.961045">
        <ele>764.81</ele>
      </trkpt>
      <trkpt lat="46.271896" lon="14.961127">
        <ele>765.74</ele>
      </trkpt>
      <trkpt lat="46.271706" lon="14.961402">
        <ele>770.63</ele>
      </trkpt>
      <trkpt lat="46.271638" lon="14.961564">
        <ele>773.79</ele>
      </trkpt>
      <trkpt lat="46.2716" lon="14.961716">
        <ele>775.2</ele>
      </trkpt>
      <trkpt lat="46.271615" lon="14.961809">
        <ele>774.41</ele>
      </trkpt>
      <trkpt lat="46.27169" lon="14.961844">
        <ele>776.46</ele>
      </trkpt>
      <trkpt lat="46.271764" lon="14.961799">
        <ele>779.76</ele>
      </trkpt>
      <trkpt lat="46.271797" lon="14.961712">
        <ele>782.24</ele>
      </trkpt>
      <trkpt lat="46.271842" lon="14.961676">
        <ele>783.18</ele>
      </trkpt>
      <trkpt lat="46.271996" lon="14.961618">
        <ele>786.44</ele>
      </trkpt>
      <trkpt lat="46.272113" lon="14.961544">
        <ele>790.97</ele>
      </trkpt>
      <trkpt lat="46.272302" lon="14.961359">
        <ele>797.11</ele>
      </trkpt>
      <trkpt lat="46.272435" lon="14.961161">
        <ele>800.98</ele>
      </trkpt>
      <trkpt lat="46.272499" lon="14.961011">
        <ele>802.35</ele>
      </trkpt>
      <trkpt lat="46.272638" lon="14.960455">
        <ele>808.58</ele>
      </trkpt>
      <trkpt lat="46.272715" lon="14.960219">
        <ele>811.32</ele>
      </trkpt>
      <trkpt lat="46.272856" lon="14.959954">
        <ele>815.98</ele>
      </trkpt>
      <trkpt lat="46.273014" lon="14.959551">
        <ele>820.85</ele>
      </trkpt>
      <trkpt lat="46.273183" lon="14.959211">
        <ele>826.79</ele>
      </trkpt>
      <trkpt lat="46.273242" lon="14.958999">
        <ele>828.7</ele>
      </trkpt>
      <trkpt lat="46.273264" lon="14.958878">
        <ele>830.02</ele>
      </trkpt>
      <trkpt lat="46.273307" lon="14.958918">
        <ele>832.76</ele>
      </trkpt>
      <trkpt lat="46.273307" lon="14.959032">
        <ele>833.57</ele>
      </trkpt>
      <trkpt lat="46.273345" lon="14.95898">
        <ele>836.07</ele>
      </trkpt>
      <trkpt lat="46.273398" lon="14.958736">
        <ele>840.21</ele>
      </trkpt>
      <trkpt lat="46.273413" lon="14.958575">
        <ele>841.96</ele>
      </trkpt>
      <trkpt lat="46.273472" lon="14.958395">
        <ele>845.13</ele>
      </trkpt>
      <trkpt lat="46.273581" lon="14.958439">
        <ele>845.82</ele>
      </trkpt>
      <trkpt lat="46.273699" lon="14.958346">
        <ele>846.83</ele>
      </trkpt>
      <trkpt lat="46.273898" lon="14.958238">
        <ele>845.71</ele>
      </trkpt>
      <trkpt lat="46.274004" lon="14.958216">
        <ele>844.76</ele>
      </trkpt>
      <trkpt lat="46.274104" lon="14.958132">
        <ele>846.59</ele>
      </trkpt>
      <trkpt lat="46.274185" lon="14.957992">
        <ele>850.12</ele>
      </trkpt>
      <trkpt lat="46.274288" lon="14.957895">
        <ele>851.52</ele>
      </trkpt>
      <trkpt lat="46.274406" lon="14.957833">
        <ele>849.92</ele>
      </trkpt>
      <trkpt lat="46.27462" lon="14.957785">
        <ele>849.88</ele>
      </trkpt>
      <trkpt lat="46.274974" lon="14.957738">
        <ele>850</ele>
      </trkpt>
      <trkpt lat="46.275241" lon="14.957682">
        <ele>850.04</ele>
      </trkpt>
      <trkpt lat="46.275346" lon="14.957701">
        <ele>850.26</ele>
      </trkpt>
      <trkpt lat="46.275647" lon="14.958103">
        <ele>849.78</ele>
      </trkpt>
      <trkpt lat="46.275769" lon="14.958184">
        <ele>849.76</ele>
      </trkpt>
      <trkpt lat="46.275929" lon="14.958197">
        <ele>851.83</ele>
      </trkpt>
      <trkpt lat="46.276043" lon="14.958425">
        <ele>852.76</ele>
      </trkpt>
      <trkpt lat="46.276139" lon="14.958653">
        <ele>854.66</ele>
      </trkpt>
      <trkpt lat="46.276295" lon="14.958852">
        <ele>857.93</ele>
      </trkpt>
      <trkpt lat="46.276417" lon="14.959033">
        <ele>861.52</ele>
      </trkpt>
      <trkpt lat="46.276536" lon="14.959169">
        <ele>864.47</ele>
      </trkpt>
      <trkpt lat="46.276631" lon="14.959267">
        <ele>867.18</ele>
      </trkpt>
      <trkpt lat="46.276721" lon="14.959338">
        <ele>869.21</ele>
      </trkpt>
      <trkpt lat="46.27677" lon="14.959365">
        <ele>870.23</ele>
      </trkpt>
      <trkpt lat="46.276811" lon="14.959371">
        <ele>871.42</ele>
      </trkpt>
      <trkpt lat="46.276868" lon="14.959363">
        <ele>873.18</ele>
      </trkpt>
    </trkseg>
  </trk>
</gpx>
