<?xml version="1.0" encoding="UTF-8"?>
<gpx xmlns="http://www.topografix.com/GPX/1/1" xmlns:xsi="http://www.w3.org/2001/XMLSchema-instance" version="1.1" creator="Trace de Trail" xsi:schemaLocation="http://www.topografix.com/GPX/1/1 http://www.topografix.com/GPX/1/1/gpx.xsd">
  <metadata>
    <name>OBALA Ultra Trail powered by I FEEL SLOVENIA 2026 - 11 km</name>
    <desc>Parcours créé sur Trace de Trail</desc>
    <link href="https://tracedetrail.fr/en/trace/321768">
      <text>Cartographie du parcours</text>
    </link>
    <time>2026-08-20T10:34:04+00:00</time>
  </metadata>
  <trk>
    <name>OBALA Ultra Trail powered by I FEEL SLOVENIA 2026 - 11 km sur TraceDeTrail.fr</name>
    <src>Trace de Trail</src>
    <trkseg>
      <trkpt lat="45.53284" lon="13.64586">
        <ele>1</ele>
        <time>2026-08-20T10:34:04+00:00</time>
      </trkpt>
      <trkpt lat="45.53263" lon="13.64564">
        <ele>1</ele>
        <time>2026-08-20T10:34:07+00:00</time>
      </trkpt>
      <trkpt lat="45.53236" lon="13.64536">
        <ele>2</ele>
        <time>2026-08-20T10:34:10+00:00</time>
      </trkpt>
      <trkpt lat="45.53222" lon="13.64564">
        <ele>2</ele>
        <time>2026-08-20T10:34:13+00:00</time>
      </trkpt>
      <trkpt lat="45.53206" lon="13.64592">
        <ele>4</ele>
        <time>2026-08-20T10:34:16+00:00</time>
      </trkpt>
      <trkpt lat="45.53198" lon="13.64556">
        <ele>5</ele>
        <time>2026-08-20T10:34:19+00:00</time>
      </trkpt>
      <trkpt lat="45.53187" lon="13.64508">
        <ele>8</ele>
        <time>2026-08-20T10:34:22+00:00</time>
      </trkpt>
      <trkpt lat="45.53187" lon="13.64474">
        <ele>9</ele>
        <time>2026-08-20T10:34:25+00:00</time>
      </trkpt>
      <trkpt lat="45.53183" lon="13.64433">
        <ele>12</ele>
        <time>2026-08-20T10:34:28+00:00</time>
      </trkpt>
      <trkpt lat="45.53183" lon="13.64395">
        <ele>15</ele>
        <time>2026-08-20T10:34:31+00:00</time>
      </trkpt>
      <trkpt lat="45.53188" lon="13.64357">
        <ele>18</ele>
        <time>2026-08-20T10:34:34+00:00</time>
      </trkpt>
      <trkpt lat="45.53196" lon="13.64309">
        <ele>18</ele>
        <time>2026-08-20T10:34:37+00:00</time>
      </trkpt>
      <trkpt lat="45.53213" lon="13.64251">
        <ele>14</ele>
        <time>2026-08-20T10:34:40+00:00</time>
      </trkpt>
      <trkpt lat="45.53223" lon="13.64208">
        <ele>12</ele>
        <time>2026-08-20T10:34:43+00:00</time>
      </trkpt>
      <trkpt lat="45.53232" lon="13.64164">
        <ele>11</ele>
        <time>2026-08-20T10:34:46+00:00</time>
      </trkpt>
      <trkpt lat="45.53243" lon="13.64118">
        <ele>9</ele>
        <time>2026-08-20T10:34:49+00:00</time>
      </trkpt>
      <trkpt lat="45.53258" lon="13.64079">
        <ele>9</ele>
        <time>2026-08-20T10:34:52+00:00</time>
      </trkpt>
      <trkpt lat="45.5326" lon="13.64068">
        <ele>9</ele>
        <time>2026-08-20T10:34:55+00:00</time>
      </trkpt>
      <trkpt lat="45.53254" lon="13.64062">
        <ele>9</ele>
        <time>2026-08-20T10:34:58+00:00</time>
      </trkpt>
      <trkpt lat="45.53256" lon="13.64056">
        <ele>10</ele>
        <time>2026-08-20T10:35:01+00:00</time>
      </trkpt>
      <trkpt lat="45.53256" lon="13.64053">
        <ele>10</ele>
        <time>2026-08-20T10:35:04+00:00</time>
      </trkpt>
      <trkpt lat="45.53251" lon="13.64056">
        <ele>10</ele>
        <time>2026-08-20T10:35:07+00:00</time>
      </trkpt>
      <trkpt lat="45.53247" lon="13.64066">
        <ele>10</ele>
        <time>2026-08-20T10:35:10+00:00</time>
      </trkpt>
      <trkpt lat="45.53249" lon="13.64068">
        <ele>10</ele>
        <time>2026-08-20T10:35:13+00:00</time>
      </trkpt>
      <trkpt lat="45.53245" lon="13.64079">
        <ele>10</ele>
        <time>2026-08-20T10:35:16+00:00</time>
      </trkpt>
      <trkpt lat="45.53241" lon="13.64083">
        <ele>9</ele>
        <time>2026-08-20T10:35:19+00:00</time>
      </trkpt>
      <trkpt lat="45.53226" lon="13.6409">
        <ele>12</ele>
        <time>2026-08-20T10:35:22+00:00</time>
      </trkpt>
      <trkpt lat="45.53196" lon="13.64068">
        <ele>15</ele>
        <time>2026-08-20T10:35:25+00:00</time>
      </trkpt>
      <trkpt lat="45.53185" lon="13.64049">
        <ele>18</ele>
        <time>2026-08-20T10:35:28+00:00</time>
      </trkpt>
      <trkpt lat="45.53181" lon="13.64036">
        <ele>18</ele>
        <time>2026-08-20T10:35:31+00:00</time>
      </trkpt>
      <trkpt lat="45.53185" lon="13.64023">
        <ele>19</ele>
        <time>2026-08-20T10:35:34+00:00</time>
      </trkpt>
      <trkpt lat="45.53196" lon="13.64013">
        <ele>17</ele>
        <time>2026-08-20T10:35:37+00:00</time>
      </trkpt>
      <trkpt lat="45.53215" lon="13.64008">
        <ele>17</ele>
        <time>2026-08-20T10:35:40+00:00</time>
      </trkpt>
      <trkpt lat="45.53228" lon="13.63989">
        <ele>18</ele>
        <time>2026-08-20T10:35:43+00:00</time>
      </trkpt>
      <trkpt lat="45.5323" lon="13.63974">
        <ele>18</ele>
        <time>2026-08-20T10:35:46+00:00</time>
      </trkpt>
      <trkpt lat="45.53228" lon="13.63948">
        <ele>22</ele>
        <time>2026-08-20T10:35:49+00:00</time>
      </trkpt>
      <trkpt lat="45.53224" lon="13.6394">
        <ele>20</ele>
        <time>2026-08-20T10:35:52+00:00</time>
      </trkpt>
      <trkpt lat="45.53217" lon="13.6394">
        <ele>25</ele>
        <time>2026-08-20T10:35:55+00:00</time>
      </trkpt>
      <trkpt lat="45.532" lon="13.63965">
        <ele>23</ele>
        <time>2026-08-20T10:35:58+00:00</time>
      </trkpt>
      <trkpt lat="45.53191" lon="13.63968">
        <ele>25</ele>
        <time>2026-08-20T10:36:01+00:00</time>
      </trkpt>
      <trkpt lat="45.53187" lon="13.63957">
        <ele>27</ele>
        <time>2026-08-20T10:36:04+00:00</time>
      </trkpt>
      <trkpt lat="45.53192" lon="13.63915">
        <ele>30</ele>
        <time>2026-08-20T10:36:07+00:00</time>
      </trkpt>
      <trkpt lat="45.53198" lon="13.63874">
        <ele>35</ele>
        <time>2026-08-20T10:36:10+00:00</time>
      </trkpt>
      <trkpt lat="45.53206" lon="13.63805">
        <ele>42</ele>
        <time>2026-08-20T10:36:13+00:00</time>
      </trkpt>
      <trkpt lat="45.53219" lon="13.63744">
        <ele>45</ele>
        <time>2026-08-20T10:36:16+00:00</time>
      </trkpt>
      <trkpt lat="45.53221" lon="13.63678">
        <ele>48</ele>
        <time>2026-08-20T10:36:19+00:00</time>
      </trkpt>
      <trkpt lat="45.53219" lon="13.63646">
        <ele>52</ele>
        <time>2026-08-20T10:36:22+00:00</time>
      </trkpt>
      <trkpt lat="45.53204" lon="13.63614">
        <ele>56</ele>
        <time>2026-08-20T10:36:25+00:00</time>
      </trkpt>
      <trkpt lat="45.53188" lon="13.63588">
        <ele>63</ele>
        <time>2026-08-20T10:36:28+00:00</time>
      </trkpt>
      <trkpt lat="45.53172" lon="13.63562">
        <ele>67</ele>
        <time>2026-08-20T10:36:31+00:00</time>
      </trkpt>
      <trkpt lat="45.53172" lon="13.63547">
        <ele>68</ele>
        <time>2026-08-20T10:36:34+00:00</time>
      </trkpt>
      <trkpt lat="45.53183" lon="13.63513">
        <ele>67</ele>
        <time>2026-08-20T10:36:37+00:00</time>
      </trkpt>
      <trkpt lat="45.5318" lon="13.63474">
        <ele>70</ele>
        <time>2026-08-20T10:36:40+00:00</time>
      </trkpt>
      <trkpt lat="45.53176" lon="13.63418">
        <ele>76</ele>
        <time>2026-08-20T10:36:43+00:00</time>
      </trkpt>
      <trkpt lat="45.53188" lon="13.63376">
        <ele>75</ele>
        <time>2026-08-20T10:36:46+00:00</time>
      </trkpt>
      <trkpt lat="45.532" lon="13.63334">
        <ele>75</ele>
        <time>2026-08-20T10:36:49+00:00</time>
      </trkpt>
      <trkpt lat="45.53213" lon="13.63287">
        <ele>78</ele>
        <time>2026-08-20T10:36:52+00:00</time>
      </trkpt>
      <trkpt lat="45.53213" lon="13.63277">
        <ele>78</ele>
        <time>2026-08-20T10:36:55+00:00</time>
      </trkpt>
      <trkpt lat="45.53209" lon="13.6327">
        <ele>80</ele>
        <time>2026-08-20T10:36:58+00:00</time>
      </trkpt>
      <trkpt lat="45.5319" lon="13.63294">
        <ele>80</ele>
        <time>2026-08-20T10:37:01+00:00</time>
      </trkpt>
      <trkpt lat="45.53159" lon="13.63335">
        <ele>85</ele>
        <time>2026-08-20T10:37:04+00:00</time>
      </trkpt>
      <trkpt lat="45.53153" lon="13.63335">
        <ele>85</ele>
        <time>2026-08-20T10:37:07+00:00</time>
      </trkpt>
      <trkpt lat="45.53134" lon="13.63316">
        <ele>87</ele>
        <time>2026-08-20T10:37:10+00:00</time>
      </trkpt>
      <trkpt lat="45.53111" lon="13.63293">
        <ele>87</ele>
        <time>2026-08-20T10:37:13+00:00</time>
      </trkpt>
      <trkpt lat="45.53121" lon="13.63261">
        <ele>88</ele>
        <time>2026-08-20T10:37:16+00:00</time>
      </trkpt>
      <trkpt lat="45.53132" lon="13.63226">
        <ele>88</ele>
        <time>2026-08-20T10:37:19+00:00</time>
      </trkpt>
      <trkpt lat="45.53147" lon="13.63192">
        <ele>88</ele>
        <time>2026-08-20T10:37:22+00:00</time>
      </trkpt>
      <trkpt lat="45.53171" lon="13.6314">
        <ele>88</ele>
        <time>2026-08-20T10:37:25+00:00</time>
      </trkpt>
      <trkpt lat="45.53183" lon="13.63108">
        <ele>87</ele>
        <time>2026-08-20T10:37:28+00:00</time>
      </trkpt>
      <trkpt lat="45.53196" lon="13.63071">
        <ele>87</ele>
        <time>2026-08-20T10:37:31+00:00</time>
      </trkpt>
      <trkpt lat="45.53201" lon="13.6305">
        <ele>87</ele>
        <time>2026-08-20T10:37:34+00:00</time>
      </trkpt>
      <trkpt lat="45.53204" lon="13.63027">
        <ele>88</ele>
        <time>2026-08-20T10:37:37+00:00</time>
      </trkpt>
      <trkpt lat="45.53206" lon="13.62999">
        <ele>89</ele>
        <time>2026-08-20T10:37:40+00:00</time>
      </trkpt>
      <trkpt lat="45.53203" lon="13.62963">
        <ele>90</ele>
        <time>2026-08-20T10:37:43+00:00</time>
      </trkpt>
      <trkpt lat="45.53202" lon="13.629">
        <ele>92</ele>
        <time>2026-08-20T10:37:46+00:00</time>
      </trkpt>
      <trkpt lat="45.53206" lon="13.62855">
        <ele>93</ele>
        <time>2026-08-20T10:37:49+00:00</time>
      </trkpt>
      <trkpt lat="45.5321" lon="13.62811">
        <ele>94</ele>
        <time>2026-08-20T10:37:52+00:00</time>
      </trkpt>
      <trkpt lat="45.53214" lon="13.62765">
        <ele>95</ele>
        <time>2026-08-20T10:37:55+00:00</time>
      </trkpt>
      <trkpt lat="45.53217" lon="13.62719">
        <ele>95</ele>
        <time>2026-08-20T10:37:58+00:00</time>
      </trkpt>
      <trkpt lat="45.53221" lon="13.62672">
        <ele>93</ele>
        <time>2026-08-20T10:38:01+00:00</time>
      </trkpt>
      <trkpt lat="45.53225" lon="13.62615">
        <ele>93</ele>
        <time>2026-08-20T10:38:04+00:00</time>
      </trkpt>
      <trkpt lat="45.53228" lon="13.62593">
        <ele>93</ele>
        <time>2026-08-20T10:38:07+00:00</time>
      </trkpt>
      <trkpt lat="45.53234" lon="13.62568">
        <ele>92</ele>
        <time>2026-08-20T10:38:10+00:00</time>
      </trkpt>
      <trkpt lat="45.53241" lon="13.62537">
        <ele>92</ele>
        <time>2026-08-20T10:38:13+00:00</time>
      </trkpt>
      <trkpt lat="45.53253" lon="13.6249">
        <ele>93</ele>
        <time>2026-08-20T10:38:16+00:00</time>
      </trkpt>
      <trkpt lat="45.53265" lon="13.62442">
        <ele>94</ele>
        <time>2026-08-20T10:38:19+00:00</time>
      </trkpt>
      <trkpt lat="45.53288" lon="13.62349">
        <ele>98</ele>
        <time>2026-08-20T10:38:22+00:00</time>
      </trkpt>
      <trkpt lat="45.53296" lon="13.62317">
        <ele>99</ele>
        <time>2026-08-20T10:38:25+00:00</time>
      </trkpt>
      <trkpt lat="45.53305" lon="13.62286">
        <ele>101</ele>
        <time>2026-08-20T10:38:28+00:00</time>
      </trkpt>
      <trkpt lat="45.53311" lon="13.62252">
        <ele>102</ele>
        <time>2026-08-20T10:38:31+00:00</time>
      </trkpt>
      <trkpt lat="45.53324" lon="13.622">
        <ele>103</ele>
        <time>2026-08-20T10:38:34+00:00</time>
      </trkpt>
      <trkpt lat="45.53336" lon="13.62147">
        <ele>103</ele>
        <time>2026-08-20T10:38:37+00:00</time>
      </trkpt>
      <trkpt lat="45.53349" lon="13.62095">
        <ele>105</ele>
        <time>2026-08-20T10:38:40+00:00</time>
      </trkpt>
      <trkpt lat="45.53362" lon="13.62042">
        <ele>107</ele>
        <time>2026-08-20T10:38:43+00:00</time>
      </trkpt>
      <trkpt lat="45.53383" lon="13.61955">
        <ele>106</ele>
        <time>2026-08-20T10:38:46+00:00</time>
      </trkpt>
      <trkpt lat="45.53344" lon="13.61939">
        <ele>105</ele>
        <time>2026-08-20T10:38:49+00:00</time>
      </trkpt>
      <trkpt lat="45.53338" lon="13.61933">
        <ele>104</ele>
        <time>2026-08-20T10:38:52+00:00</time>
      </trkpt>
      <trkpt lat="45.53336" lon="13.61929">
        <ele>104</ele>
        <time>2026-08-20T10:38:55+00:00</time>
      </trkpt>
      <trkpt lat="45.53335" lon="13.61922">
        <ele>104</ele>
        <time>2026-08-20T10:38:58+00:00</time>
      </trkpt>
      <trkpt lat="45.53336" lon="13.61899">
        <ele>103</ele>
        <time>2026-08-20T10:39:01+00:00</time>
      </trkpt>
      <trkpt lat="45.53338" lon="13.61874">
        <ele>103</ele>
        <time>2026-08-20T10:39:04+00:00</time>
      </trkpt>
      <trkpt lat="45.53338" lon="13.61853">
        <ele>102</ele>
        <time>2026-08-20T10:39:07+00:00</time>
      </trkpt>
      <trkpt lat="45.53335" lon="13.61849">
        <ele>102</ele>
        <time>2026-08-20T10:39:10+00:00</time>
      </trkpt>
      <trkpt lat="45.53309" lon="13.61834">
        <ele>96</ele>
        <time>2026-08-20T10:39:13+00:00</time>
      </trkpt>
      <trkpt lat="45.53305" lon="13.61826">
        <ele>95</ele>
        <time>2026-08-20T10:39:16+00:00</time>
      </trkpt>
      <trkpt lat="45.53282" lon="13.61802">
        <ele>90</ele>
        <time>2026-08-20T10:39:19+00:00</time>
      </trkpt>
      <trkpt lat="45.53287" lon="13.61747">
        <ele>89</ele>
        <time>2026-08-20T10:39:22+00:00</time>
      </trkpt>
      <trkpt lat="45.53286" lon="13.61733">
        <ele>88</ele>
        <time>2026-08-20T10:39:25+00:00</time>
      </trkpt>
      <trkpt lat="45.53283" lon="13.61725">
        <ele>88</ele>
        <time>2026-08-20T10:39:28+00:00</time>
      </trkpt>
      <trkpt lat="45.53279" lon="13.61719">
        <ele>85</ele>
        <time>2026-08-20T10:39:31+00:00</time>
      </trkpt>
      <trkpt lat="45.53268" lon="13.61709">
        <ele>83</ele>
        <time>2026-08-20T10:39:34+00:00</time>
      </trkpt>
      <trkpt lat="45.53265" lon="13.61702">
        <ele>83</ele>
        <time>2026-08-20T10:39:37+00:00</time>
      </trkpt>
      <trkpt lat="45.53263" lon="13.61684">
        <ele>82</ele>
        <time>2026-08-20T10:39:40+00:00</time>
      </trkpt>
      <trkpt lat="45.53266" lon="13.6164">
        <ele>82</ele>
        <time>2026-08-20T10:39:43+00:00</time>
      </trkpt>
      <trkpt lat="45.53266" lon="13.61597">
        <ele>82</ele>
        <time>2026-08-20T10:39:46+00:00</time>
      </trkpt>
      <trkpt lat="45.5326" lon="13.6153">
        <ele>82</ele>
        <time>2026-08-20T10:39:49+00:00</time>
      </trkpt>
      <trkpt lat="45.53269" lon="13.61498">
        <ele>81</ele>
        <time>2026-08-20T10:39:52+00:00</time>
      </trkpt>
      <trkpt lat="45.53279" lon="13.61474">
        <ele>81</ele>
        <time>2026-08-20T10:39:55+00:00</time>
      </trkpt>
      <trkpt lat="45.53252" lon="13.61461">
        <ele>79</ele>
        <time>2026-08-20T10:39:58+00:00</time>
      </trkpt>
      <trkpt lat="45.53211" lon="13.61442">
        <ele>74</ele>
        <time>2026-08-20T10:40:01+00:00</time>
      </trkpt>
      <trkpt lat="45.53196" lon="13.61425">
        <ele>72</ele>
        <time>2026-08-20T10:40:04+00:00</time>
      </trkpt>
      <trkpt lat="45.53189" lon="13.61403">
        <ele>69</ele>
        <time>2026-08-20T10:40:07+00:00</time>
      </trkpt>
      <trkpt lat="45.53178" lon="13.61386">
        <ele>67</ele>
        <time>2026-08-20T10:40:10+00:00</time>
      </trkpt>
      <trkpt lat="45.53158" lon="13.61365">
        <ele>63</ele>
        <time>2026-08-20T10:40:13+00:00</time>
      </trkpt>
      <trkpt lat="45.53133" lon="13.61339">
        <ele>57</ele>
        <time>2026-08-20T10:40:16+00:00</time>
      </trkpt>
      <trkpt lat="45.53112" lon="13.61326">
        <ele>54</ele>
        <time>2026-08-20T10:40:19+00:00</time>
      </trkpt>
      <trkpt lat="45.53093" lon="13.61303">
        <ele>51</ele>
        <time>2026-08-20T10:40:22+00:00</time>
      </trkpt>
      <trkpt lat="45.53065" lon="13.61266">
        <ele>45</ele>
        <time>2026-08-20T10:40:25+00:00</time>
      </trkpt>
      <trkpt lat="45.5305" lon="13.61251">
        <ele>44</ele>
        <time>2026-08-20T10:40:28+00:00</time>
      </trkpt>
      <trkpt lat="45.53033" lon="13.6124">
        <ele>42</ele>
        <time>2026-08-20T10:40:31+00:00</time>
      </trkpt>
      <trkpt lat="45.5303" lon="13.61238">
        <ele>41</ele>
        <time>2026-08-20T10:40:34+00:00</time>
      </trkpt>
      <trkpt lat="45.52992" lon="13.61219">
        <ele>38</ele>
        <time>2026-08-20T10:40:37+00:00</time>
      </trkpt>
      <trkpt lat="45.52981" lon="13.61208">
        <ele>36</ele>
        <time>2026-08-20T10:40:40+00:00</time>
      </trkpt>
      <trkpt lat="45.52949" lon="13.612">
        <ele>31</ele>
        <time>2026-08-20T10:40:43+00:00</time>
      </trkpt>
      <trkpt lat="45.52915" lon="13.61227">
        <ele>26</ele>
        <time>2026-08-20T10:40:46+00:00</time>
      </trkpt>
      <trkpt lat="45.52897" lon="13.61225">
        <ele>22</ele>
        <time>2026-08-20T10:40:49+00:00</time>
      </trkpt>
      <trkpt lat="45.52876" lon="13.61212">
        <ele>17</ele>
        <time>2026-08-20T10:40:52+00:00</time>
      </trkpt>
      <trkpt lat="45.52861" lon="13.61212">
        <ele>15</ele>
        <time>2026-08-20T10:40:55+00:00</time>
      </trkpt>
      <trkpt lat="45.52846" lon="13.61219">
        <ele>11</ele>
        <time>2026-08-20T10:40:58+00:00</time>
      </trkpt>
      <trkpt lat="45.52807" lon="13.61191">
        <ele>6</ele>
        <time>2026-08-20T10:41:01+00:00</time>
      </trkpt>
      <trkpt lat="45.52797" lon="13.61187">
        <ele>5</ele>
        <time>2026-08-20T10:41:04+00:00</time>
      </trkpt>
      <trkpt lat="45.52769" lon="13.61189">
        <ele>3</ele>
        <time>2026-08-20T10:41:07+00:00</time>
      </trkpt>
      <trkpt lat="45.52744" lon="13.61173">
        <ele>2</ele>
        <time>2026-08-20T10:41:10+00:00</time>
      </trkpt>
      <trkpt lat="45.52713" lon="13.61152">
        <ele>1</ele>
        <time>2026-08-20T10:41:13+00:00</time>
      </trkpt>
      <trkpt lat="45.52698" lon="13.61155">
        <ele>1</ele>
        <time>2026-08-20T10:41:16+00:00</time>
      </trkpt>
      <trkpt lat="45.52698" lon="13.61148">
        <ele>1</ele>
        <time>2026-08-20T10:41:19+00:00</time>
      </trkpt>
      <trkpt lat="45.52696" lon="13.6114">
        <ele>1</ele>
        <time>2026-08-20T10:41:22+00:00</time>
      </trkpt>
      <trkpt lat="45.52668" lon="13.61146">
        <ele>1</ele>
        <time>2026-08-20T10:41:25+00:00</time>
      </trkpt>
      <trkpt lat="45.52648" lon="13.61146">
        <ele>1</ele>
        <time>2026-08-20T10:41:28+00:00</time>
      </trkpt>
      <trkpt lat="45.52629" lon="13.61135">
        <ele>1</ele>
        <time>2026-08-20T10:41:31+00:00</time>
      </trkpt>
      <trkpt lat="45.52601" lon="13.61112">
        <ele>1</ele>
        <time>2026-08-20T10:41:34+00:00</time>
      </trkpt>
      <trkpt lat="45.5258" lon="13.6109">
        <ele>1</ele>
        <time>2026-08-20T10:41:37+00:00</time>
      </trkpt>
      <trkpt lat="45.52578" lon="13.61084">
        <ele>1</ele>
        <time>2026-08-20T10:41:40+00:00</time>
      </trkpt>
      <trkpt lat="45.52571" lon="13.61077">
        <ele>1</ele>
        <time>2026-08-20T10:41:43+00:00</time>
      </trkpt>
      <trkpt lat="45.52578" lon="13.61084">
        <ele>1</ele>
        <time>2026-08-20T10:41:46+00:00</time>
      </trkpt>
      <trkpt lat="45.5258" lon="13.6109">
        <ele>1</ele>
        <time>2026-08-20T10:41:49+00:00</time>
      </trkpt>
      <trkpt lat="45.52601" lon="13.61112">
        <ele>1</ele>
        <time>2026-08-20T10:41:52+00:00</time>
      </trkpt>
      <trkpt lat="45.52629" lon="13.61135">
        <ele>1</ele>
        <time>2026-08-20T10:41:55+00:00</time>
      </trkpt>
      <trkpt lat="45.52648" lon="13.61146">
        <ele>1</ele>
        <time>2026-08-20T10:41:58+00:00</time>
      </trkpt>
      <trkpt lat="45.52668" lon="13.61146">
        <ele>1</ele>
        <time>2026-08-20T10:42:01+00:00</time>
      </trkpt>
      <trkpt lat="45.52687" lon="13.61141">
        <ele>1</ele>
        <time>2026-08-20T10:42:04+00:00</time>
      </trkpt>
      <trkpt lat="45.52668" lon="13.61146">
        <ele>1</ele>
        <time>2026-08-20T10:42:07+00:00</time>
      </trkpt>
      <trkpt lat="45.52648" lon="13.61146">
        <ele>1</ele>
        <time>2026-08-20T10:42:10+00:00</time>
      </trkpt>
      <trkpt lat="45.52629" lon="13.61135">
        <ele>1</ele>
        <time>2026-08-20T10:42:13+00:00</time>
      </trkpt>
      <trkpt lat="45.52601" lon="13.61112">
        <ele>1</ele>
        <time>2026-08-20T10:42:16+00:00</time>
      </trkpt>
      <trkpt lat="45.5258" lon="13.6109">
        <ele>1</ele>
        <time>2026-08-20T10:42:19+00:00</time>
      </trkpt>
      <trkpt lat="45.52578" lon="13.61084">
        <ele>1</ele>
        <time>2026-08-20T10:42:22+00:00</time>
      </trkpt>
      <trkpt lat="45.52571" lon="13.61077">
        <ele>1</ele>
        <time>2026-08-20T10:42:25+00:00</time>
      </trkpt>
      <trkpt lat="45.5255" lon="13.61064">
        <ele>1</ele>
        <time>2026-08-20T10:42:28+00:00</time>
      </trkpt>
      <trkpt lat="45.5252" lon="13.61045">
        <ele>1</ele>
        <time>2026-08-20T10:42:31+00:00</time>
      </trkpt>
      <trkpt lat="45.52513" lon="13.61015">
        <ele>1</ele>
        <time>2026-08-20T10:42:34+00:00</time>
      </trkpt>
      <trkpt lat="45.52515" lon="13.60991">
        <ele>1</ele>
        <time>2026-08-20T10:42:37+00:00</time>
      </trkpt>
      <trkpt lat="45.5252" lon="13.60979">
        <ele>1</ele>
        <time>2026-08-20T10:42:40+00:00</time>
      </trkpt>
      <trkpt lat="45.5252" lon="13.60949">
        <ele>1</ele>
        <time>2026-08-20T10:42:43+00:00</time>
      </trkpt>
      <trkpt lat="45.52525" lon="13.60904">
        <ele>1</ele>
        <time>2026-08-20T10:42:46+00:00</time>
      </trkpt>
      <trkpt lat="45.52535" lon="13.60818">
        <ele>1</ele>
        <time>2026-08-20T10:42:49+00:00</time>
      </trkpt>
      <trkpt lat="45.52535" lon="13.60796">
        <ele>1</ele>
        <time>2026-08-20T10:42:52+00:00</time>
      </trkpt>
      <trkpt lat="45.52539" lon="13.60753">
        <ele>1</ele>
        <time>2026-08-20T10:42:55+00:00</time>
      </trkpt>
      <trkpt lat="45.52531" lon="13.60706">
        <ele>1</ele>
        <time>2026-08-20T10:42:58+00:00</time>
      </trkpt>
      <trkpt lat="45.52522" lon="13.60659">
        <ele>3</ele>
        <time>2026-08-20T10:43:01+00:00</time>
      </trkpt>
      <trkpt lat="45.52509" lon="13.60582">
        <ele>8</ele>
        <time>2026-08-20T10:43:04+00:00</time>
      </trkpt>
      <trkpt lat="45.52517" lon="13.60532">
        <ele>11</ele>
        <time>2026-08-20T10:43:07+00:00</time>
      </trkpt>
      <trkpt lat="45.52525" lon="13.60483">
        <ele>13</ele>
        <time>2026-08-20T10:43:10+00:00</time>
      </trkpt>
      <trkpt lat="45.52533" lon="13.60433">
        <ele>14</ele>
        <time>2026-08-20T10:43:13+00:00</time>
      </trkpt>
      <trkpt lat="45.52541" lon="13.60382">
        <ele>14</ele>
        <time>2026-08-20T10:43:16+00:00</time>
      </trkpt>
      <trkpt lat="45.5255" lon="13.60332">
        <ele>14</ele>
        <time>2026-08-20T10:43:19+00:00</time>
      </trkpt>
      <trkpt lat="45.52559" lon="13.60282">
        <ele>15</ele>
        <time>2026-08-20T10:43:22+00:00</time>
      </trkpt>
      <trkpt lat="45.52568" lon="13.60232">
        <ele>16</ele>
        <time>2026-08-20T10:43:25+00:00</time>
      </trkpt>
      <trkpt lat="45.5258" lon="13.60167">
        <ele>16</ele>
        <time>2026-08-20T10:43:28+00:00</time>
      </trkpt>
      <trkpt lat="45.52606" lon="13.60179">
        <ele>9</ele>
        <time>2026-08-20T10:43:31+00:00</time>
      </trkpt>
      <trkpt lat="45.52642" lon="13.60195">
        <ele>4</ele>
        <time>2026-08-20T10:43:34+00:00</time>
      </trkpt>
      <trkpt lat="45.52642" lon="13.60206">
        <ele>4</ele>
        <time>2026-08-20T10:43:37+00:00</time>
      </trkpt>
      <trkpt lat="45.52638" lon="13.60215">
        <ele>5</ele>
        <time>2026-08-20T10:43:40+00:00</time>
      </trkpt>
      <trkpt lat="45.52657" lon="13.60225">
        <ele>3</ele>
        <time>2026-08-20T10:43:43+00:00</time>
      </trkpt>
      <trkpt lat="45.52684" lon="13.60245">
        <ele>1</ele>
        <time>2026-08-20T10:43:46+00:00</time>
      </trkpt>
      <trkpt lat="45.5273" lon="13.60279">
        <ele>1</ele>
        <time>2026-08-20T10:43:49+00:00</time>
      </trkpt>
      <trkpt lat="45.5276" lon="13.60296">
        <ele>1</ele>
        <time>2026-08-20T10:43:52+00:00</time>
      </trkpt>
      <trkpt lat="45.52787" lon="13.60317">
        <ele>1</ele>
        <time>2026-08-20T10:43:55+00:00</time>
      </trkpt>
      <trkpt lat="45.52787" lon="13.60368">
        <ele>1</ele>
        <time>2026-08-20T10:43:58+00:00</time>
      </trkpt>
      <trkpt lat="45.52805" lon="13.6037">
        <ele>1</ele>
        <time>2026-08-20T10:44:01+00:00</time>
      </trkpt>
      <trkpt lat="45.52831" lon="13.60355">
        <ele>1</ele>
        <time>2026-08-20T10:44:04+00:00</time>
      </trkpt>
      <trkpt lat="45.52862" lon="13.60336">
        <ele>1</ele>
        <time>2026-08-20T10:44:07+00:00</time>
      </trkpt>
      <trkpt lat="45.52882" lon="13.60322">
        <ele>1</ele>
        <time>2026-08-20T10:44:10+00:00</time>
      </trkpt>
      <trkpt lat="45.52902" lon="13.60302">
        <ele>1</ele>
        <time>2026-08-20T10:44:13+00:00</time>
      </trkpt>
      <trkpt lat="45.52916" lon="13.60289">
        <ele>1</ele>
        <time>2026-08-20T10:44:16+00:00</time>
      </trkpt>
      <trkpt lat="45.52921" lon="13.60287">
        <ele>1</ele>
        <time>2026-08-20T10:44:19+00:00</time>
      </trkpt>
      <trkpt lat="45.52929" lon="13.60291">
        <ele>1</ele>
        <time>2026-08-20T10:44:22+00:00</time>
      </trkpt>
      <trkpt lat="45.52936" lon="13.60303">
        <ele>1</ele>
        <time>2026-08-20T10:44:25+00:00</time>
      </trkpt>
      <trkpt lat="45.52944" lon="13.60314">
        <ele>1</ele>
        <time>2026-08-20T10:44:28+00:00</time>
      </trkpt>
      <trkpt lat="45.52951" lon="13.60311">
        <ele>1</ele>
        <time>2026-08-20T10:44:31+00:00</time>
      </trkpt>
      <trkpt lat="45.52961" lon="13.60299">
        <ele>1</ele>
        <time>2026-08-20T10:44:34+00:00</time>
      </trkpt>
      <trkpt lat="45.52974" lon="13.60286">
        <ele>1</ele>
        <time>2026-08-20T10:44:37+00:00</time>
      </trkpt>
      <trkpt lat="45.52973" lon="13.60287">
        <ele>1</ele>
        <time>2026-08-20T10:44:40+00:00</time>
      </trkpt>
      <trkpt lat="45.52994" lon="13.60268">
        <ele>1</ele>
        <time>2026-08-20T10:44:43+00:00</time>
      </trkpt>
      <trkpt lat="45.53032" lon="13.60234">
        <ele>1</ele>
        <time>2026-08-20T10:44:46+00:00</time>
      </trkpt>
      <trkpt lat="45.53031" lon="13.60235">
        <ele>1</ele>
        <time>2026-08-20T10:44:49+00:00</time>
      </trkpt>
      <trkpt lat="45.53052" lon="13.60215">
        <ele>1</ele>
        <time>2026-08-20T10:44:52+00:00</time>
      </trkpt>
      <trkpt lat="45.53079" lon="13.6019">
        <ele>1</ele>
        <time>2026-08-20T10:44:55+00:00</time>
      </trkpt>
      <trkpt lat="45.53097" lon="13.60178">
        <ele>1</ele>
        <time>2026-08-20T10:44:58+00:00</time>
      </trkpt>
      <trkpt lat="45.53107" lon="13.60178">
        <ele>1</ele>
        <time>2026-08-20T10:45:01+00:00</time>
      </trkpt>
      <trkpt lat="45.53119" lon="13.60186">
        <ele>1</ele>
        <time>2026-08-20T10:45:04+00:00</time>
      </trkpt>
      <trkpt lat="45.53141" lon="13.60216">
        <ele>1</ele>
        <time>2026-08-20T10:45:07+00:00</time>
      </trkpt>
      <trkpt lat="45.53148" lon="13.60224">
        <ele>1</ele>
        <time>2026-08-20T10:45:10+00:00</time>
      </trkpt>
      <trkpt lat="45.53153" lon="13.60221">
        <ele>1</ele>
        <time>2026-08-20T10:45:13+00:00</time>
      </trkpt>
      <trkpt lat="45.53171" lon="13.60205">
        <ele>1</ele>
        <time>2026-08-20T10:45:16+00:00</time>
      </trkpt>
      <trkpt lat="45.53184" lon="13.60234">
        <ele>1</ele>
        <time>2026-08-20T10:45:19+00:00</time>
      </trkpt>
      <trkpt lat="45.53198" lon="13.60265">
        <ele>2</ele>
        <time>2026-08-20T10:45:22+00:00</time>
      </trkpt>
      <trkpt lat="45.53211" lon="13.60298">
        <ele>2</ele>
        <time>2026-08-20T10:45:25+00:00</time>
      </trkpt>
      <trkpt lat="45.53219" lon="13.60327">
        <ele>2</ele>
        <time>2026-08-20T10:45:28+00:00</time>
      </trkpt>
      <trkpt lat="45.53227" lon="13.60368">
        <ele>2</ele>
        <time>2026-08-20T10:45:31+00:00</time>
      </trkpt>
      <trkpt lat="45.53242" lon="13.60442">
        <ele>2</ele>
        <time>2026-08-20T10:45:34+00:00</time>
      </trkpt>
      <trkpt lat="45.53244" lon="13.60479">
        <ele>2</ele>
        <time>2026-08-20T10:45:37+00:00</time>
      </trkpt>
      <trkpt lat="45.53244" lon="13.60487">
        <ele>2</ele>
        <time>2026-08-20T10:45:40+00:00</time>
      </trkpt>
      <trkpt lat="45.53276" lon="13.60484">
        <ele>4</ele>
        <time>2026-08-20T10:45:43+00:00</time>
      </trkpt>
      <trkpt lat="45.53307" lon="13.60481">
        <ele>4</ele>
        <time>2026-08-20T10:45:46+00:00</time>
      </trkpt>
      <trkpt lat="45.53353" lon="13.60476">
        <ele>6</ele>
        <time>2026-08-20T10:45:49+00:00</time>
      </trkpt>
      <trkpt lat="45.53351" lon="13.6044">
        <ele>6</ele>
        <time>2026-08-20T10:45:52+00:00</time>
      </trkpt>
      <trkpt lat="45.53349" lon="13.60398">
        <ele>7</ele>
        <time>2026-08-20T10:45:55+00:00</time>
      </trkpt>
      <trkpt lat="45.53348" lon="13.60363">
        <ele>8</ele>
        <time>2026-08-20T10:45:58+00:00</time>
      </trkpt>
      <trkpt lat="45.53349" lon="13.60355">
        <ele>9</ele>
        <time>2026-08-20T10:46:01+00:00</time>
      </trkpt>
      <trkpt lat="45.53358" lon="13.60358">
        <ele>10</ele>
        <time>2026-08-20T10:46:04+00:00</time>
      </trkpt>
      <trkpt lat="45.53387" lon="13.60375">
        <ele>12</ele>
        <time>2026-08-20T10:46:07+00:00</time>
      </trkpt>
      <trkpt lat="45.5339" lon="13.6037">
        <ele>13</ele>
        <time>2026-08-20T10:46:10+00:00</time>
      </trkpt>
      <trkpt lat="45.5341" lon="13.60322">
        <ele>19</ele>
        <time>2026-08-20T10:46:13+00:00</time>
      </trkpt>
      <trkpt lat="45.53412" lon="13.60324">
        <ele>20</ele>
        <time>2026-08-20T10:46:16+00:00</time>
      </trkpt>
      <trkpt lat="45.53421" lon="13.60305">
        <ele>23</ele>
        <time>2026-08-20T10:46:19+00:00</time>
      </trkpt>
      <trkpt lat="45.53412" lon="13.6027">
        <ele>23</ele>
        <time>2026-08-20T10:46:22+00:00</time>
      </trkpt>
      <trkpt lat="45.53434" lon="13.60238">
        <ele>26</ele>
        <time>2026-08-20T10:46:25+00:00</time>
      </trkpt>
      <trkpt lat="45.53438" lon="13.60238">
        <ele>26</ele>
        <time>2026-08-20T10:46:28+00:00</time>
      </trkpt>
      <trkpt lat="45.53445" lon="13.60219">
        <ele>27</ele>
        <time>2026-08-20T10:46:31+00:00</time>
      </trkpt>
      <trkpt lat="45.53451" lon="13.60217">
        <ele>27</ele>
        <time>2026-08-20T10:46:34+00:00</time>
      </trkpt>
      <trkpt lat="45.53462" lon="13.60234">
        <ele>28</ele>
        <time>2026-08-20T10:46:37+00:00</time>
      </trkpt>
      <trkpt lat="45.53483" lon="13.60236">
        <ele>29</ele>
        <time>2026-08-20T10:46:40+00:00</time>
      </trkpt>
      <trkpt lat="45.53503" lon="13.6026">
        <ele>30</ele>
        <time>2026-08-20T10:46:43+00:00</time>
      </trkpt>
      <trkpt lat="45.53537" lon="13.60281">
        <ele>32</ele>
        <time>2026-08-20T10:46:46+00:00</time>
      </trkpt>
      <trkpt lat="45.53558" lon="13.60281">
        <ele>33</ele>
        <time>2026-08-20T10:46:49+00:00</time>
      </trkpt>
      <trkpt lat="45.53575" lon="13.60292">
        <ele>35</ele>
        <time>2026-08-20T10:46:52+00:00</time>
      </trkpt>
      <trkpt lat="45.5359" lon="13.60292">
        <ele>36</ele>
        <time>2026-08-20T10:46:55+00:00</time>
      </trkpt>
      <trkpt lat="45.53601" lon="13.60298">
        <ele>36</ele>
        <time>2026-08-20T10:46:58+00:00</time>
      </trkpt>
      <trkpt lat="45.53623" lon="13.60298">
        <ele>37</ele>
        <time>2026-08-20T10:47:01+00:00</time>
      </trkpt>
      <trkpt lat="45.53646" lon="13.60311">
        <ele>42</ele>
        <time>2026-08-20T10:47:04+00:00</time>
      </trkpt>
      <trkpt lat="45.53672" lon="13.60324">
        <ele>44</ele>
        <time>2026-08-20T10:47:07+00:00</time>
      </trkpt>
      <trkpt lat="45.53693" lon="13.60346">
        <ele>46</ele>
        <time>2026-08-20T10:47:10+00:00</time>
      </trkpt>
      <trkpt lat="45.53704" lon="13.60382">
        <ele>49</ele>
        <time>2026-08-20T10:47:13+00:00</time>
      </trkpt>
      <trkpt lat="45.53711" lon="13.60436">
        <ele>49</ele>
        <time>2026-08-20T10:47:16+00:00</time>
      </trkpt>
      <trkpt lat="45.53711" lon="13.60471">
        <ele>50</ele>
        <time>2026-08-20T10:47:19+00:00</time>
      </trkpt>
      <trkpt lat="45.53711" lon="13.60511">
        <ele>50</ele>
        <time>2026-08-20T10:47:22+00:00</time>
      </trkpt>
      <trkpt lat="45.53713" lon="13.60548">
        <ele>49</ele>
        <time>2026-08-20T10:47:25+00:00</time>
      </trkpt>
      <trkpt lat="45.53717" lon="13.60597">
        <ele>49</ele>
        <time>2026-08-20T10:47:28+00:00</time>
      </trkpt>
      <trkpt lat="45.53724" lon="13.60618">
        <ele>50</ele>
        <time>2026-08-20T10:47:31+00:00</time>
      </trkpt>
      <trkpt lat="45.53726" lon="13.60633">
        <ele>50</ele>
        <time>2026-08-20T10:47:34+00:00</time>
      </trkpt>
      <trkpt lat="45.53724" lon="13.60674">
        <ele>50</ele>
        <time>2026-08-20T10:47:37+00:00</time>
      </trkpt>
      <trkpt lat="45.53721" lon="13.6074">
        <ele>49</ele>
        <time>2026-08-20T10:47:40+00:00</time>
      </trkpt>
      <trkpt lat="45.53704" lon="13.60803">
        <ele>49</ele>
        <time>2026-08-20T10:47:43+00:00</time>
      </trkpt>
      <trkpt lat="45.53702" lon="13.60843">
        <ele>49</ele>
        <time>2026-08-20T10:47:46+00:00</time>
      </trkpt>
      <trkpt lat="45.53681" lon="13.60888">
        <ele>49</ele>
        <time>2026-08-20T10:47:49+00:00</time>
      </trkpt>
      <trkpt lat="45.53681" lon="13.60906">
        <ele>50</ele>
        <time>2026-08-20T10:47:52+00:00</time>
      </trkpt>
      <trkpt lat="45.53685" lon="13.60946">
        <ele>49</ele>
        <time>2026-08-20T10:47:55+00:00</time>
      </trkpt>
      <trkpt lat="45.53684" lon="13.60988">
        <ele>48</ele>
        <time>2026-08-20T10:47:58+00:00</time>
      </trkpt>
      <trkpt lat="45.53683" lon="13.61054">
        <ele>45</ele>
        <time>2026-08-20T10:48:01+00:00</time>
      </trkpt>
      <trkpt lat="45.53694" lon="13.61092">
        <ele>45</ele>
        <time>2026-08-20T10:48:04+00:00</time>
      </trkpt>
      <trkpt lat="45.53711" lon="13.61152">
        <ele>46</ele>
        <time>2026-08-20T10:48:07+00:00</time>
      </trkpt>
      <trkpt lat="45.53721" lon="13.6117">
        <ele>47</ele>
        <time>2026-08-20T10:48:10+00:00</time>
      </trkpt>
      <trkpt lat="45.53721" lon="13.61178">
        <ele>47</ele>
        <time>2026-08-20T10:48:13+00:00</time>
      </trkpt>
      <trkpt lat="45.53732" lon="13.61217">
        <ele>49</ele>
        <time>2026-08-20T10:48:16+00:00</time>
      </trkpt>
      <trkpt lat="45.53743" lon="13.61247">
        <ele>51</ele>
        <time>2026-08-20T10:48:19+00:00</time>
      </trkpt>
      <trkpt lat="45.53745" lon="13.61292">
        <ele>56</ele>
        <time>2026-08-20T10:48:22+00:00</time>
      </trkpt>
      <trkpt lat="45.53743" lon="13.61335">
        <ele>62</ele>
        <time>2026-08-20T10:48:25+00:00</time>
      </trkpt>
      <trkpt lat="45.53732" lon="13.6138">
        <ele>63</ele>
        <time>2026-08-20T10:48:28+00:00</time>
      </trkpt>
      <trkpt lat="45.53729" lon="13.61425">
        <ele>65</ele>
        <time>2026-08-20T10:48:31+00:00</time>
      </trkpt>
      <trkpt lat="45.53725" lon="13.61469">
        <ele>68</ele>
        <time>2026-08-20T10:48:34+00:00</time>
      </trkpt>
      <trkpt lat="45.53721" lon="13.61515">
        <ele>71</ele>
        <time>2026-08-20T10:48:37+00:00</time>
      </trkpt>
      <trkpt lat="45.53719" lon="13.6153">
        <ele>70</ele>
        <time>2026-08-20T10:48:40+00:00</time>
      </trkpt>
      <trkpt lat="45.53703" lon="13.61554">
        <ele>71</ele>
        <time>2026-08-20T10:48:43+00:00</time>
      </trkpt>
      <trkpt lat="45.53681" lon="13.61588">
        <ele>73</ele>
        <time>2026-08-20T10:48:46+00:00</time>
      </trkpt>
      <trkpt lat="45.53661" lon="13.61613">
        <ele>77</ele>
        <time>2026-08-20T10:48:49+00:00</time>
      </trkpt>
      <trkpt lat="45.53636" lon="13.61644">
        <ele>83</ele>
        <time>2026-08-20T10:48:52+00:00</time>
      </trkpt>
      <trkpt lat="45.53617" lon="13.61681">
        <ele>88</ele>
        <time>2026-08-20T10:48:55+00:00</time>
      </trkpt>
      <trkpt lat="45.53598" lon="13.61718">
        <ele>94</ele>
        <time>2026-08-20T10:48:58+00:00</time>
      </trkpt>
      <trkpt lat="45.53578" lon="13.6176">
        <ele>98</ele>
        <time>2026-08-20T10:49:01+00:00</time>
      </trkpt>
      <trkpt lat="45.5356" lon="13.61808">
        <ele>99</ele>
        <time>2026-08-20T10:49:04+00:00</time>
      </trkpt>
      <trkpt lat="45.53543" lon="13.61856">
        <ele>102</ele>
        <time>2026-08-20T10:49:07+00:00</time>
      </trkpt>
      <trkpt lat="45.53525" lon="13.61904">
        <ele>103</ele>
        <time>2026-08-20T10:49:10+00:00</time>
      </trkpt>
      <trkpt lat="45.53508" lon="13.61953">
        <ele>105</ele>
        <time>2026-08-20T10:49:13+00:00</time>
      </trkpt>
      <trkpt lat="45.53488" lon="13.62009">
        <ele>105</ele>
        <time>2026-08-20T10:49:16+00:00</time>
      </trkpt>
      <trkpt lat="45.53475" lon="13.62034">
        <ele>105</ele>
        <time>2026-08-20T10:49:19+00:00</time>
      </trkpt>
      <trkpt lat="45.53451" lon="13.62073">
        <ele>105</ele>
        <time>2026-08-20T10:49:22+00:00</time>
      </trkpt>
      <trkpt lat="45.53428" lon="13.62112">
        <ele>104</ele>
        <time>2026-08-20T10:49:25+00:00</time>
      </trkpt>
      <trkpt lat="45.53404" lon="13.62151">
        <ele>102</ele>
        <time>2026-08-20T10:49:28+00:00</time>
      </trkpt>
      <trkpt lat="45.53376" lon="13.62197">
        <ele>101</ele>
        <time>2026-08-20T10:49:31+00:00</time>
      </trkpt>
      <trkpt lat="45.5336" lon="13.62227">
        <ele>100</ele>
        <time>2026-08-20T10:49:34+00:00</time>
      </trkpt>
      <trkpt lat="45.53342" lon="13.62262">
        <ele>101</ele>
        <time>2026-08-20T10:49:37+00:00</time>
      </trkpt>
      <trkpt lat="45.53335" lon="13.62266">
        <ele>100</ele>
        <time>2026-08-20T10:49:40+00:00</time>
      </trkpt>
      <trkpt lat="45.53329" lon="13.62264">
        <ele>101</ele>
        <time>2026-08-20T10:49:43+00:00</time>
      </trkpt>
      <trkpt lat="45.53312" lon="13.62253">
        <ele>100</ele>
        <time>2026-08-20T10:49:46+00:00</time>
      </trkpt>
      <trkpt lat="45.533" lon="13.62299">
        <ele>100</ele>
        <time>2026-08-20T10:49:49+00:00</time>
      </trkpt>
      <trkpt lat="45.53289" lon="13.62345">
        <ele>98</ele>
        <time>2026-08-20T10:49:52+00:00</time>
      </trkpt>
      <trkpt lat="45.53271" lon="13.62418">
        <ele>95</ele>
        <time>2026-08-20T10:49:55+00:00</time>
      </trkpt>
      <trkpt lat="45.5326" lon="13.62464">
        <ele>94</ele>
        <time>2026-08-20T10:49:58+00:00</time>
      </trkpt>
      <trkpt lat="45.53249" lon="13.6251">
        <ele>93</ele>
        <time>2026-08-20T10:50:01+00:00</time>
      </trkpt>
      <trkpt lat="45.53232" lon="13.62579">
        <ele>93</ele>
        <time>2026-08-20T10:50:04+00:00</time>
      </trkpt>
      <trkpt lat="45.53224" lon="13.62637">
        <ele>93</ele>
        <time>2026-08-20T10:50:07+00:00</time>
      </trkpt>
      <trkpt lat="45.53221" lon="13.62674">
        <ele>93</ele>
        <time>2026-08-20T10:50:10+00:00</time>
      </trkpt>
      <trkpt lat="45.53218" lon="13.62719">
        <ele>95</ele>
        <time>2026-08-20T10:50:13+00:00</time>
      </trkpt>
      <trkpt lat="45.53214" lon="13.62763">
        <ele>95</ele>
        <time>2026-08-20T10:50:16+00:00</time>
      </trkpt>
      <trkpt lat="45.53211" lon="13.62809">
        <ele>94</ele>
        <time>2026-08-20T10:50:19+00:00</time>
      </trkpt>
      <trkpt lat="45.53211" lon="13.62815">
        <ele>94</ele>
        <time>2026-08-20T10:50:22+00:00</time>
      </trkpt>
      <trkpt lat="45.53207" lon="13.62858">
        <ele>93</ele>
        <time>2026-08-20T10:50:25+00:00</time>
      </trkpt>
      <trkpt lat="45.53204" lon="13.62902">
        <ele>92</ele>
        <time>2026-08-20T10:50:28+00:00</time>
      </trkpt>
      <trkpt lat="45.532" lon="13.62948">
        <ele>91</ele>
        <time>2026-08-20T10:50:31+00:00</time>
      </trkpt>
      <trkpt lat="45.53206" lon="13.62998">
        <ele>89</ele>
        <time>2026-08-20T10:50:34+00:00</time>
      </trkpt>
      <trkpt lat="45.532" lon="13.63062">
        <ele>87</ele>
        <time>2026-08-20T10:50:37+00:00</time>
      </trkpt>
      <trkpt lat="45.53209" lon="13.63062">
        <ele>87</ele>
        <time>2026-08-20T10:50:40+00:00</time>
      </trkpt>
      <trkpt lat="45.53215" lon="13.6306">
        <ele>86</ele>
        <time>2026-08-20T10:50:43+00:00</time>
      </trkpt>
      <trkpt lat="45.53224" lon="13.63064">
        <ele>85</ele>
        <time>2026-08-20T10:50:46+00:00</time>
      </trkpt>
      <trkpt lat="45.53234" lon="13.63092">
        <ele>84</ele>
        <time>2026-08-20T10:50:49+00:00</time>
      </trkpt>
      <trkpt lat="45.53232" lon="13.63118">
        <ele>81</ele>
        <time>2026-08-20T10:50:52+00:00</time>
      </trkpt>
      <trkpt lat="45.53228" lon="13.63138">
        <ele>83</ele>
        <time>2026-08-20T10:50:55+00:00</time>
      </trkpt>
      <trkpt lat="45.53224" lon="13.63159">
        <ele>82</ele>
        <time>2026-08-20T10:50:58+00:00</time>
      </trkpt>
      <trkpt lat="45.53219" lon="13.63223">
        <ele>82</ele>
        <time>2026-08-20T10:51:01+00:00</time>
      </trkpt>
      <trkpt lat="45.53213" lon="13.63262">
        <ele>79</ele>
        <time>2026-08-20T10:51:04+00:00</time>
      </trkpt>
      <trkpt lat="45.53209" lon="13.6327">
        <ele>80</ele>
        <time>2026-08-20T10:51:07+00:00</time>
      </trkpt>
      <trkpt lat="45.53213" lon="13.63277">
        <ele>78</ele>
        <time>2026-08-20T10:51:10+00:00</time>
      </trkpt>
      <trkpt lat="45.53213" lon="13.63287">
        <ele>78</ele>
        <time>2026-08-20T10:51:13+00:00</time>
      </trkpt>
      <trkpt lat="45.53201" lon="13.6333">
        <ele>77</ele>
        <time>2026-08-20T10:51:16+00:00</time>
      </trkpt>
      <trkpt lat="45.53189" lon="13.63372">
        <ele>77</ele>
        <time>2026-08-20T10:51:19+00:00</time>
      </trkpt>
      <trkpt lat="45.53176" lon="13.63418">
        <ele>76</ele>
        <time>2026-08-20T10:51:22+00:00</time>
      </trkpt>
      <trkpt lat="45.53179" lon="13.63458">
        <ele>73</ele>
        <time>2026-08-20T10:51:25+00:00</time>
      </trkpt>
      <trkpt lat="45.53183" lon="13.63513">
        <ele>70</ele>
        <time>2026-08-20T10:51:28+00:00</time>
      </trkpt>
      <trkpt lat="45.53172" lon="13.63547">
        <ele>68</ele>
        <time>2026-08-20T10:51:31+00:00</time>
      </trkpt>
      <trkpt lat="45.53172" lon="13.63562">
        <ele>67</ele>
        <time>2026-08-20T10:51:34+00:00</time>
      </trkpt>
      <trkpt lat="45.53186" lon="13.63585">
        <ele>63</ele>
        <time>2026-08-20T10:51:37+00:00</time>
      </trkpt>
      <trkpt lat="45.53204" lon="13.63614">
        <ele>56</ele>
        <time>2026-08-20T10:51:40+00:00</time>
      </trkpt>
      <trkpt lat="45.53219" lon="13.63646">
        <ele>52</ele>
        <time>2026-08-20T10:51:43+00:00</time>
      </trkpt>
      <trkpt lat="45.53221" lon="13.63678">
        <ele>48</ele>
        <time>2026-08-20T10:51:46+00:00</time>
      </trkpt>
      <trkpt lat="45.53219" lon="13.63744">
        <ele>45</ele>
        <time>2026-08-20T10:51:49+00:00</time>
      </trkpt>
      <trkpt lat="45.53206" lon="13.63805">
        <ele>42</ele>
        <time>2026-08-20T10:51:52+00:00</time>
      </trkpt>
      <trkpt lat="45.53201" lon="13.63851">
        <ele>35</ele>
        <time>2026-08-20T10:51:55+00:00</time>
      </trkpt>
      <trkpt lat="45.53195" lon="13.63897">
        <ele>33</ele>
        <time>2026-08-20T10:51:58+00:00</time>
      </trkpt>
      <trkpt lat="45.53187" lon="13.63957">
        <ele>27</ele>
        <time>2026-08-20T10:52:01+00:00</time>
      </trkpt>
      <trkpt lat="45.53191" lon="13.63968">
        <ele>25</ele>
        <time>2026-08-20T10:52:04+00:00</time>
      </trkpt>
      <trkpt lat="45.532" lon="13.63965">
        <ele>23</ele>
        <time>2026-08-20T10:52:07+00:00</time>
      </trkpt>
      <trkpt lat="45.53217" lon="13.6394">
        <ele>25</ele>
        <time>2026-08-20T10:52:10+00:00</time>
      </trkpt>
      <trkpt lat="45.53224" lon="13.6394">
        <ele>24</ele>
        <time>2026-08-20T10:52:13+00:00</time>
      </trkpt>
      <trkpt lat="45.53228" lon="13.63948">
        <ele>22</ele>
        <time>2026-08-20T10:52:16+00:00</time>
      </trkpt>
      <trkpt lat="45.5323" lon="13.63974">
        <ele>18</ele>
        <time>2026-08-20T10:52:19+00:00</time>
      </trkpt>
      <trkpt lat="45.53228" lon="13.63989">
        <ele>18</ele>
        <time>2026-08-20T10:52:22+00:00</time>
      </trkpt>
      <trkpt lat="45.53215" lon="13.64008">
        <ele>18</ele>
        <time>2026-08-20T10:52:25+00:00</time>
      </trkpt>
      <trkpt lat="45.53196" lon="13.64013">
        <ele>18</ele>
        <time>2026-08-20T10:52:28+00:00</time>
      </trkpt>
      <trkpt lat="45.53185" lon="13.64023">
        <ele>19</ele>
        <time>2026-08-20T10:52:31+00:00</time>
      </trkpt>
      <trkpt lat="45.53181" lon="13.64036">
        <ele>18</ele>
        <time>2026-08-20T10:52:34+00:00</time>
      </trkpt>
      <trkpt lat="45.53185" lon="13.64049">
        <ele>18</ele>
        <time>2026-08-20T10:52:37+00:00</time>
      </trkpt>
      <trkpt lat="45.53196" lon="13.64068">
        <ele>15</ele>
        <time>2026-08-20T10:52:40+00:00</time>
      </trkpt>
      <trkpt lat="45.53226" lon="13.6409">
        <ele>12</ele>
        <time>2026-08-20T10:52:43+00:00</time>
      </trkpt>
      <trkpt lat="45.53241" lon="13.64083">
        <ele>9</ele>
        <time>2026-08-20T10:52:46+00:00</time>
      </trkpt>
      <trkpt lat="45.53245" lon="13.64079">
        <ele>10</ele>
        <time>2026-08-20T10:52:49+00:00</time>
      </trkpt>
      <trkpt lat="45.53249" lon="13.64068">
        <ele>10</ele>
        <time>2026-08-20T10:52:52+00:00</time>
      </trkpt>
      <trkpt lat="45.53247" lon="13.64066">
        <ele>10</ele>
        <time>2026-08-20T10:52:55+00:00</time>
      </trkpt>
      <trkpt lat="45.53251" lon="13.64056">
        <ele>10</ele>
        <time>2026-08-20T10:52:58+00:00</time>
      </trkpt>
      <trkpt lat="45.53256" lon="13.64053">
        <ele>10</ele>
        <time>2026-08-20T10:53:01+00:00</time>
      </trkpt>
      <trkpt lat="45.53256" lon="13.64056">
        <ele>10</ele>
        <time>2026-08-20T10:53:04+00:00</time>
      </trkpt>
      <trkpt lat="45.53254" lon="13.64062">
        <ele>9</ele>
        <time>2026-08-20T10:53:07+00:00</time>
      </trkpt>
      <trkpt lat="45.5326" lon="13.64068">
        <ele>9</ele>
        <time>2026-08-20T10:53:10+00:00</time>
      </trkpt>
      <trkpt lat="45.53258" lon="13.64079">
        <ele>9</ele>
        <time>2026-08-20T10:53:13+00:00</time>
      </trkpt>
      <trkpt lat="45.53243" lon="13.64118">
        <ele>9</ele>
        <time>2026-08-20T10:53:16+00:00</time>
      </trkpt>
      <trkpt lat="45.53233" lon="13.64161">
        <ele>11</ele>
        <time>2026-08-20T10:53:19+00:00</time>
      </trkpt>
      <trkpt lat="45.53223" lon="13.64204">
        <ele>12</ele>
        <time>2026-08-20T10:53:22+00:00</time>
      </trkpt>
      <trkpt lat="45.53213" lon="13.64251">
        <ele>14</ele>
        <time>2026-08-20T10:53:25+00:00</time>
      </trkpt>
      <trkpt lat="45.53196" lon="13.64309">
        <ele>15</ele>
        <time>2026-08-20T10:53:28+00:00</time>
      </trkpt>
      <trkpt lat="45.5319" lon="13.64346">
        <ele>15</ele>
        <time>2026-08-20T10:53:31+00:00</time>
      </trkpt>
      <trkpt lat="45.53183" lon="13.64395">
        <ele>15</ele>
        <time>2026-08-20T10:53:34+00:00</time>
      </trkpt>
      <trkpt lat="45.53183" lon="13.64433">
        <ele>12</ele>
        <time>2026-08-20T10:53:37+00:00</time>
      </trkpt>
      <trkpt lat="45.53187" lon="13.64474">
        <ele>9</ele>
        <time>2026-08-20T10:53:40+00:00</time>
      </trkpt>
      <trkpt lat="45.53187" lon="13.64508">
        <ele>8</ele>
        <time>2026-08-20T10:53:43+00:00</time>
      </trkpt>
      <trkpt lat="45.53195" lon="13.64545">
        <ele>5</ele>
        <time>2026-08-20T10:53:46+00:00</time>
      </trkpt>
      <trkpt lat="45.53206" lon="13.64592">
        <ele>4</ele>
        <time>2026-08-20T10:53:49+00:00</time>
      </trkpt>
      <trkpt lat="45.53221" lon="13.64565">
        <ele>2</ele>
        <time>2026-08-20T10:53:52+00:00</time>
      </trkpt>
      <trkpt lat="45.53236" lon="13.64537">
        <ele>2</ele>
        <time>2026-08-20T10:53:55+00:00</time>
      </trkpt>
      <trkpt lat="45.53257" lon="13.64559">
        <ele>1</ele>
        <time>2026-08-20T10:53:58+00:00</time>
      </trkpt>
      <trkpt lat="45.53284" lon="13.64587">
        <ele>1</ele>
        <time>2026-08-20T10:54:01+00:00</time>
      </trkpt>
    </trkseg>
  </trk>
</gpx>
